{
  "type": "FeatureCollection",
  "generator": "overpass-turbo",
  "copyright": "The data included in this document is from www.openstreetmap.org. The data is made available under ODbL.",
  "timestamp": "2023-12-16T17:00:43Z",
  "features": [
    {
      "type": "Feature",
      "properties": {
        "@id": "relation/4283101",
        "alt_name:gl": "София",
        "capital": "yes",
        "int_name": "Sofia",
        "name": "София",
        "name:am": "ሶፊያ",
        "name:an": "Sofiya",
        "name:ar": "صوفيا",
        "name:arz": "صوفيا",
        "name:ast": "Sofía",
        "name:az": "Sofiya",
        "name:bat-smg": "Suofėjė",
        "name:be": "Сафія",
        "name:be-tarask": "Сафія",
        "name:bg": "София",
        "name:bn": "সফিয়া",
        "name:bo": "སོ་ཧྥི་ཡ།",
        "name:bs": "Sofija",
        "name:ckb": "سۆفیا",
        "name:crh": "Sofiya",
        "name:cs": "Sofie",
        "name:cu": "Софїꙗ",
        "name:cv": "Софи",
        "name:de": "Sofia",
        "name:diq": "Sofya",
        "name:dsb": "Sofija",
        "name:el": "Σόφια",
        "name:en": "Sofia",
        "name:eo": "Sofio",
        "name:es": "Sofía",
        "name:et": "Sofia",
        "name:eu": "Sofia",
        "name:fa": "صوفیه",
        "name:fi": "Sofia",
        "name:fr": "Sofia",
        "name:ga": "Sóifia",
        "name:gag": "Sofiya",
        "name:gl": "Sofía",
        "name:he": "סופיה",
        "name:hi": "सोफिया",
        "name:hr": "Sofija",
        "name:hsb": "Sofija",
        "name:hu": "Szófia",
        "name:hy": "Սոֆիա",
        "name:io": "Sofiya",
        "name:is": "Sófía",
        "name:ja": "ソフィア",
        "name:ka": "სოფია",
        "name:kaa": "Sofiya",
        "name:kk": "София",
        "name:kn": "ಸೋಫಿಯಾ",
        "name:ko": "소피아",
        "name:ku": "Sofya",
        "name:kv": "София",
        "name:ky": "София",
        "name:la": "Serdica",
        "name:lez": "София",
        "name:lij": "Sòfia",
        "name:lt": "Sofija",
        "name:lv": "Sofija",
        "name:mhr": "Софий",
        "name:mk": "Софија",
        "name:ml": "സോഫിയ",
        "name:mn": "Софи",
        "name:mr": "सोफिया",
        "name:myv": "София ош",
        "name:nah": "Sofiya",
        "name:nl": "Sofia",
        "name:no": "Sofia",
        "name:oc": "Sòfia",
        "name:os": "София",
        "name:pl": "Sofia",
        "name:pms": "Sòfia",
        "name:pnb": "صوفیہ",
        "name:pt": "Sófia",
        "name:qu": "Sofiya",
        "name:rmy": "Sofiya",
        "name:ro": "Sofia",
        "name:ru": "София",
        "name:rw": "Sofiya",
        "name:sah": "София",
        "name:sh": "Sofija",
        "name:sk": "Sofia",
        "name:sl": "Sofija",
        "name:sq": "Sofja",
        "name:sr": "Софија",
        "name:sv": "Sofia",
        "name:ta": "சோஃவியா",
        "name:tg": "София",
        "name:th": "โซเฟีย",
        "name:tk": "Sofiýa",
        "name:tr": "Sofya",
        "name:udm": "София",
        "name:ug": "سوفىيە",
        "name:uk": "Софія",
        "name:ur": "صوفیہ",
        "name:vep": "Sofii",
        "name:vi": "Sofia",
        "name:vo": "Sofiya",
        "name:wo": "Sofiya",
        "name:yi": "סאפיע",
        "name:zh": "索菲亞",
        "name:zh-Hans": "索非亚",
        "name:zh-Hant": "索非亞",
        "old_name": "Сердика",
        "place": "city",
        "type": "multipolygon",
        "wikidata": "Q472",
        "wikipedia": "bg:София",
        "@geometry": "center"
      },
      "geometry": {
        "type": "Point",
        "coordinates": [
          23.3137813,
          42.6949361
        ]
      },
      "id": "relation/4283101"
    },
    {
      "type": "Feature",
      "properties": {
        "@id": "relation/4777998",
        "admin_level": "9",
        "boundary": "administrative",
        "name": "Черноморец",
        "place": "town",
        "type": "boundary",
        "@geometry": "center"
      },
      "geometry": {
        "type": "Point",
        "coordinates": [
          27.6412533,
          42.4400325
        ]
      },
      "id": "relation/4777998"
    },
    {
      "type": "Feature",
      "properties": {
        "@id": "relation/11002776",
        "addr:city": "Хасково",
        "capital": "6",
        "ekatte": "77195",
        "int_name": "Haskovo",
        "name": "Хасково",
        "name:bg": "Хасково",
        "name:ca": "Khàskovo",
        "name:cs": "Chaskovo",
        "name:de": "Chaskowo",
        "name:el": "Χάσκοβο",
        "name:en": "Haskovo",
        "name:eo": "Ĥaskovo",
        "name:et": "Haskovo",
        "name:fr": "Khaskovo",
        "name:hr": "Haskovo",
        "name:lt": "Chaskovas",
        "name:ml": "ഹസ്കോവോ",
        "name:nl": "Chaskovo",
        "name:pl": "Chaskowo",
        "name:pt": "Haskovo",
        "name:ro": "Haskovo",
        "name:ru": "Хасково",
        "name:sk": "Chaskovo",
        "name:sr": "Хасково",
        "name:sr-Latn": "Haskovo",
        "name:sv": "Chaskovo",
        "name:tr": "Hasköy",
        "place": "city",
        "population": "76587",
        "residential": "urban",
        "source": "Union européenne - SOeS, CORINE Land Cover, 2006;2012",
        "type": "multipolygon",
        "website": "https://www.haskovo.net/",
        "wikidata": "Q186254",
        "wikipedia": "bg:Хасково",
        "@geometry": "center"
      },
      "geometry": {
        "type": "Point",
        "coordinates": [
          25.5502966,
          41.9334202
        ]
      },
      "id": "relation/11002776"
    },
    {
      "type": "Feature",
      "properties": {
        "@id": "relation/11240822",
        "name": "Русе",
        "name:el": "Ρούσε",
        "name:en": "Ruse",
        "name:fr": "Roussé",
        "name:hu": "Rusze",
        "name:ro": "Ruse",
        "name:zh": "鲁塞",
        "place": "city",
        "population": "159798",
        "type": "multipolygon",
        "wikidata": "Q160173",
        "wikipedia": "bg:Русе",
        "@geometry": "center"
      },
      "geometry": {
        "type": "Point",
        "coordinates": [
          25.9862867,
          43.835066
        ]
      },
      "id": "relation/11240822"
    },
    {
      "type": "Feature",
      "properties": {
        "@id": "node/30361231",
        "ekatte": "73273",
        "int_name": "Tran",
        "name": "Трън",
        "name:en": "Tran",
        "name:hr": "Tran",
        "name:ru": "Трын",
        "place": "town",
        "population": "2443",
        "postal_code": "2460",
        "source": "bgtopomaps",
        "wikidata": "Q406863"
      },
      "geometry": {
        "type": "Point",
        "coordinates": [
          22.6517667,
          42.8354054
        ]
      },
      "id": "node/30361231"
    },
    {
      "type": "Feature",
      "properties": {
        "@id": "node/31058171",
        "alt_name:mk": "Благоевград",
        "alt_name:tr": "Blagoevgrad",
        "capital": "4",
        "ekatte": "04279",
        "int_name": "Blagoevgrad",
        "name": "Благоевград",
        "name:bg": "Благоевград",
        "name:ca": "Blagòevgrad",
        "name:de": "Blagoewgrad",
        "name:el": "Μπλαγκόεβγκραντ",
        "name:en": "Blagoevgrad",
        "name:et": "Blagoevgrad",
        "name:fr": "Blagoevgrad",
        "name:hr": "Blagoevgrad",
        "name:hu": "Blagoevgrad",
        "name:mk": "Горна Џумаја (Благоевград)",
        "name:ml": "ബ്ലാഗോയേവ്ഗ്രാഡ്",
        "name:nl": "Blagoëvgrad",
        "name:pl": "Błagojewgrad",
        "name:ro": "Blagoevgrad",
        "name:ru": "Благоевград",
        "name:sr": "Благоевград",
        "name:tr": "Yukarı Cuma",
        "old_name:tr": "Cuma-i Bâlâ",
        "place": "city",
        "population": "75079",
        "postal_code": "2700",
        "website": "http://www.blgmun.com",
        "wikidata": "Q173277",
        "wikipedia": "bg:Благоевград"
      },
      "geometry": {
        "type": "Point",
        "coordinates": [
          23.0906457,
          42.0111077
        ]
      },
      "id": "node/31058171"
    },
    {
      "type": "Feature",
      "properties": {
        "@id": "node/31058172",
        "capital": "4",
        "ekatte": "07079",
        "int_name": "Burgas",
        "name": "Бургас",
        "name:ar": "بورغاس",
        "name:bg": "Бургас",
        "name:ca": "Burgàs",
        "name:cs": "Burgas",
        "name:de": "Burgas",
        "name:el": "Πύργος",
        "name:en": "Burgas",
        "name:et": "Burgas",
        "name:eu": "Burgas",
        "name:fa": "بورگاس",
        "name:fr": "Bourgas",
        "name:hr": "Burgas",
        "name:hu": "Burgasz",
        "name:lt": "Burgasas",
        "name:lv": "Burgasa",
        "name:ml": "ബൂർഗാസ്",
        "name:nl": "Boergas",
        "name:pl": "Burgas",
        "name:ro": "Burgas",
        "name:ru": "Бургас",
        "name:sk": "Burgas",
        "name:sr": "Бургас",
        "name:tr": "Burgaz",
        "name:uk": "Бургас",
        "name:zh": "布爾加斯",
        "name:zh-Hans": "布尔加斯",
        "name:zh-Hant": "布爾加斯",
        "place": "city",
        "population": "206371",
        "ref:LOCODE": "BGBOJ",
        "website": "https://www.burgas.bg/",
        "wikidata": "Q6509",
        "wikipedia": "bg:Бургас"
      },
      "geometry": {
        "type": "Point",
        "coordinates": [
          27.4721276,
          42.4936616
        ]
      },
      "id": "node/31058172"
    },
    {
      "type": "Feature",
      "properties": {
        "@id": "node/31058173",
        "alt_name:tr": "Dobriç;Pazarcık",
        "capital": "4",
        "ekatte": "72624",
        "int_name": "Dobrich",
        "name": "Добрич",
        "name:bg": "Добрич",
        "name:de": "Dobritsch",
        "name:el": "Ντόμπριτς",
        "name:en": "Dobrich",
        "name:et": "Dobrič",
        "name:eu": "Dovritx",
        "name:fr": "Dobritch",
        "name:hr": "Dobrič",
        "name:hu": "Dobrics",
        "name:nl": "Dobritsj",
        "name:pl": "Dobricz",
        "name:ro": "Bazargic",
        "name:ru": "Добрич",
        "name:sr": "Добрич",
        "name:tr": "Hacıoğlu Pazarcık",
        "old_name:bg:-1888": "Хаджиоглу Пазарджик",
        "old_name:bg:1945-1990": "Толбухин",
        "old_name:de": "Basardschik",
        "old_name:en": "Tolbuhin",
        "place": "city",
        "population": "89627",
        "website": "https://www.dobrich.bg/",
        "wikidata": "Q168668",
        "wikipedia": "bg:Добрич"
      },
      "geometry": {
        "type": "Point",
        "coordinates": [
          27.8297415,
          43.5688397
        ]
      },
      "id": "node/31058173"
    },
    {
      "type": "Feature",
      "properties": {
        "@id": "node/31058174",
        "capital": "4",
        "ekatte": "14218",
        "int_name": "Gabrovo",
        "name": "Габрово",
        "name:de": "Gabrowo",
        "name:el": "Γκάμπροβο",
        "name:en": "Gabrovo",
        "name:et": "Gabrovo",
        "name:eu": "Gabrovo",
        "name:fr": "Gabrovo",
        "name:hr": "Gabrovo",
        "name:it": "Gabrovas",
        "name:pl": "Gabrowo",
        "name:ro": "Gabrovo",
        "name:ru": "Габрово",
        "name:sr": "Габрово",
        "name:tr": "Gabrova",
        "old_name": "Gabrova",
        "place": "city",
        "population": "59611",
        "wikidata": "Q180131",
        "wikipedia": "bg:Габрово"
      },
      "geometry": {
        "type": "Point",
        "coordinates": [
          25.315798,
          42.8710344
        ]
      },
      "id": "node/31058174"
    },
    {
      "type": "Feature",
      "properties": {
        "@id": "node/31058175",
        "capital": "4",
        "ekatte": "77195",
        "int_name": "Haskovo",
        "name": "Хасково",
        "name:bg": "Хасково",
        "name:ca": "Khàskovo",
        "name:cs": "Chaskovo",
        "name:de": "Chaskowo",
        "name:el": "Χάσκοβο",
        "name:en": "Haskovo",
        "name:eo": "Ĥaskovo",
        "name:et": "Haskovo",
        "name:fr": "Khaskovo",
        "name:hr": "Haskovo",
        "name:lt": "Chaskovas",
        "name:nl": "Chaskovo",
        "name:pl": "Chaskowo",
        "name:pt": "Haskovo",
        "name:ro": "Haskovo",
        "name:ru": "Хасково",
        "name:sk": "Chaskovo",
        "name:sr": "Хасково",
        "name:sr-Latn": "Haskovo",
        "name:sv": "Chaskovo",
        "name:tr": "Hasköy",
        "place": "city",
        "population": "76587",
        "website": "https://www.haskovo.bg/",
        "wikidata": "Q186254",
        "wikipedia": "bg:Хасково"
      },
      "geometry": {
        "type": "Point",
        "coordinates": [
          25.5556639,
          41.9345727
        ]
      },
      "id": "node/31058175"
    },
    {
      "type": "Feature",
      "properties": {
        "@id": "node/31058176",
        "capital": "4",
        "ekatte": "87374",
        "int_name": "Yambol",
        "name": "Ямбол",
        "name:bg": "Ямбол",
        "name:de": "Jambol",
        "name:el": "Γιάμπολ",
        "name:en": "Yambol",
        "name:et": "Jambol",
        "name:fr": "Yambol",
        "name:hr": "Jambol",
        "name:hu": "Bolu",
        "name:lt": "Jambolas",
        "name:mk": "Јамбол",
        "name:ml": "യാംബോൾ",
        "name:nl": "Jambol",
        "name:pl": "Jamboł",
        "name:pt": "Yambol",
        "name:ru": "Ямбол",
        "name:sr": "Јамбол",
        "name:tr": "Yanbolu",
        "place": "city",
        "population": "76599",
        "wikidata": "Q186569",
        "wikipedia": "bg:Ямбол"
      },
      "geometry": {
        "type": "Point",
        "coordinates": [
          26.5105553,
          42.483935
        ]
      },
      "id": "node/31058176"
    },
    {
      "type": "Feature",
      "properties": {
        "@id": "node/31058177",
        "alt_name:tr": "Kırcali",
        "capital": "4",
        "ekatte": "40909",
        "int_name": "Kardzhali",
        "name": "Кърджали",
        "name:bg": "Кърджали",
        "name:de": "Kardschali",
        "name:el": "Κάρτζαλι",
        "name:en": "Kardzhali",
        "name:et": "Kǎrdžali",
        "name:fr": "Kardjali",
        "name:hr": "Kardžali",
        "name:mk": "Крџали",
        "name:nl": "Kardzjali",
        "name:pl": "Kyrdżali",
        "name:pt": "Kurdzhali",
        "name:ro": "Kârgeali",
        "name:ru": "Кырджали",
        "name:sr": "Крџали",
        "name:sr-Latn": "Krdžali",
        "name:sv": "Kardzjali",
        "name:tr": "Kırcaali",
        "old_name": "Kırcaali",
        "place": "city",
        "population": "49421",
        "wikidata": "Q192875",
        "wikipedia": "bg:Кърджали"
      },
      "geometry": {
        "type": "Point",
        "coordinates": [
          25.3722156,
          41.643746
        ]
      },
      "id": "node/31058177"
    },
    {
      "type": "Feature",
      "properties": {
        "@id": "node/31058178",
        "capital": "4",
        "ekatte": "41112",
        "int_name": "Kyustendil",
        "name": "Кюстендил",
        "name:bg": "Кюстендил",
        "name:de": "Kjustendil",
        "name:el": "Κιουστεντίλ",
        "name:en": "Kyustendil",
        "name:es": "Kyustendil",
        "name:et": "Kjustendil",
        "name:fr": "Kyoustendil",
        "name:hr": "Kjustendil",
        "name:hu": "Kjusztendil",
        "name:mk": "Ќустендил",
        "name:nl": "Kjoestendil",
        "name:pl": "Kiustendił",
        "name:pt": "Kyustendil",
        "name:ro": "Kiustendil",
        "name:ru": "Кюстендил",
        "name:sr": "Ћустендил",
        "name:sr-Latn": "Ćustendil",
        "name:tr": "Köstendil",
        "place": "city",
        "population": "47640",
        "wikidata": "Q189305",
        "wikipedia": "bg:Кюстендил"
      },
      "geometry": {
        "type": "Point",
        "coordinates": [
          22.6890196,
          42.2809956
        ]
      },
      "id": "node/31058178"
    },
    {
      "type": "Feature",
      "properties": {
        "@id": "node/31058179",
        "capital": "4",
        "ekatte": "43952",
        "int_name": "Lovech",
        "name": "Ловеч",
        "name:bg": "Ловеч",
        "name:de": "Lowetsch",
        "name:el": "Λόβετς",
        "name:en": "Lovech",
        "name:et": "Loveč",
        "name:eu": "Lovetx",
        "name:fi": "Lovetš",
        "name:fr": "Lovetch",
        "name:hr": "Loveč",
        "name:la": "Melta",
        "name:nl": "Lovetsj",
        "name:pl": "Łowecz",
        "name:pt": "Lovech",
        "name:ru": "Ловеч",
        "name:sr": "Ловеч",
        "name:sv": "Lovetj",
        "name:tr": "Lofça",
        "old_name:tr": "Altın Lofça",
        "place": "city",
        "population": "37297",
        "wikidata": "Q189328",
        "wikipedia": "bg:Ловеч"
      },
      "geometry": {
        "type": "Point",
        "coordinates": [
          24.715431,
          43.1349971
        ]
      },
      "id": "node/31058179"
    },
    {
      "type": "Feature",
      "properties": {
        "@id": "node/31058180",
        "addr:postcode": "3400",
        "capital": "4",
        "ekatte": "48489",
        "int_name": "Montana",
        "name": "Монтана",
        "name:bg": "Монтана",
        "name:de": "Montana",
        "name:el": "Μοντάνα",
        "name:en": "Montana",
        "name:et": "Montana",
        "name:eu": "Montana",
        "name:fr": "Montana",
        "name:hr": "Montana",
        "name:ro": "Montana",
        "name:ru": "Монтана",
        "name:sk": "Montana",
        "name:sr": "Монтана",
        "name:tr": "Kutlu Viçe",
        "name:uk": "Монтана",
        "old_name:bg:-1891": "Кутловица",
        "old_name:bg:1891-1945": "Фердинанд",
        "old_name:bg:1945-1993": "Михайловград",
        "old_name:uk:-1891": "Кутловиця",
        "old_name:uk:1891-1945": "Фердинанд",
        "old_name:uk:1945-1993": "Михайловград",
        "place": "city",
        "population": "44502",
        "website": "https://www.montana.bg/",
        "wikidata": "Q220121",
        "wikipedia": "bg:Монтана"
      },
      "geometry": {
        "type": "Point",
        "coordinates": [
          23.2203193,
          43.4088984
        ]
      },
      "id": "node/31058180"
    },
    {
      "type": "Feature",
      "properties": {
        "@id": "node/31058181",
        "addr:postcode": "4400",
        "capital": "4",
        "ekatte": "55155",
        "int_name": "Pazardzhik",
        "name": "Пазарджик",
        "name:bg": "Пазарджик",
        "name:de": "Pasardschik",
        "name:el": "Πάζαρτζικ",
        "name:en": "Pazardzhik",
        "name:es": "Pazardzhik",
        "name:et": "Pazardžik",
        "name:fr": "Pazardjik",
        "name:hr": "Pazardžik",
        "name:hu": "Pazardzsik",
        "name:mk": "Пазарџик",
        "name:nl": "Pazardzjik",
        "name:pl": "Pazardżik",
        "name:pt": "Pazardzhik",
        "name:ro": "Pazargik",
        "name:ru": "Пазарджик",
        "name:sr": "Пазарџик",
        "name:sv": "Pazardzjik",
        "name:tr": "Tatarpazarcığı",
        "place": "city",
        "population": "76739",
        "website": "https://www.pazardjik.bg/",
        "wikidata": "Q186576",
        "wikipedia": "bg:Пазарджик"
      },
      "geometry": {
        "type": "Point",
        "coordinates": [
          24.3318993,
          42.1884549
        ]
      },
      "id": "node/31058181"
    },
    {
      "type": "Feature",
      "properties": {
        "@id": "node/31058182",
        "capital": "4",
        "ekatte": "55871",
        "int_name": "Pernik",
        "name": "Перник",
        "name:bg": "Перник",
        "name:de": "Pernik",
        "name:el": "Πέρνικ",
        "name:en": "Pernik",
        "name:fr": "Pernik",
        "name:hr": "Pernik",
        "name:lt": "Pernikas",
        "name:nl": "Pernik",
        "name:pl": "Pernik",
        "name:ru": "Перник",
        "name:sr": "Перник",
        "place": "city",
        "population": "78342",
        "wikidata": "Q185289",
        "wikipedia": "bg:Перник"
      },
      "geometry": {
        "type": "Point",
        "coordinates": [
          23.0309457,
          42.6092185
        ]
      },
      "id": "node/31058182"
    },
    {
      "type": "Feature",
      "properties": {
        "@id": "node/31058183",
        "capital": "4",
        "ekatte": "56722",
        "int_name": "Pleven",
        "name": "Плевен",
        "name:bg": "Плевен",
        "name:de": "Plewen",
        "name:el": "Πλέβεν",
        "name:en": "Pleven",
        "name:et": "Pleven",
        "name:eu": "Pleven",
        "name:fr": "Pleven",
        "name:hr": "Pleven",
        "name:hu": "Pleven",
        "name:lt": "Plevenas",
        "name:nl": "Pleven",
        "name:pl": "Plewen",
        "name:ro": "Plevna",
        "name:ru": "Плевен",
        "name:sk": "Pleven",
        "name:sr": "Плевен",
        "name:tr": "Plevne",
        "name:uk": "Плевен",
        "place": "city",
        "population": "111567",
        "website": "https://www.pleven.bg/",
        "wikidata": "Q165420",
        "wikipedia": "bg:Плевен"
      },
      "geometry": {
        "type": "Point",
        "coordinates": [
          24.6180123,
          43.409022
        ]
      },
      "id": "node/31058183"
    },
    {
      "type": "Feature",
      "properties": {
        "@id": "node/31058185",
        "capital": "4",
        "ekatte": "61710",
        "int_name": "Razgrad",
        "name": "Разград",
        "name:de": "Rasgrad",
        "name:el": "Ράζγκραντ",
        "name:en": "Razgrad",
        "name:et": "Razgrad",
        "name:eu": "Razgrad",
        "name:fr": "Razgrad",
        "name:hr": "Razgrad",
        "name:nl": "Razgrad",
        "name:pl": "Razgrad",
        "name:ro": "Razgrad",
        "name:ru": "Разград",
        "name:sr": "Разград",
        "name:tr": "Razgrad",
        "place": "city",
        "population": "35049",
        "wikidata": "Q189650",
        "wikipedia": "bg:Разград"
      },
      "geometry": {
        "type": "Point",
        "coordinates": [
          26.5230603,
          43.5258211
        ]
      },
      "id": "node/31058185"
    },
    {
      "type": "Feature",
      "properties": {
        "@id": "node/31058188",
        "capital": "4",
        "ekatte": "66425",
        "int_name": "Silistra",
        "name": "Силистра",
        "name:be": "Сілістра",
        "name:de": "Silistra",
        "name:el": "Σιλίστρα",
        "name:en": "Silistra",
        "name:es": "Silistra",
        "name:et": "Silistra",
        "name:fr": "Silistra",
        "name:la": "Silistria",
        "name:lt": "Silistra",
        "name:nl": "Silistra",
        "name:pl": "Silistra",
        "name:ro": "Silistra",
        "name:ru": "Силистра",
        "name:sr": "Силистра",
        "name:tr": "Silistire",
        "name:uk": "Сілістра",
        "old_name": "Дръстър",
        "old_name:bg": "Дръстър",
        "old_name:el": "Δορύστολον",
        "old_name:la": "Durostorum",
        "old_name:uk": "Доростол",
        "place": "city",
        "population": "37923",
        "website": "http://www.silistra.bg",
        "wikidata": "Q182428",
        "wikipedia": "bg:Силистра"
      },
      "geometry": {
        "type": "Point",
        "coordinates": [
          27.2600031,
          44.118308
        ]
      },
      "id": "node/31058188"
    },
    {
      "type": "Feature",
      "properties": {
        "@id": "node/31058189",
        "capital": "4",
        "ekatte": "67338",
        "ele": "259",
        "int_name": "Sliven",
        "name": "Сливен",
        "name:bg": "Сливен",
        "name:de": "Sliwen",
        "name:el": "Σλίβεν",
        "name:en": "Sliven",
        "name:et": "Sliven",
        "name:eu": "Sliven",
        "name:fr": "Sliven",
        "name:hr": "Svilen",
        "name:hu": "Szliven",
        "name:lb": "Sliwen",
        "name:nl": "Sliven",
        "name:pl": "Sliwen",
        "name:ro": "Sliven",
        "name:ru": "Сливен",
        "name:sr": "Сливен",
        "name:sr-Latn": "Sliven",
        "name:tr": "İslimiye",
        "place": "city",
        "population": "95806",
        "website": "https://sliven.bg/",
        "wikidata": "Q178385",
        "wikipedia": "bg:Сливен"
      },
      "geometry": {
        "type": "Point",
        "coordinates": [
          26.3153528,
          42.6817633
        ]
      },
      "id": "node/31058189"
    },
    {
      "type": "Feature",
      "properties": {
        "@id": "node/31058190",
        "addr:postcode": "4700",
        "capital": "4",
        "ekatte": "67653",
        "int_name": "Smolyan",
        "name": "Смолян",
        "name:de": "Smoljan",
        "name:el": "Σμόλιαν",
        "name:en": "Smolyan",
        "name:et": "Smoljan",
        "name:fr": "Smolyan",
        "name:hr": "Smoljan",
        "name:hu": "Szmoljan",
        "name:lt": "Smolianas",
        "name:mk": "Смољан",
        "name:nl": "Smoljan",
        "name:pl": "Smolan",
        "name:pt": "Smolyan",
        "name:ro": "Smolian",
        "name:ru": "Смолян",
        "name:sr": "Смољан",
        "name:tr": "Paşmaklı",
        "old_name": "Paşmaklı",
        "place": "city",
        "population": "30507",
        "website": "https://www.smolyan.bg/",
        "wikidata": "Q192888",
        "wikipedia": "bg:Смолян"
      },
      "geometry": {
        "type": "Point",
        "coordinates": [
          24.7010351,
          41.5768238
        ]
      },
      "id": "node/31058190"
    },
    {
      "type": "Feature",
      "properties": {
        "@id": "node/31058192",
        "capital": "4",
        "ekatte": "73626",
        "int_name": "Targovishte",
        "name": "Търговище",
        "name:bs": "Trgovište",
        "name:de": "Targowischte",
        "name:el": "Ταργκόβιστε",
        "name:en": "Targovishte",
        "name:et": "Tǎrgovište",
        "name:eu": "Targovixte",
        "name:fr": "Targovichte",
        "name:hr": "Trgovište",
        "name:mk": "Трговиште",
        "name:nl": "Targovisjte",
        "name:pl": "Tyrgowiszte",
        "name:pt": "Turgovishte",
        "name:ro": "Târgoviște",
        "name:ru": "Тырговиште",
        "name:sr": "Трговиште",
        "name:tr": "Eski Cuma",
        "old_name": "Eski Cuma",
        "place": "city",
        "population": "39578",
        "wikidata": "Q185114",
        "wikipedia": "bg:Търговище"
      },
      "geometry": {
        "type": "Point",
        "coordinates": [
          26.5727944,
          43.251196
        ]
      },
      "id": "node/31058192"
    },
    {
      "type": "Feature",
      "properties": {
        "@id": "node/31058194",
        "capital": "4",
        "ekatte": "10135",
        "int_name": "Varna",
        "name": "Варна",
        "name:ar": "فارنا",
        "name:bg": "Варна",
        "name:de": "Warna",
        "name:el": "Βάρνα",
        "name:en": "Varna",
        "name:et": "Varna",
        "name:eu": "Varna",
        "name:fr": "Varna",
        "name:hr": "Varna",
        "name:hu": "Várna",
        "name:ja": "ヴァルナ",
        "name:ku": "Varna",
        "name:la": "Odessus",
        "name:lt": "Varna",
        "name:ml": "വാർണ",
        "name:nl": "Varna",
        "name:pl": "Warna",
        "name:ro": "Varna",
        "name:ru": "Варна",
        "name:sk": "Varna",
        "name:sr": "Варна",
        "name:tr": "Varna",
        "name:uk": "Варна",
        "name:zh": "瓦爾納",
        "name:zh-Hans": "瓦尔纳",
        "name:zh-Hant": "瓦爾納",
        "old_name:bg:1949-1956": "Сталин",
        "place": "city",
        "population": "348058",
        "postal_code": "9000",
        "ref:LOCODE": "BGVAR",
        "wikidata": "Q6506",
        "wikipedia": "bg:Варна"
      },
      "geometry": {
        "type": "Point",
        "coordinates": [
          27.9166653,
          43.2073873
        ]
      },
      "id": "node/31058194"
    },
    {
      "type": "Feature",
      "properties": {
        "@id": "node/31058195",
        "capital": "4",
        "ekatte": "10447",
        "int_name": "Veliko Tarnovo",
        "name": "Велико Търново",
        "name:bg": "Велико Търново",
        "name:de": "Weliko Tarnowo",
        "name:el": "Βελίκο Τίρνοβο",
        "name:en": "Veliko Tarnovo",
        "name:es": "Veliko Tarnovo",
        "name:et": "Veliko Tǎrnovo",
        "name:fr": "Veliko Tarnovo",
        "name:hr": "Veliko Tarnovo",
        "name:mk": "Велико Трново",
        "name:ml": "വെലീക്കോ ടർനോവോ",
        "name:nl": "Veliko Tarnovo",
        "name:pl": "Wielkie Tyrnowo",
        "name:pt": "Veliko Turnovo",
        "name:ro": "Veliko Tărnovo",
        "name:ru": "Велико-Тырново",
        "name:sr": "Велико Трново",
        "name:sr-Latn": "Veliko Trnovo",
        "name:tr": "Tırnova",
        "place": "city",
        "population": "71150",
        "short_name": "Търново",
        "short_name:de": "Tarnowo",
        "short_name:en": "Tarnovo",
        "short_name:es": "Tarnovo",
        "short_name:fr": "Tarnovo",
        "short_name:hr": "Tarnovo",
        "short_name:nl": "Tarnovo",
        "short_name:pl": "Tyrnowo",
        "short_name:pt": "Turnovo",
        "short_name:ro": "Tărnovo",
        "short_name:ru": "Тырново",
        "short_name:sr": "Трново",
        "website": "https://www.veliko-tarnovo.bg/",
        "wikidata": "Q173474",
        "wikipedia": "bg:Велико Търново"
      },
      "geometry": {
        "type": "Point",
        "coordinates": [
          25.6321312,
          43.0820584
        ]
      },
      "id": "node/31058195"
    },
    {
      "type": "Feature",
      "properties": {
        "@id": "node/31058196",
        "capital": "4",
        "ekatte": "10971",
        "int_name": "Vidin",
        "name": "Видин",
        "name:bg": "Видин",
        "name:de": "Widin",
        "name:el": "Βιδίνιο",
        "name:en": "Vidin",
        "name:et": "Vidin",
        "name:fr": "Vidin",
        "name:hr": "Vidin",
        "name:ml": "വിഡിൻ",
        "name:nl": "Vidin",
        "name:pl": "Widyń",
        "name:ro": "Vidin",
        "name:ru": "Видин",
        "name:sr": "Видин",
        "name:tr": "Vidin",
        "old_name:ro": "Diiu",
        "place": "city",
        "population": "50977",
        "postal_code": "3700",
        "reg_name": "Diiu",
        "wikidata": "Q178531",
        "wikipedia": "bg:Видин",
        "wikipedia:ro": "Vidin"
      },
      "geometry": {
        "type": "Point",
        "coordinates": [
          22.8773117,
          43.9858809
        ]
      },
      "id": "node/31058196"
    },
    {
      "type": "Feature",
      "properties": {
        "@id": "node/31058197",
        "capital": "4",
        "ekatte": "12259",
        "int_name": "Vratsa",
        "name": "Враца",
        "name:bg": "Враца",
        "name:de": "Wraza",
        "name:el": "Βράτσα",
        "name:en": "Vratsa",
        "name:eo": "Vraca",
        "name:es": "Vratsa",
        "name:et": "Vraca",
        "name:fi": "Vratsa",
        "name:fr": "Vratsa",
        "name:hr": "Vraca",
        "name:it": "Vraca",
        "name:nl": "Vratsa",
        "name:pl": "Wraca",
        "name:pt": "Vratsa",
        "name:ro": "Vrața",
        "name:ru": "Враца",
        "name:sk": "Vraca",
        "name:sr": "Враца",
        "name:sv": "Vratsa",
        "name:tr": "İvraca",
        "place": "city",
        "population": "60877",
        "wikidata": "Q189502",
        "wikipedia": "bg:Враца"
      },
      "geometry": {
        "type": "Point",
        "coordinates": [
          23.548027,
          43.2028209
        ]
      },
      "id": "node/31058197"
    },
    {
      "type": "Feature",
      "properties": {
        "@id": "way/123463011",
        "CLC:code": "112",
        "CLC:year": "2006",
        "place": "town",
        "source": "Union européenne - SOeS, CORINE Land Cover, 2006.",
        "@geometry": "center"
      },
      "geometry": {
        "type": "Point",
        "coordinates": [
          23.1677382,
          43.7375242
        ]
      },
      "id": "way/123463011"
    },
    {
      "type": "Feature",
      "properties": {
        "@id": "way/123491823",
        "CLC:code": "112",
        "CLC:year": "2006",
        "name": "Тръстеник",
        "place": "town",
        "source": "Union européenne - SOeS, CORINE Land Cover, 2006.",
        "wikidata": "Q405720",
        "@geometry": "center"
      },
      "geometry": {
        "type": "Point",
        "coordinates": [
          24.466925,
          43.5196385
        ]
      },
      "id": "way/123491823"
    },
    {
      "type": "Feature",
      "properties": {
        "@id": "way/123697964",
        "CLC:code": "112",
        "CLC:year": "2006",
        "place": "town",
        "source": "Union européenne - SOeS, CORINE Land Cover, 2006.",
        "@geometry": "center"
      },
      "geometry": {
        "type": "Point",
        "coordinates": [
          25.6234362,
          43.181053
        ]
      },
      "id": "way/123697964"
    },
    {
      "type": "Feature",
      "properties": {
        "@id": "way/123701557",
        "CLC:code": "112",
        "CLC:year": "2006",
        "name": "Китанчево",
        "place": "town",
        "source": "Union européenne - SOeS, CORINE Land Cover, 2006.",
        "@geometry": "center"
      },
      "geometry": {
        "type": "Point",
        "coordinates": [
          26.8965643,
          43.731869
        ]
      },
      "id": "way/123701557"
    },
    {
      "type": "Feature",
      "properties": {
        "@id": "way/123701575",
        "CLC:code": "112",
        "CLC:year": "2006",
        "addr:city": "Провадия",
        "addr:country": "BG",
        "addr:region": "Варна",
        "landuse": "residential",
        "name": "Провадия",
        "place": "town",
        "population": "15000",
        "source": "Union européenne - SOeS, CORINE Land Cover, 2006.",
        "@geometry": "center"
      },
      "geometry": {
        "type": "Point",
        "coordinates": [
          27.4404672,
          43.1771585
        ]
      },
      "id": "way/123701575"
    },
    {
      "type": "Feature",
      "properties": {
        "@id": "node/174639032",
        "alt_name:en": "Rousse",
        "alt_name:la": "Prista",
        "capital": "4",
        "designation": "Областен център",
        "ekatte": "63427",
        "int_name": "Ruse",
        "name": "Русе",
        "name:bg": "Русе",
        "name:de": "Russe",
        "name:el": "Ρούσε",
        "name:en": "Ruse",
        "name:et": "Ruse",
        "name:fr": "Roussé",
        "name:hr": "Ruse",
        "name:hu": "Rusze",
        "name:la": "Sexantaprista",
        "name:lt": "Rusė",
        "name:ml": "റൂസെ",
        "name:nl": "Roese",
        "name:pl": "Ruse",
        "name:pt": "Ruse",
        "name:ro": "Ruse",
        "name:ru": "Русе",
        "name:sr": "Русе",
        "name:tr": "Rusçuk",
        "name:uk": "Русе",
        "name:zh": "鲁塞",
        "old_name": "Русчук",
        "old_name:ro": "Rusciuc",
        "place": "city",
        "population": "159798",
        "website": "http://www.ruse-bg.eu",
        "wikidata": "Q160173",
        "wikipedia": "bg:Русе"
      },
      "geometry": {
        "type": "Point",
        "coordinates": [
          25.9542057,
          43.8480413
        ]
      },
      "id": "node/174639032"
    },
    {
      "type": "Feature",
      "properties": {
        "@id": "node/262893507",
        "ekatte": "77270",
        "int_name": "Hisarya",
        "is_in:country": "България",
        "is_in:municipality": "Хисаря",
        "is_in:region": "Пловдив",
        "name": "Хисаря",
        "name:bg": "Хисаря",
        "name:en": "Hisarya",
        "name:pl": "Chisaria",
        "place": "town",
        "population": "7660",
        "wikidata": "Q239989",
        "wikipedia": "bg:Хисаря"
      },
      "geometry": {
        "type": "Point",
        "coordinates": [
          24.6948452,
          42.5132789
        ]
      },
      "id": "node/262893507"
    },
    {
      "type": "Feature",
      "properties": {
        "@id": "node/266013327",
        "ekatte": "10450",
        "int_name": "Velingrad",
        "name": "Велинград",
        "name:bg": "Велинград",
        "name:de": "Welingrad",
        "name:en": "Velingrad",
        "name:pl": "Welingrad",
        "place": "town",
        "population": "25308",
        "wikidata": "Q405114"
      },
      "geometry": {
        "type": "Point",
        "coordinates": [
          23.9944408,
          42.0283589
        ]
      },
      "id": "node/266013327"
    },
    {
      "type": "Feature",
      "properties": {
        "@id": "node/267050507",
        "ekatte": "73198",
        "int_name": "Troyan",
        "name": "Троян",
        "name:bg": "Троян",
        "name:de": "Trojan",
        "name:en": "Troyan",
        "name:it": "Trojan",
        "name:ro": "Troian",
        "place": "town",
        "population": "23422",
        "source": "bgtopomaps",
        "wikidata": "Q851855"
      },
      "geometry": {
        "type": "Point",
        "coordinates": [
          24.7123534,
          42.8910697
        ]
      },
      "id": "node/267050507"
    },
    {
      "type": "Feature",
      "properties": {
        "@id": "node/269989279",
        "ekatte": "36837",
        "int_name": "Kilifarevo",
        "name": "Килифарево",
        "name:en": "Kilifarevo",
        "place": "town",
        "wikidata": "Q406624",
        "wikipedia": "bg:Килифарево"
      },
      "geometry": {
        "type": "Point",
        "coordinates": [
          25.6211255,
          42.9932207
        ]
      },
      "id": "node/269989279"
    },
    {
      "type": "Feature",
      "properties": {
        "@id": "node/269994784",
        "ekatte": "20242",
        "int_name": "Debelets",
        "name": "Дебелец",
        "name:en": "Debelets",
        "name:ro": "Debeleț",
        "place": "town",
        "wikidata": "Q405899"
      },
      "geometry": {
        "type": "Point",
        "coordinates": [
          25.6238483,
          43.0431077
        ]
      },
      "id": "node/269994784"
    },
    {
      "type": "Feature",
      "properties": {
        "@id": "node/270687419",
        "ekatte": "62004",
        "int_name": "Rakitovo",
        "name": "Ракитово",
        "name:en": "Rakitovo",
        "name:ru": "Ракитово",
        "place": "town",
        "population": "8589",
        "wikidata": "Q405554"
      },
      "geometry": {
        "type": "Point",
        "coordinates": [
          24.0876515,
          41.9911914
        ]
      },
      "id": "node/270687419"
    },
    {
      "type": "Feature",
      "properties": {
        "@id": "node/270706123",
        "ekatte": "56277",
        "int_name": "Peshtera",
        "name": "Пещера",
        "name:de": "Peschtera",
        "name:en": "Peshtera",
        "place": "town",
        "population": "20753",
        "wikidata": "Q407570",
        "wikipedia": "en:Peshtera"
      },
      "geometry": {
        "type": "Point",
        "coordinates": [
          24.305207,
          42.0336471
        ]
      },
      "id": "node/270706123"
    },
    {
      "type": "Feature",
      "properties": {
        "@id": "node/270706235",
        "ekatte": "02837",
        "int_name": "Batak",
        "name": "Батак",
        "name:en": "Batak",
        "place": "town",
        "population": "3552",
        "wikidata": "Q1756874"
      },
      "geometry": {
        "type": "Point",
        "coordinates": [
          24.218337,
          41.9429717
        ]
      },
      "id": "node/270706235"
    },
    {
      "type": "Feature",
      "properties": {
        "@id": "node/270707188",
        "ekatte": "66264",
        "int_name": "Septemvri",
        "name": "Септември",
        "name:en": "Septemvri",
        "name:nl": "Septemvri",
        "place": "town",
        "population": "8590",
        "wikidata": "Q406523"
      },
      "geometry": {
        "type": "Point",
        "coordinates": [
          24.1329685,
          42.2073623
        ]
      },
      "id": "node/270707188"
    },
    {
      "type": "Feature",
      "properties": {
        "@id": "node/273351340",
        "ekatte": "00357",
        "int_name": "Novi Iskar",
        "name": "Нови Искър",
        "name:bg": "Нови Искър",
        "name:de": "Nowi Iskar",
        "name:el": "Νόβι Ίσκαρ",
        "name:en": "Novi Iskar",
        "name:fr": "Novi Iskar",
        "place": "town",
        "population": "13964",
        "wikidata": "Q2670226",
        "wikipedia": "bg:Нови Искър"
      },
      "geometry": {
        "type": "Point",
        "coordinates": [
          23.3582609,
          42.8143844
        ]
      },
      "id": "node/273351340"
    },
    {
      "type": "Feature",
      "properties": {
        "@id": "node/273488674",
        "addr:postcode": "8260",
        "ekatte": "48619",
        "int_name": "Tsarevo",
        "name": "Царево",
        "name:bg": "Царево",
        "name:cs": "Carevo",
        "name:de": "Zarewo",
        "name:el": "Βασιλικόν Πύργου",
        "name:en": "Tsarevo",
        "name:fr": "Tsarévo",
        "name:pl": "Carewo",
        "name:pt": "Carevo",
        "name:ro": "Țarevo",
        "old_name:bg:-1934": "Василико",
        "old_name:bg:1934-1950": "Царево",
        "old_name:bg:1950-1991": "Мичурин",
        "place": "town",
        "population": "6236",
        "source": "bgtopomaps",
        "wikidata": "Q147938",
        "wikipedia": "bg:Царево"
      },
      "geometry": {
        "type": "Point",
        "coordinates": [
          27.8482856,
          42.1702827
        ]
      },
      "id": "node/273488674"
    },
    {
      "type": "Feature",
      "properties": {
        "@id": "node/273488675",
        "ekatte": "56407",
        "int_name": "Pirdop",
        "name": "Пирдоп",
        "name:de": "Pirdop",
        "name:en": "Pirdop",
        "name:ro": "Pirdop",
        "place": "town",
        "population": "7439",
        "source": "bgtopomaps",
        "wikidata": "Q405654"
      },
      "geometry": {
        "type": "Point",
        "coordinates": [
          24.1803328,
          42.7006838
        ]
      },
      "id": "node/273488675"
    },
    {
      "type": "Feature",
      "properties": {
        "@id": "node/273488676",
        "ekatte": "14711",
        "int_name": "General Toshevo",
        "name": "Генерал Тошево",
        "name:de": "General Toschewo",
        "name:en": "General Toshevo",
        "name:eo": "General Toŝevo",
        "name:es": "General Toshevo",
        "name:pl": "Generał Toszewo",
        "name:ro": "General Toșevo",
        "old_name:de": "Tschobankuius",
        "place": "town",
        "population": "6835",
        "source": "bgtopomaps",
        "wikidata": "Q405390"
      },
      "geometry": {
        "type": "Point",
        "coordinates": [
          28.0362083,
          43.7001477
        ]
      },
      "id": "node/273488676"
    },
    {
      "type": "Feature",
      "properties": {
        "@id": "node/273488678",
        "ekatte": "58222",
        "int_name": "Veliki Preslav",
        "name": "Велики Преслав",
        "name:en": "Veliki Preslav",
        "place": "town",
        "population": "8843",
        "source": "bgtopomaps",
        "wikidata": "Q243616",
        "wikipedia": "bg:Велики Преслав"
      },
      "geometry": {
        "type": "Point",
        "coordinates": [
          26.81207,
          43.16084
        ]
      },
      "id": "node/273488678"
    },
    {
      "type": "Feature",
      "properties": {
        "@id": "node/273488679",
        "ekatte": "77308",
        "int_name": "Tsar Kaloyan",
        "name": "Цар Калоян",
        "name:bg": "Цар Калоян",
        "name:en": "Tsar Kaloyan",
        "place": "town",
        "source": "bgtopomaps",
        "wikidata": "Q407121",
        "wikipedia": "bg:Цар Калоян (град)"
      },
      "geometry": {
        "type": "Point",
        "coordinates": [
          26.2412415,
          43.6065651
        ]
      },
      "id": "node/273488679"
    },
    {
      "type": "Feature",
      "properties": {
        "@id": "node/273488680",
        "ekatte": "00182",
        "int_name": "Aksakovo",
        "name": "Аксаково",
        "name:de": "Aksakowo",
        "name:en": "Aksakovo",
        "place": "town",
        "population": "8042",
        "source": "bgtopomaps",
        "website": "https://www.aksakovo.info/",
        "wikidata": "Q405433"
      },
      "geometry": {
        "type": "Point",
        "coordinates": [
          27.8173611,
          43.2586259
        ]
      },
      "id": "node/273488680"
    },
    {
      "type": "Feature",
      "properties": {
        "@id": "node/273488681",
        "ekatte": "57354",
        "int_name": "Polski Trambesh",
        "name": "Полски Тръмбеш",
        "name:en": "Polski Trambesh",
        "place": "town",
        "source": "bgtopomaps",
        "wikidata": "Q405905"
      },
      "geometry": {
        "type": "Point",
        "coordinates": [
          25.6358862,
          43.3698211
        ]
      },
      "id": "node/273488681"
    },
    {
      "type": "Feature",
      "properties": {
        "@id": "node/273488683",
        "ekatte": "15309",
        "int_name": "Godech",
        "name": "Годеч",
        "name:de": "Godetsch",
        "name:en": "Godech",
        "name:ro": "Godeci",
        "place": "town",
        "source": "bgtopomaps",
        "wikidata": "Q405420"
      },
      "geometry": {
        "type": "Point",
        "coordinates": [
          23.0470159,
          43.0157976
        ]
      },
      "id": "node/273488683"
    },
    {
      "type": "Feature",
      "properties": {
        "@id": "node/273488684",
        "ekatte": "02659",
        "int_name": "Bankya",
        "name": "Банкя",
        "name:de": "Bankja",
        "name:el": "Μπάνκια",
        "name:en": "Bankya",
        "name:fr": "Bankya",
        "name:pl": "Bankja",
        "name:ru": "Банкя",
        "place": "town",
        "population": "11667",
        "source": "bgtopomaps",
        "wikidata": "Q806817",
        "wikipedia": "bg:Банкя"
      },
      "geometry": {
        "type": "Point",
        "coordinates": [
          23.1464966,
          42.7101251
        ]
      },
      "id": "node/273488684"
    },
    {
      "type": "Feature",
      "properties": {
        "@id": "node/273488686",
        "addr:postcode": "8200",
        "alt_name": "Pomorje",
        "ekatte": "57491",
        "int_name": "Pomorie",
        "name": "Поморие",
        "name:bg": "Поморие",
        "name:de": "Pomorie",
        "name:el": "Πομόριε",
        "name:en": "Pomorie",
        "name:fr": "Pomorié",
        "name:lt": "Pomorijė",
        "place": "town",
        "population": "13919",
        "source": "bgtopomaps",
        "website": "https://www.pomorie.bg/",
        "wikidata": "Q407372",
        "wikipedia": "bg:Поморие"
      },
      "geometry": {
        "type": "Point",
        "coordinates": [
          27.6167754,
          42.5684133
        ]
      },
      "id": "node/273488686"
    },
    {
      "type": "Feature",
      "properties": {
        "@id": "node/273488687",
        "addr:postcode": "8470",
        "ekatte": "70247",
        "int_name": "Sungurlare",
        "name": "Сунгурларе",
        "name:en": "Sungurlare",
        "name:fr": "Soungourlare",
        "name:ru": "Сунгурларе",
        "place": "town",
        "population": "3262",
        "source": "bgtopomaps",
        "wikidata": "Q990310",
        "wikipedia": "bg:Сунгурларе"
      },
      "geometry": {
        "type": "Point",
        "coordinates": [
          26.7772625,
          42.7631059
        ]
      },
      "id": "node/273488687"
    },
    {
      "type": "Feature",
      "properties": {
        "@id": "node/273488689",
        "ekatte": "18280",
        "name": "Гълъбово",
        "name:bg": "Гълъбово",
        "name:de": "Galabowo",
        "name:el": "Γκαλάμποβο",
        "name:en": "Galabovo",
        "place": "town",
        "population": "8612",
        "source": "bgtopomaps",
        "wikidata": "Q405736"
      },
      "geometry": {
        "type": "Point",
        "coordinates": [
          25.867346,
          42.1390164
        ]
      },
      "id": "node/273488689"
    },
    {
      "type": "Feature",
      "properties": {
        "@id": "node/273488691",
        "addr:postcode": "2780",
        "ekatte": "03504",
        "int_name": "Belitsa",
        "name": "Белица",
        "name:en": "Belitsa",
        "name:fr": "Belitsa",
        "name:mk": "Белица",
        "place": "town",
        "population": "3163",
        "source": "bgtopomaps",
        "wikidata": "Q406631",
        "wikipedia": "bg:Белица"
      },
      "geometry": {
        "type": "Point",
        "coordinates": [
          23.5592025,
          41.9510591
        ]
      },
      "id": "node/273488691"
    },
    {
      "type": "Feature",
      "properties": {
        "@id": "node/273488692",
        "alt_name:tr": "Osmanpazarı",
        "ekatte": "53535",
        "int_name": "Omurtag",
        "name": "Омуртаг",
        "name:en": "Omurtag",
        "name:ru": "Омуртаг",
        "name:tr": "Osmanpazar",
        "place": "town",
        "population": "9114",
        "source": "bgtopomaps",
        "wikidata": "Q406243"
      },
      "geometry": {
        "type": "Point",
        "coordinates": [
          26.4174525,
          43.1085755
        ]
      },
      "id": "node/273488692"
    },
    {
      "type": "Feature",
      "properties": {
        "@id": "node/273488693",
        "ekatte": "43236",
        "int_name": "Levski",
        "name": "Левски",
        "name:bg": "Левски",
        "name:en": "Levski",
        "name:ru": "Левски",
        "place": "town",
        "source": "bgtopomaps",
        "wikidata": "Q405610",
        "wikipedia": "bg:Левски (град)"
      },
      "geometry": {
        "type": "Point",
        "coordinates": [
          25.1422144,
          43.3597306
        ]
      },
      "id": "node/273488693"
    },
    {
      "type": "Feature",
      "properties": {
        "@id": "node/273488695",
        "ekatte": "51980",
        "int_name": "Stamboliyski",
        "name": "Стамболийски",
        "name:en": "Stamboliyski",
        "name:nl": "Stamboliyski",
        "place": "town",
        "population": "11610",
        "source": "bgtopomaps",
        "wikidata": "Q405708"
      },
      "geometry": {
        "type": "Point",
        "coordinates": [
          24.5376825,
          42.1363756
        ]
      },
      "id": "node/273488695"
    },
    {
      "type": "Feature",
      "properties": {
        "@id": "node/273488698",
        "ekatte": "43476",
        "int_name": "Letnitsa",
        "name": "Летница",
        "name:bg": "Летница",
        "name:en": "Letnitsa",
        "place": "town",
        "source": "bgtopomaps",
        "wikidata": "Q405774"
      },
      "geometry": {
        "type": "Point",
        "coordinates": [
          25.0540972,
          43.3058111
        ]
      },
      "id": "node/273488698"
    },
    {
      "type": "Feature",
      "properties": {
        "@id": "node/273488699",
        "ekatte": "27303",
        "int_name": "Elin Pelin",
        "name": "Елин Пелин",
        "name:de": "Elin Pelin",
        "name:en": "Elin Pelin",
        "name:ro": "Elin Pelin",
        "place": "town",
        "population": "6835",
        "source": "bgtopomaps",
        "wikidata": "Q406042"
      },
      "geometry": {
        "type": "Point",
        "coordinates": [
          23.6021426,
          42.6691132
        ]
      },
      "id": "node/273488699"
    },
    {
      "type": "Feature",
      "properties": {
        "@id": "node/273488700",
        "ekatte": "61460",
        "int_name": "Radnevo",
        "name": "Раднево",
        "name:bg": "Раднево",
        "name:en": "Radnevo",
        "place": "town",
        "population": "13160",
        "source": "bgtopomaps",
        "wikidata": "Q407383"
      },
      "geometry": {
        "type": "Point",
        "coordinates": [
          25.9338724,
          42.2890477
        ]
      },
      "id": "node/273488700"
    },
    {
      "type": "Feature",
      "properties": {
        "@id": "node/273488702",
        "ekatte": "27632",
        "int_name": "Etropole",
        "name": "Етрополе",
        "name:bg": "Етрополе",
        "name:en": "Etropole",
        "name:ro": "Etropole",
        "place": "town",
        "population": "10936",
        "source": "bgtopomaps",
        "wikidata": "Q406064"
      },
      "geometry": {
        "type": "Point",
        "coordinates": [
          23.9964396,
          42.8326835
        ]
      },
      "id": "node/273488702"
    },
    {
      "type": "Feature",
      "properties": {
        "@id": "node/273488703",
        "ekatte": "17645",
        "int_name": "Gramada",
        "name": "Грамада",
        "name:en": "Gramada",
        "name:ro": "Gramada",
        "place": "town",
        "source": "bgtopomaps",
        "wikidata": "Q405591"
      },
      "geometry": {
        "type": "Point",
        "coordinates": [
          22.6520974,
          43.8345091
        ]
      },
      "id": "node/273488703"
    },
    {
      "type": "Feature",
      "properties": {
        "@id": "node/273488704",
        "alt_name:tr": "Karadere;Kara Dere",
        "ekatte": "31111",
        "int_name": "Zlatograd",
        "name": "Златоград",
        "name:cs": "Zlatograd",
        "name:de": "Slatograd",
        "name:el": "Ζλάτογκραντ",
        "name:en": "Zlatograd",
        "name:tr": "Darıdere",
        "place": "town",
        "population": "7169",
        "source": "bgtopomaps",
        "wikidata": "Q1790862",
        "wikipedia": "bg:Златоград"
      },
      "geometry": {
        "type": "Point",
        "coordinates": [
          25.0950002,
          41.3809141
        ]
      },
      "id": "node/273488704"
    },
    {
      "type": "Feature",
      "properties": {
        "@id": "node/273488705",
        "ekatte": "02508",
        "int_name": "Balchik",
        "name": "Балчик",
        "name:bg": "Балчик",
        "name:cs": "Balčik",
        "name:de": "Baltschik",
        "name:en": "Balchik",
        "name:es": "Balchik",
        "name:fr": "Baltchik",
        "name:hu": "Balcsik",
        "name:nl": "Baltsjik",
        "name:pl": "Bałczik",
        "name:ro": "Balcic",
        "name:sv": "Baltjik",
        "place": "town",
        "population": "12690",
        "source": "bgtopomaps",
        "wikidata": "Q329437",
        "wikipedia": "bg:Балчик"
      },
      "geometry": {
        "type": "Point",
        "coordinates": [
          28.1602967,
          43.4259186
        ]
      },
      "id": "node/273488705"
    },
    {
      "type": "Feature",
      "properties": {
        "@id": "node/273488707",
        "alt_name:de": "Dupnitsa",
        "alt_name:en": "Dupnica",
        "ekatte": "68789",
        "int_name": "Dupnitsa",
        "name": "Дупница",
        "name:de": "Dupniza",
        "name:el": "Ντούπνιτσα",
        "name:en": "Dupnitsa",
        "name:es": "Dupnitsa",
        "name:et": "Dupnica",
        "name:fr": "Doupnitsa",
        "name:hr": "Dupnica",
        "name:nl": "Doepnitsa",
        "name:pl": "Dupnica",
        "name:pt": "Dupnitsa",
        "name:ro": "Dupnița",
        "name:tr": "Dupniçe",
        "old_name:bg:-1948": "Дупнеца",
        "old_name:bg:1948-1949": "Марек",
        "old_name:bg:1949-1990": "Станке Димитров",
        "place": "town",
        "population": "37081",
        "source": "bgtopomaps",
        "wikidata": "Q405279",
        "wikipedia": "en:Dupnitsa"
      },
      "geometry": {
        "type": "Point",
        "coordinates": [
          23.1143551,
          42.2628362
        ]
      },
      "id": "node/273488707"
    },
    {
      "type": "Feature",
      "properties": {
        "@id": "node/273488708",
        "ekatte": "00415",
        "int_name": "Alfatar",
        "name": "Алфатар",
        "name:en": "Alfatar",
        "name:lt": "Alfataras",
        "name:ru": "Алфатар",
        "place": "town",
        "source": "bgtopomaps",
        "wikidata": "Q407325",
        "wikipedia": "bg:Алфатар"
      },
      "geometry": {
        "type": "Point",
        "coordinates": [
          27.2869625,
          43.9440454
        ]
      },
      "id": "node/273488708"
    },
    {
      "type": "Feature",
      "properties": {
        "@id": "node/273488711",
        "ekatte": "55302",
        "int_name": "Panagyurishte",
        "name": "Панагюрище",
        "name:de": "Panagjurischte",
        "name:en": "Panagyurishte",
        "name:tr": "Panagürişte",
        "old_name:tr": "Otlukköy",
        "place": "town",
        "population": "17755",
        "source": "bgtopomaps",
        "wikidata": "Q406222"
      },
      "geometry": {
        "type": "Point",
        "coordinates": [
          24.1888411,
          42.5043065
        ]
      },
      "id": "node/273488711"
    },
    {
      "type": "Feature",
      "properties": {
        "@id": "node/273488717",
        "ekatte": "54020",
        "int_name": "Oryahovo",
        "name": "Оряхово",
        "name:en": "Oryahovo",
        "name:ro": "Rahova",
        "place": "town",
        "population": "5501",
        "source": "bgtopomaps",
        "wikidata": "Q407296"
      },
      "geometry": {
        "type": "Point",
        "coordinates": [
          23.9591325,
          43.7346254
        ]
      },
      "id": "node/273488717"
    },
    {
      "type": "Feature",
      "properties": {
        "@id": "node/273488718",
        "addr:postcode": "8300",
        "ekatte": "17974",
        "int_name": "Sredets",
        "name": "Средец",
        "name:bg": "Средец",
        "name:en": "Sredets",
        "name:fr": "Sredets",
        "name:tr": "Karapınar",
        "old_name:bg:-1934": "Кара Бунар",
        "old_name:bg:1934-1950": "Средец",
        "old_name:bg:1950-1993": "Грудово",
        "place": "town",
        "population": "9134",
        "source": "bgtopomaps",
        "wikidata": "Q405646",
        "wikipedia": "bg:Средец (град)"
      },
      "geometry": {
        "type": "Point",
        "coordinates": [
          27.1808724,
          42.3458456
        ]
      },
      "id": "node/273488718"
    },
    {
      "type": "Feature",
      "properties": {
        "@id": "node/273488719",
        "ekatte": "15031",
        "int_name": "Glavinitsa",
        "name": "Главиница",
        "name:en": "Glavinitsa",
        "name:lt": "Glavinica",
        "name:ru": "Главиница",
        "place": "town",
        "source": "bgtopomaps",
        "wikidata": "Q405481",
        "wikipedia": "bg:Главиница"
      },
      "geometry": {
        "type": "Point",
        "coordinates": [
          26.8351925,
          43.9125954
        ]
      },
      "id": "node/273488719"
    },
    {
      "type": "Feature",
      "properties": {
        "@id": "node/273488720",
        "designation": "9450",
        "ekatte": "72271",
        "int_name": "Tervel",
        "name": "Тервел",
        "name:en": "Tervel",
        "place": "town",
        "source": "bgtopomaps",
        "wikidata": "Q405984"
      },
      "geometry": {
        "type": "Point",
        "coordinates": [
          27.4058887,
          43.7480676
        ]
      },
      "id": "node/273488720"
    },
    {
      "type": "Feature",
      "properties": {
        "@id": "node/273488721",
        "ekatte": "47714",
        "int_name": "Mezdra",
        "name": "Мездра",
        "name:bg": "Мездра",
        "name:en": "Mezdra",
        "place": "town",
        "population": "10670",
        "source": "bgtopomaps",
        "wikidata": "Q406500"
      },
      "geometry": {
        "type": "Point",
        "coordinates": [
          23.7152641,
          43.1432643
        ]
      },
      "id": "node/273488721"
    },
    {
      "type": "Feature",
      "properties": {
        "@id": "node/273488723",
        "ekatte": "69633",
        "int_name": "Strazhitsa",
        "name": "Стражица",
        "name:en": "Strazhitsa",
        "place": "town",
        "source": "bgtopomaps",
        "wikidata": "Q405629"
      },
      "geometry": {
        "type": "Point",
        "coordinates": [
          25.9605434,
          43.2277591
        ]
      },
      "id": "node/273488723"
    },
    {
      "type": "Feature",
      "properties": {
        "@id": "node/273488724",
        "ekatte": "20184",
        "int_name": "Dve mogili",
        "name": "Две могили",
        "name:en": "Dve Mogili",
        "place": "town",
        "population": "4497",
        "source": "bgtopomaps",
        "wikidata": "Q407228"
      },
      "geometry": {
        "type": "Point",
        "coordinates": [
          25.86909,
          43.59094
        ]
      },
      "id": "node/273488724"
    },
    {
      "type": "Feature",
      "properties": {
        "@id": "node/273488727",
        "ekatte": "16359",
        "int_name": "Gorna Oryahovitsa",
        "name": "Горна Оряховица",
        "name:de": "Gorna Orjachowiza",
        "name:el": "Γκόρνα Οριαχόβιτσα",
        "name:en": "Gorna Oryahovitsa",
        "name:fr": "Gorna Orjahovica",
        "name:it": "Gorna Orjahovica",
        "name:lt": "Gorna Oriachovica",
        "name:nl": "Gorna Orjachovitsa",
        "name:pl": "Gorna Orjachowica",
        "name:ro": "Gorna Oreahovița",
        "name:tr": "Yukarı Rahova",
        "place": "town",
        "population": "40000",
        "postal_code": "5100",
        "source": "bgtopomaps",
        "wikidata": "Q115998"
      },
      "geometry": {
        "type": "Point",
        "coordinates": [
          25.6887918,
          43.1222791
        ]
      },
      "id": "node/273488727"
    },
    {
      "type": "Feature",
      "properties": {
        "@id": "node/273488728",
        "ekatte": "27382",
        "int_name": "Elhovo",
        "name": "Елхово",
        "name:bg": "Елхово",
        "name:de": "Elchowo",
        "name:en": "Elhovo",
        "place": "town",
        "population": "10384",
        "source": "bgtopomaps",
        "wikidata": "Q406613",
        "wikipedia": "bg:Елхово"
      },
      "geometry": {
        "type": "Point",
        "coordinates": [
          26.567632,
          42.17235
        ]
      },
      "id": "node/273488728"
    },
    {
      "type": "Feature",
      "properties": {
        "@id": "node/273488731",
        "ekatte": "55052",
        "int_name": "Pavlikeni",
        "name": "Павликени",
        "name:en": "Pavlikeni",
        "place": "town",
        "population": "10784",
        "source": "bgtopomaps",
        "wikidata": "Q405663",
        "wikipedia": "bg:Павликени"
      },
      "geometry": {
        "type": "Point",
        "coordinates": [
          25.3069689,
          43.2379033
        ]
      },
      "id": "node/273488731"
    },
    {
      "type": "Feature",
      "properties": {
        "@id": "node/273488732",
        "ekatte": "61577",
        "int_name": "Radomir",
        "name": "Радомир",
        "name:de": "Radomir",
        "name:el": "Ράντομιρ",
        "name:en": "Radomir",
        "place": "town",
        "population": "14232",
        "source": "bgtopomaps",
        "wikidata": "Q405742"
      },
      "geometry": {
        "type": "Point",
        "coordinates": [
          22.96291,
          42.54616
        ]
      },
      "id": "node/273488732"
    },
    {
      "type": "Feature",
      "properties": {
        "@id": "node/273488733",
        "ekatte": "04532",
        "int_name": "Boboshevo",
        "name": "Бобошево",
        "name:de": "Boboschewo",
        "name:el": "Μπομπόσεβο",
        "name:en": "Boboshevo",
        "name:ru": "Бобошево",
        "place": "town",
        "source": "bgtopomaps",
        "wikidata": "Q405726",
        "wikipedia": "bg:Бобошево"
      },
      "geometry": {
        "type": "Point",
        "coordinates": [
          23.0000878,
          42.1527179
        ]
      },
      "id": "node/273488733"
    },
    {
      "type": "Feature",
      "properties": {
        "@id": "node/273488735",
        "ekatte": "39846",
        "int_name": "Krivodol",
        "name": "Криводол",
        "name:en": "Krivodol",
        "place": "town",
        "source": "bgtopomaps",
        "wikidata": "Q405697"
      },
      "geometry": {
        "type": "Point",
        "coordinates": [
          23.4751394,
          43.3675147
        ]
      },
      "id": "node/273488735"
    },
    {
      "type": "Feature",
      "properties": {
        "@id": "node/273488736",
        "ekatte": "87014",
        "int_name": "Yablanitsa",
        "name": "Ябланица",
        "name:en": "Yablanitsa",
        "name:ro": "Iablanița",
        "place": "town",
        "source": "bgtopomaps",
        "wikidata": "Q405874"
      },
      "geometry": {
        "type": "Point",
        "coordinates": [
          24.1005871,
          43.0250359
        ]
      },
      "id": "node/273488736"
    },
    {
      "type": "Feature",
      "properties": {
        "@id": "node/273488737",
        "ekatte": "27190",
        "int_name": "Elena",
        "name": "Елена",
        "name:en": "Elena",
        "place": "town",
        "population": "5596",
        "source": "bgtopomaps",
        "wikidata": "Q408077"
      },
      "geometry": {
        "type": "Point",
        "coordinates": [
          25.8773778,
          42.9298896
        ]
      },
      "id": "node/273488737"
    },
    {
      "type": "Feature",
      "properties": {
        "@id": "node/273488738",
        "ekatte": "55021",
        "int_name": "Pavel banya",
        "name": "Павел баня",
        "name:bg": "Павел баня",
        "name:en": "Pavel Banya",
        "name:ru": "Павел-Баня",
        "place": "town",
        "population": "2643",
        "source": "bgtopomaps",
        "wikidata": "Q407336",
        "wikipedia": "bg:Павел баня"
      },
      "geometry": {
        "type": "Point",
        "coordinates": [
          25.2059267,
          42.5941448
        ]
      },
      "id": "node/273488738"
    },
    {
      "type": "Feature",
      "properties": {
        "@id": "node/273488739",
        "ekatte": "70175",
        "int_name": "Suvorovo",
        "name": "Суворово",
        "name:en": "Suvorovo",
        "place": "town",
        "source": "bgtopomaps",
        "wikidata": "Q405550"
      },
      "geometry": {
        "type": "Point",
        "coordinates": [
          27.5907042,
          43.3290499
        ]
      },
      "id": "node/273488739"
    },
    {
      "type": "Feature",
      "properties": {
        "@id": "node/273488740",
        "ekatte": "44478",
        "int_name": "Laki",
        "name": "Лъки",
        "name:en": "Laki",
        "place": "town",
        "source": "bgtopomaps",
        "wikidata": "Q405602"
      },
      "geometry": {
        "type": "Point",
        "coordinates": [
          24.829587,
          41.8332197
        ]
      },
      "id": "node/273488740"
    },
    {
      "type": "Feature",
      "properties": {
        "@id": "node/273488741",
        "ekatte": "72343",
        "int_name": "Teteven",
        "name": "Тетевен",
        "name:bg": "Тетевен",
        "name:en": "Teteven",
        "name:fr": "Teteven",
        "place": "town",
        "population": "10077",
        "source": "bgtopomaps",
        "website": "http://www.teteven.bg",
        "wikidata": "Q406081",
        "wikipedia": "bg:Тетевен"
      },
      "geometry": {
        "type": "Point",
        "coordinates": [
          24.26354,
          42.91837
        ]
      },
      "id": "node/273488741"
    },
    {
      "type": "Feature",
      "properties": {
        "@id": "node/273488742",
        "ekatte": "77181",
        "int_name": "Harmanli",
        "name": "Харманли",
        "name:de": "Charmanli",
        "name:en": "Harmanli",
        "name:nl": "Charmanli",
        "name:pl": "Charmanli",
        "name:pt": "Harmanli",
        "place": "town",
        "population": "20719",
        "source": "bgtopomaps",
        "wikidata": "Q406239"
      },
      "geometry": {
        "type": "Point",
        "coordinates": [
          25.9015211,
          41.9302645
        ]
      },
      "id": "node/273488742"
    },
    {
      "type": "Feature",
      "properties": {
        "@id": "node/273488743",
        "ekatte": "51809",
        "int_name": "Nova Zagora",
        "name": "Нова Загора",
        "name:bg": "Нова Загора",
        "name:de": "Nowa Sagora",
        "name:el": "Νόβα Ζαγόρα",
        "name:en": "Nova Zagora",
        "name:pl": "Nowa Zagora",
        "name:ro": "Nova Zagora",
        "name:tr": "Yeni Zağra",
        "place": "town",
        "population": "22507",
        "source": "bgtopomaps",
        "wikidata": "Q405317",
        "wikipedia": "ro:Nova Zagora"
      },
      "geometry": {
        "type": "Point",
        "coordinates": [
          26.0090132,
          42.4934682
        ]
      },
      "id": "node/273488743"
    },
    {
      "type": "Feature",
      "properties": {
        "@id": "node/273488744",
        "ekatte": "22215",
        "int_name": "Dolna Mitropolia",
        "name": "Долна Митрополия",
        "name:en": "Dolna Mitropolia",
        "place": "town",
        "source": "bgtopomaps",
        "wikidata": "Q405829"
      },
      "geometry": {
        "type": "Point",
        "coordinates": [
          24.526065,
          43.4672884
        ]
      },
      "id": "node/273488744"
    },
    {
      "type": "Feature",
      "properties": {
        "@id": "node/273488746",
        "addr:postcode": "4530",
        "ekatte": "69835",
        "int_name": "Strelcha",
        "name": "Стрелча",
        "name:de": "Streltscha",
        "name:en": "Strelcha",
        "name:fr": "Streltcha",
        "place": "town",
        "population": "4230",
        "source": "bgtopomaps",
        "website": "http://strelcha.bg",
        "wikidata": "Q405507",
        "wikipedia": "bg:Стрелча"
      },
      "geometry": {
        "type": "Point",
        "coordinates": [
          24.3191525,
          42.5067255
        ]
      },
      "id": "node/273488746"
    },
    {
      "type": "Feature",
      "properties": {
        "@id": "node/273488747",
        "ekatte": "72761",
        "name": "Тополовград",
        "name:de": "Topolowgrad",
        "name:en": "Topolovgrad",
        "place": "town",
        "source": "bgtopomaps",
        "wikidata": "Q405440"
      },
      "geometry": {
        "type": "Point",
        "coordinates": [
          26.3320703,
          42.0847397
        ]
      },
      "id": "node/273488747"
    },
    {
      "type": "Feature",
      "properties": {
        "@id": "node/273488748",
        "ekatte": "52009",
        "int_name": "Novi pazar",
        "name": "Нови пазар",
        "name:en": "Novi Pazar",
        "place": "town",
        "population": "13554",
        "source": "bgtopomaps",
        "wikidata": "Q407118"
      },
      "geometry": {
        "type": "Point",
        "coordinates": [
          27.1956421,
          43.3472116
        ]
      },
      "id": "node/273488748"
    },
    {
      "type": "Feature",
      "properties": {
        "@id": "node/273488749",
        "addr:postcode": "2933",
        "ekatte": "77058",
        "int_name": "Hadzhidimovo",
        "name": "Хаджидимово",
        "name:de": "Chadschidimowo",
        "name:el": "Χατζιντίμοβο",
        "name:en": "Hadzhidimovo",
        "name:fr": "Khadjidimovo",
        "name:mk": "Хаџидимово",
        "place": "town",
        "population": "2689",
        "source": "bgtopomaps",
        "wikidata": "Q406426",
        "wikipedia": "bg:Хаджидимово"
      },
      "geometry": {
        "type": "Point",
        "coordinates": [
          23.8536925,
          41.5167556
        ]
      },
      "id": "node/273488749"
    },
    {
      "type": "Feature",
      "properties": {
        "@id": "node/273488750",
        "addr:city": "Банско",
        "addr:postcode": "2770",
        "ekatte": "02676",
        "int_name": "Bansko",
        "name": "Банско",
        "name:de": "Bansko",
        "name:el": "Μπάνσκο",
        "name:en": "Bansko",
        "name:fr": "Bansko",
        "name:mk": "Банско",
        "place": "town",
        "population": "8207",
        "source": "bgtopomaps",
        "website": "https://www.bansko.bg/",
        "wikidata": "Q391159",
        "wikipedia": "bg:Банско"
      },
      "geometry": {
        "type": "Point",
        "coordinates": [
          23.4841698,
          41.8344086
        ]
      },
      "id": "node/273488750"
    },
    {
      "type": "Feature",
      "properties": {
        "@id": "node/273488753",
        "ekatte": "44793",
        "int_name": "Lyaskovets",
        "name": "Лясковец",
        "name:en": "Lyaskovets",
        "place": "town",
        "population": "8557",
        "source": "bgtopomaps",
        "wikidata": "Q406869"
      },
      "geometry": {
        "type": "Point",
        "coordinates": [
          25.7143725,
          43.1078855
        ]
      },
      "id": "node/273488753"
    },
    {
      "type": "Feature",
      "properties": {
        "@id": "node/273488788",
        "ekatte": "22407",
        "int_name": "Dolni Dabnik",
        "name": "Долни Дъбник",
        "name:en": "Dolni Dabnik",
        "place": "town",
        "source": "bgtopomaps",
        "wikidata": "Q405145"
      },
      "geometry": {
        "type": "Point",
        "coordinates": [
          24.4415622,
          43.4080277
        ]
      },
      "id": "node/273488788"
    },
    {
      "type": "Feature",
      "properties": {
        "@id": "node/273488789",
        "ekatte": "57772",
        "int_name": "Pordim",
        "name": "Пордим",
        "name:en": "Pordim",
        "place": "town",
        "source": "bgtopomaps",
        "wikidata": "Q405579"
      },
      "geometry": {
        "type": "Point",
        "coordinates": [
          24.8469941,
          43.3770806
        ]
      },
      "id": "node/273488789"
    },
    {
      "type": "Feature",
      "properties": {
        "@id": "node/273488790",
        "ekatte": "03592",
        "int_name": "Belovo",
        "name": "Белово",
        "name:en": "Belovo",
        "name:ru": "Белово",
        "place": "town",
        "source": "bgtopomaps",
        "wikidata": "Q407705"
      },
      "geometry": {
        "type": "Point",
        "coordinates": [
          24.0186657,
          42.2125836
        ]
      },
      "id": "node/273488790"
    },
    {
      "type": "Feature",
      "properties": {
        "@id": "node/273488791",
        "ekatte": "55909",
        "int_name": "Perushtitsa",
        "name": "Перущица",
        "name:en": "Perushtitsa",
        "name:ru": "Перуштица",
        "place": "town",
        "source": "bgtopomaps",
        "wikidata": "Q407483",
        "wikipedia": "bg:Перущица"
      },
      "geometry": {
        "type": "Point",
        "coordinates": [
          24.5451798,
          42.055641
        ]
      },
      "id": "node/273488791"
    },
    {
      "type": "Feature",
      "properties": {
        "@id": "node/273488795",
        "ekatte": "21912",
        "int_name": "Dolni chiflik",
        "name": "Долни чифлик",
        "name:en": "Dolni Chiflik",
        "name:tr": "Aşağı Çiftlik",
        "place": "town",
        "population": "7052",
        "source": "bgtopomaps",
        "wikidata": "Q407302"
      },
      "geometry": {
        "type": "Point",
        "coordinates": [
          27.7187564,
          42.9925676
        ]
      },
      "id": "node/273488795"
    },
    {
      "type": "Feature",
      "properties": {
        "@id": "node/273488796",
        "ekatte": "65869",
        "int_name": "Svoge",
        "name": "Своге",
        "name:bg": "Своге",
        "name:en": "Svoge",
        "name:ro": "Svoghe",
        "place": "town",
        "population": "8258",
        "source": "bgtopomaps",
        "wikidata": "Q406143"
      },
      "geometry": {
        "type": "Point",
        "coordinates": [
          23.3456154,
          42.9605002
        ]
      },
      "id": "node/273488796"
    },
    {
      "type": "Feature",
      "properties": {
        "@id": "node/273488797",
        "ekatte": "40422",
        "int_name": "Kubrat",
        "name": "Кубрат",
        "name:en": "Kubrat",
        "name:ro": "Kubrat",
        "name:tr": "Kurtbunar",
        "place": "town",
        "population": "7624",
        "source": "bgtopomaps",
        "wikidata": "Q406545"
      },
      "geometry": {
        "type": "Point",
        "coordinates": [
          26.5006777,
          43.7967009
        ]
      },
      "id": "node/273488797"
    },
    {
      "type": "Feature",
      "properties": {
        "@id": "node/273488798",
        "ekatte": "51648",
        "int_name": "Nikolaevo",
        "name": "Николаево",
        "name:bg": "Николаево",
        "name:de": "Nikolaewo",
        "name:en": "Nikolaevo",
        "name:ro": "Nikolaevo",
        "name:ru": "Николаево",
        "place": "town",
        "population": "3119",
        "source": "bgtopomaps",
        "wikidata": "Q405821",
        "wikipedia": "en:Nikolaevo"
      },
      "geometry": {
        "type": "Point",
        "coordinates": [
          25.7914125,
          42.6289156
        ]
      },
      "id": "node/273488798"
    },
    {
      "type": "Feature",
      "properties": {
        "@id": "node/273488800",
        "ekatte": "58503",
        "name": "Провадия",
        "name:bg": "Провадия",
        "name:en": "Provadia",
        "name:ia": "Provadia",
        "name:tr": "Pravadi",
        "place": "town",
        "population": "15095",
        "source": "aerial imagery",
        "wikidata": "Q405801",
        "wikipedia": "en:Provadia"
      },
      "geometry": {
        "type": "Point",
        "coordinates": [
          27.4438702,
          43.1786369
        ]
      },
      "id": "node/273488800"
    },
    {
      "type": "Feature",
      "properties": {
        "@id": "node/273488801",
        "addr:postcode": "9178",
        "ekatte": "03719",
        "int_name": "Beloslav",
        "is_in:country": "България",
        "is_in:municipality": "Община Белослав",
        "is_in:region": "Област Варна",
        "name": "Белослав",
        "name:en": "Beloslav",
        "name:ru": "Белослав",
        "name:tr": "Gebece",
        "place": "town",
        "population": "8382",
        "wikidata": "Q405825"
      },
      "geometry": {
        "type": "Point",
        "coordinates": [
          27.7048397,
          43.1905492
        ]
      },
      "id": "node/273488801"
    },
    {
      "type": "Feature",
      "properties": {
        "@id": "node/273488802",
        "ekatte": "44238",
        "int_name": "Lom",
        "name": "Лом",
        "name:de": "Lom",
        "name:en": "Lom",
        "name:la": "Almus",
        "name:ro": "Lom",
        "place": "town",
        "population": "24181",
        "source": "bgtopomaps",
        "wikidata": "Q237254",
        "wikipedia": "bg:Лом"
      },
      "geometry": {
        "type": "Point",
        "coordinates": [
          23.2386638,
          43.8201697
        ]
      },
      "id": "node/273488802"
    },
    {
      "type": "Feature",
      "properties": {
        "@id": "node/273488803",
        "addr:postcode": "2900",
        "ekatte": "17395",
        "int_name": "Gotse Delchev",
        "name": "Гоце Делчев",
        "name:de": "Goze Deltschew",
        "name:el": "Άνω Νευροκόπι",
        "name:en": "Goce Delcev",
        "name:fr": "Gotsé Deltchev",
        "name:mk": "Неврокоп (Гоце Делчев)",
        "old_name:bg:-1951": "Неврокоп",
        "place": "town",
        "population": "20306",
        "source": "bgtopomaps",
        "website": "https://www.gotsedelchev.bg/",
        "wikidata": "Q457141",
        "wikipedia": "bg:Гоце Делчев (град)"
      },
      "geometry": {
        "type": "Point",
        "coordinates": [
          23.7281082,
          41.5733011
        ]
      },
      "id": "node/273488803"
    },
    {
      "type": "Feature",
      "properties": {
        "@id": "node/273488804",
        "ekatte": "03616",
        "int_name": "Belogradchik",
        "name": "Белоградчик",
        "name:en": "Belogradchik",
        "name:ro": "Belogradcik",
        "place": "town",
        "population": "5334",
        "source": "bgtopomaps",
        "wikidata": "Q407234",
        "wikipedia": "bg:Белоградчик"
      },
      "geometry": {
        "type": "Point",
        "coordinates": [
          22.6861167,
          43.6266828
        ]
      },
      "id": "node/273488804"
    },
    {
      "type": "Feature",
      "properties": {
        "@id": "node/273488805",
        "ekatte": "12961",
        "int_name": "Varshets",
        "name": "Вършец",
        "name:en": "Varshets",
        "name:ro": "Vărșeț",
        "place": "town",
        "population": "6220",
        "source": "bgtopomaps",
        "wikidata": "Q404958"
      },
      "geometry": {
        "type": "Point",
        "coordinates": [
          23.2893966,
          43.199245
        ]
      },
      "id": "node/273488805"
    },
    {
      "type": "Feature",
      "properties": {
        "@id": "node/273488806",
        "ekatte": "18157",
        "int_name": "Gurkovo",
        "name": "Гурково",
        "name:bg": "Гурково",
        "name:en": "Gurkovo",
        "name:ro": "Gurkovo",
        "name:ru": "Гурково",
        "place": "town",
        "population": "3017",
        "source": "bgtopomaps",
        "wikidata": "Q407207",
        "wikipedia": "ro:Gurkovo"
      },
      "geometry": {
        "type": "Point",
        "coordinates": [
          25.7932924,
          42.6577054
        ]
      },
      "id": "node/273488806"
    },
    {
      "type": "Feature",
      "properties": {
        "@id": "node/273488807",
        "ekatte": "03366",
        "int_name": "Belene",
        "name": "Белене",
        "name:en": "Belene",
        "place": "town",
        "source": "bgtopomaps",
        "wikidata": "Q405236"
      },
      "geometry": {
        "type": "Point",
        "coordinates": [
          25.1258325,
          43.6477654
        ]
      },
      "id": "node/273488807"
    },
    {
      "type": "Feature",
      "properties": {
        "@id": "node/273488808",
        "ekatte": "03928",
        "int_name": "Berkovitsa",
        "name": "Берковица",
        "name:en": "Berkovitsa",
        "name:ro": "Berkovița",
        "place": "town",
        "population": "13532",
        "source": "bgtopomaps",
        "wikidata": "Q407314"
      },
      "geometry": {
        "type": "Point",
        "coordinates": [
          23.1288525,
          43.2373155
        ]
      },
      "id": "node/273488808"
    },
    {
      "type": "Feature",
      "properties": {
        "@id": "node/273488809",
        "ekatte": "70528",
        "int_name": "Saedinenie",
        "name": "Съединение",
        "name:bg": "Съединение",
        "name:en": "Saedinenie",
        "place": "town",
        "population": "5804",
        "source": "bgtopomaps",
        "wikidata": "Q405965"
      },
      "geometry": {
        "type": "Point",
        "coordinates": [
          24.5426125,
          42.2692356
        ]
      },
      "id": "node/273488809"
    },
    {
      "type": "Feature",
      "properties": {
        "@id": "node/273488811",
        "ekatte": "24030",
        "int_name": "Dulovo",
        "name": "Дулово",
        "name:en": "Dulovo",
        "name:lt": "Dulovas",
        "name:ro": "Derna",
        "name:tr": "Akkadınlar",
        "place": "town",
        "population": "9511",
        "source": "bgtopomaps",
        "wikidata": "Q407319"
      },
      "geometry": {
        "type": "Point",
        "coordinates": [
          27.1399325,
          43.8213154
        ]
      },
      "id": "node/273488811"
    },
    {
      "type": "Feature",
      "properties": {
        "@id": "node/273488812",
        "ekatte": "65334",
        "ele": "296",
        "int_name": "Sandanski",
        "is_in:country": "България",
        "is_in:municipality": "Сандански",
        "is_in:region": "Благоевград",
        "name": "Сандански",
        "name:de": "Sandanski",
        "name:el": "Σαντάνσκι",
        "name:en": "Sandanski",
        "name:fr": "Sandanski",
        "name:mk": "Свети Врач (Сандански)",
        "old_name:bg": "Медиус",
        "old_name:bg:-1947": "Свети Врач (Сандански)",
        "old_name:bg_1": "Дезудава",
        "place": "town",
        "population": "28058",
        "postal_code": "2800",
        "source": "bgtopomaps",
        "wikidata": "Q331566",
        "wikipedia": "bg:Сандански"
      },
      "geometry": {
        "type": "Point",
        "coordinates": [
          23.2786429,
          41.5654156
        ]
      },
      "id": "node/273488812"
    },
    {
      "type": "Feature",
      "properties": {
        "@id": "node/273488813",
        "ekatte": "23947",
        "int_name": "Dryanovo",
        "name": "Дряново",
        "name:en": "Dryanovo",
        "place": "town",
        "source": "bgtopomaps",
        "wikidata": "Q406050"
      },
      "geometry": {
        "type": "Point",
        "coordinates": [
          25.4723616,
          42.9735494
        ]
      },
      "id": "node/273488813"
    },
    {
      "type": "Feature",
      "properties": {
        "@id": "node/273488814",
        "ekatte": "51319",
        "int_name": "Nedelino",
        "name": "Неделино",
        "name:cs": "Nedelino",
        "name:el": "Νεντέλινο",
        "name:en": "Nedelino",
        "name:ru": "Неделино",
        "place": "town",
        "source": "bgtopomaps",
        "wikidata": "Q405716"
      },
      "geometry": {
        "type": "Point",
        "coordinates": [
          25.0785825,
          41.4563356
        ]
      },
      "id": "node/273488814"
    },
    {
      "type": "Feature",
      "properties": {
        "@id": "node/273488815",
        "ekatte": "12766",
        "int_name": "Varbitsa",
        "name": "Върбица",
        "name:en": "Varbitsa",
        "place": "town",
        "source": "bgtopomaps",
        "wikidata": "Q406530"
      },
      "geometry": {
        "type": "Point",
        "coordinates": [
          26.6698426,
          42.9937354
        ]
      },
      "id": "node/273488815"
    },
    {
      "type": "Feature",
      "properties": {
        "@id": "node/273488816",
        "ekatte": "65276",
        "int_name": "Samuil",
        "name": "Самуил",
        "name:en": "Samuil",
        "place": "town",
        "source": "bgtopomaps",
        "wikidata": "Q2598531",
        "wikipedia": "bg:Самуил (село)"
      },
      "geometry": {
        "type": "Point",
        "coordinates": [
          26.7408625,
          43.5137854
        ]
      },
      "id": "node/273488816"
    },
    {
      "type": "Feature",
      "properties": {
        "@id": "node/273488817",
        "ekatte": "40525",
        "int_name": "Kula",
        "name": "Кула",
        "name:en": "Kula",
        "name:ro": "Kula",
        "name:sr": "Кула",
        "place": "town",
        "source": "bgtopomaps",
        "wikidata": "Q404762",
        "wikipedia": "ro:Kula"
      },
      "geometry": {
        "type": "Point",
        "coordinates": [
          22.5203916,
          43.8874059
        ]
      },
      "id": "node/273488817"
    },
    {
      "type": "Feature",
      "properties": {
        "@id": "node/273488819",
        "ekatte": "65231",
        "int_name": "Samokov",
        "name": "Самоков",
        "name:de": "Samokow",
        "name:en": "Samokov",
        "name:lt": "Samokovas",
        "name:pl": "Samokow",
        "name:ro": "Samokov",
        "name:tr": "Samakov",
        "place": "town",
        "population": "25138",
        "source": "bgtopomaps",
        "wikidata": "Q388070"
      },
      "geometry": {
        "type": "Point",
        "coordinates": [
          23.5592676,
          42.3377931
        ]
      },
      "id": "node/273488819"
    },
    {
      "type": "Feature",
      "properties": {
        "@id": "node/273488820",
        "ekatte": "23025",
        "int_name": "Dospat",
        "name": "Доспат",
        "name:de": "Dospat",
        "name:en": "Dospat",
        "place": "town",
        "source": "bgtopomaps",
        "wikidata": "Q406089",
        "wikipedia": "en:Dospat"
      },
      "geometry": {
        "type": "Point",
        "coordinates": [
          24.1593256,
          41.6483558
        ]
      },
      "id": "node/273488820"
    },
    {
      "type": "Feature",
      "properties": {
        "@id": "node/273488823",
        "ekatte": "75054",
        "int_name": "Ugarchin",
        "name": "Угърчин",
        "name:bg": "Угърчин",
        "name:en": "Ugarchin",
        "place": "town",
        "source": "bgtopomaps",
        "wikidata": "Q405567"
      },
      "geometry": {
        "type": "Point",
        "coordinates": [
          24.4209919,
          43.0960171
        ]
      },
      "id": "node/273488823"
    },
    {
      "type": "Feature",
      "properties": {
        "@id": "node/273488824",
        "ekatte": "12543",
        "int_name": "Valchedram",
        "name": "Вълчедръм",
        "name:en": "Valchedram",
        "name:ro": "Vălcedrăm",
        "place": "town",
        "population": "3578",
        "source": "bgtopomaps",
        "source:population": "(ГРАО, 2014-09-15)",
        "wikidata": "Q405620"
      },
      "geometry": {
        "type": "Point",
        "coordinates": [
          23.4426025,
          43.6900754
        ]
      },
      "id": "node/273488824"
    },
    {
      "type": "Feature",
      "properties": {
        "@id": "node/273488826",
        "ekatte": "18099",
        "int_name": "Gulyantsi",
        "name": "Гулянци",
        "name:en": "Gulyantsi",
        "place": "town",
        "source": "bgtopomaps",
        "wikidata": "Q407213"
      },
      "geometry": {
        "type": "Point",
        "coordinates": [
          24.6944025,
          43.6408554
        ]
      },
      "id": "node/273488826"
    },
    {
      "type": "Feature",
      "properties": {
        "@id": "node/273488827",
        "addr:postcode": "9280",
        "ekatte": "12574",
        "int_name": "Valchi dol",
        "name": "Вълчи дол",
        "name:en": "Valchi Dol",
        "name:fr": "Valtchi Dol",
        "old_name": "Курт дере",
        "place": "town",
        "population": "3378",
        "source": "bgtopomaps",
        "website": "https://www.valchidol-bg.com/",
        "wikidata": "Q405397",
        "wikipedia": "bg:Вълчи дол"
      },
      "geometry": {
        "type": "Point",
        "coordinates": [
          27.5549924,
          43.4071616
        ]
      },
      "id": "node/273488827"
    },
    {
      "type": "Feature",
      "properties": {
        "@id": "node/273488829",
        "ekatte": "65927",
        "int_name": "Sevlievo",
        "name": "Севлиево",
        "name:de": "Sewliewo",
        "name:en": "Sevlievo",
        "name:lt": "Sevlijevas",
        "name:pl": "Sewliewo",
        "name:ro": "Sevlievo",
        "name:tr": "Selvi",
        "place": "town",
        "population": "22676",
        "postal_code": "5400",
        "source": "bgtopomaps",
        "wikidata": "Q326312",
        "wikipedia": "en:Sevlievo"
      },
      "geometry": {
        "type": "Point",
        "coordinates": [
          25.1040867,
          43.0263036
        ]
      },
      "id": "node/273488829"
    },
    {
      "type": "Feature",
      "properties": {
        "@id": "node/273488830",
        "alt_name": "Tvurditsa",
        "ekatte": "72165",
        "int_name": "Tvarditsa",
        "name": "Твърдица",
        "name:bg": "Твърдица",
        "name:en": "Tvarditsa",
        "place": "town",
        "population": "6091",
        "source": "bgtopomaps",
        "wikidata": "Q405445",
        "wikipedia": "bg:Твърдица"
      },
      "geometry": {
        "type": "Point",
        "coordinates": [
          25.8979171,
          42.7014434
        ]
      },
      "id": "node/273488830"
    },
    {
      "type": "Feature",
      "properties": {
        "@id": "node/273488831",
        "ekatte": "06570",
        "int_name": "Brusartsi",
        "name": "Брусарци",
        "name:en": "Brusartsi",
        "name:ro": "Brusarți",
        "place": "town",
        "source": "bgtopomaps",
        "wikidata": "Q405868"
      },
      "geometry": {
        "type": "Point",
        "coordinates": [
          23.0669229,
          43.6630878
        ]
      },
      "id": "node/273488831"
    },
    {
      "type": "Feature",
      "properties": {
        "@id": "node/273488836",
        "addr:postcode": "8230",
        "alt_name": "Nesebur",
        "alt_name:de": "Nesebar",
        "ekatte": "51500",
        "int_name": "Nesebar",
        "name": "Несебър",
        "name:bg": "Несебър",
        "name:de": "Nessebar",
        "name:el": "Μεσήμβρια",
        "name:en": "Nesebar",
        "name:fr": "Nessebar",
        "name:he": "נסבר",
        "name:hu": "Neszebar",
        "name:lt": "Neseberas",
        "name:ru": "Несебр",
        "name:sk": "Nesebar",
        "name:uk": "Несебр",
        "place": "town",
        "population": "13866",
        "source": "bgtopomaps",
        "website": "http://www.nesebarinfo.com",
        "wikidata": "Q193241",
        "wikipedia": "bg:Несебър"
      },
      "geometry": {
        "type": "Point",
        "coordinates": [
          27.7167464,
          42.6607865
        ]
      },
      "id": "node/273488836"
    },
    {
      "type": "Feature",
      "properties": {
        "@id": "node/273488837",
        "alt_name:tr": "Kızanlık",
        "ekatte": "35167",
        "ele": "407",
        "int_name": "Kazanlak",
        "name": "Казанлък",
        "name:bg": "Казанлък",
        "name:de": "Kasanlak",
        "name:el": "Καζανλούκ",
        "name:en": "Kazanlak",
        "name:eo": "Kazanlako",
        "name:et": "Kazanlǎk",
        "name:fi": "Kazanlăk",
        "name:hr": "Kazanlk",
        "name:nl": "Kazanlik",
        "name:pl": "Kazanłyk",
        "name:pt": "Kazanluk",
        "name:ro": "Kazanlâc",
        "name:ru": "Казанлык",
        "name:sk": "Kazanlăk",
        "name:sv": "Kazanlăk",
        "name:tr": "Kazanlık",
        "place": "town",
        "population": "49032",
        "source": "bgtopomaps",
        "wikidata": "Q192926",
        "wikipedia": "bg:Казанлък"
      },
      "geometry": {
        "type": "Point",
        "coordinates": [
          25.3933333,
          42.6191296
        ]
      },
      "id": "node/273488837"
    },
    {
      "type": "Feature",
      "properties": {
        "@id": "node/273488838",
        "alt_name:tr": "İslepol",
        "ekatte": "67444",
        "int_name": "Slivo pole",
        "name": "Сливо поле",
        "name:en": "Slivo pole",
        "name:tr": "Kaşıklar",
        "place": "town",
        "source": "bgtopomaps",
        "wikidata": "Q406747"
      },
      "geometry": {
        "type": "Point",
        "coordinates": [
          26.2060525,
          43.9438354
        ]
      },
      "id": "node/273488838"
    },
    {
      "type": "Feature",
      "properties": {
        "@id": "node/273488839",
        "ekatte": "62671",
        "ele": "593",
        "int_name": "Rila",
        "name": "Рила",
        "name:de": "Rila",
        "name:el": "Ρίλα",
        "name:en": "Rila",
        "name:ro": "Rila",
        "place": "town",
        "population": "3044",
        "postal_code": "2630",
        "source": "bgtopomaps",
        "wikidata": "Q406517",
        "wikipedia": "en:Rila, Bulgaria"
      },
      "geometry": {
        "type": "Point",
        "coordinates": [
          23.1323997,
          42.1278563
        ]
      },
      "id": "node/273488839"
    },
    {
      "type": "Feature",
      "properties": {
        "@id": "node/273488840",
        "ekatte": "44166",
        "int_name": "Loznitsa",
        "name": "Лозница",
        "name:de": "Losniza",
        "name:en": "Loznitsa",
        "place": "town",
        "source": "bgtopomaps",
        "wikidata": "Q405880",
        "wikipedia": "bg:Лозница (град)"
      },
      "geometry": {
        "type": "Point",
        "coordinates": [
          26.6020825,
          43.3706555
        ]
      },
      "id": "node/273488840"
    },
    {
      "type": "Feature",
      "properties": {
        "@id": "node/273488841",
        "ekatte": "05284",
        "int_name": "Bolyarovo",
        "name": "Болярово",
        "name:bg": "Болярово",
        "name:en": "Bolyarovo",
        "place": "town",
        "source": "bgtopomaps",
        "wikidata": "Q406618",
        "wikipedia": "bg:Болярово"
      },
      "geometry": {
        "type": "Point",
        "coordinates": [
          26.811463,
          42.1490851
        ]
      },
      "id": "node/273488841"
    },
    {
      "type": "Feature",
      "properties": {
        "@id": "node/273488842",
        "addr:postcode": "8400",
        "ekatte": "36525",
        "int_name": "Karnobat",
        "name": "Карнобат",
        "name:bg": "Карнобат",
        "name:de": "Karnobat",
        "name:en": "Karnobat",
        "name:fr": "Karnobat",
        "name:tr": "Karinabat",
        "place": "town",
        "population": "18156",
        "source": "bgtopomaps",
        "website": "https://karnobat.acstre.com",
        "wikidata": "Q406227",
        "wikipedia": "bg:Карнобат"
      },
      "geometry": {
        "type": "Point",
        "coordinates": [
          26.9823125,
          42.6498554
        ]
      },
      "id": "node/273488842"
    },
    {
      "type": "Feature",
      "properties": {
        "@id": "node/273488845",
        "designation": "6550",
        "ekatte": "44570",
        "int_name": "Lyubimets",
        "name": "Любимец",
        "name:de": "Ljubimez",
        "name:el": "Λιούμπιμετς",
        "name:en": "Lyubimets",
        "name:ru": "Любимец",
        "place": "town",
        "population": "7634",
        "source": "bgtopomaps",
        "wikidata": "Q405367"
      },
      "geometry": {
        "type": "Point",
        "coordinates": [
          26.0820928,
          41.8441605
        ]
      },
      "id": "node/273488845"
    },
    {
      "type": "Feature",
      "properties": {
        "@id": "node/273488846",
        "ekatte": "62075",
        "int_name": "Rakovski",
        "name": "Раковски",
        "name:en": "Rakovski",
        "place": "town",
        "population": "15571",
        "source": "bgtopomaps",
        "wikidata": "Q167953"
      },
      "geometry": {
        "type": "Point",
        "coordinates": [
          24.9659552,
          42.2873179
        ]
      },
      "id": "node/273488846"
    },
    {
      "type": "Feature",
      "properties": {
        "@id": "node/273488847",
        "ekatte": "36587",
        "int_name": "Kaspichan",
        "name": "Каспичан",
        "name:de": "Kaspitschan",
        "name:en": "Kaspichan",
        "name:fr": "Kaspitchan",
        "name:ro": "Kaspicean",
        "place": "town",
        "source": "bgtopomaps",
        "wikidata": "Q406512",
        "wikipedia": "bg:Каспичан"
      },
      "geometry": {
        "type": "Point",
        "coordinates": [
          27.1612625,
          43.3141455
        ]
      },
      "id": "node/273488847"
    },
    {
      "type": "Feature",
      "properties": {
        "@id": "node/273488848",
        "ekatte": "05815",
        "int_name": "Botevgrad",
        "name": "Ботевград",
        "name:de": "Botewgrad",
        "name:en": "Botevgrad",
        "name:pl": "Botewgrad",
        "name:ro": "Botevgrad",
        "name:tr": "Orhaniye",
        "place": "town",
        "population": "21241",
        "source": "bgtopomaps",
        "wikidata": "Q405426",
        "wikipedia": "en:Botevgrad"
      },
      "geometry": {
        "type": "Point",
        "coordinates": [
          23.7929451,
          42.9078544
        ]
      },
      "id": "node/273488848"
    },
    {
      "type": "Feature",
      "properties": {
        "@id": "node/273488849",
        "ekatte": "35064",
        "int_name": "Kavarna",
        "name": "Каварна",
        "name:bg": "Каварна",
        "name:de": "Kawarna",
        "name:en": "Kavarna",
        "name:ro": "Kavarna",
        "old_name": "Karnava",
        "place": "town",
        "population": "11788",
        "source": "bgtopomaps",
        "wikidata": "Q405120",
        "wikipedia": "bg:Каварна"
      },
      "geometry": {
        "type": "Point",
        "coordinates": [
          28.3390066,
          43.4332836
        ]
      },
      "id": "node/273488849"
    },
    {
      "type": "Feature",
      "properties": {
        "@id": "node/273488851",
        "ekatte": "67372",
        "int_name": "Slivnitsa",
        "name": "Сливница",
        "name:de": "Sliwniza",
        "name:en": "Slivnitsa",
        "name:ro": "Slivnița",
        "place": "town",
        "population": "7032",
        "source": "bgtopomaps",
        "wikidata": "Q406470"
      },
      "geometry": {
        "type": "Point",
        "coordinates": [
          23.0380281,
          42.8517828
        ]
      },
      "id": "node/273488851"
    },
    {
      "type": "Feature",
      "properties": {
        "@id": "node/273488852",
        "ekatte": "06361",
        "int_name": "Brezovo",
        "name": "Брезово",
        "name:en": "Brezovo",
        "place": "town",
        "source": "bgtopomaps",
        "wikidata": "Q405203"
      },
      "geometry": {
        "type": "Point",
        "coordinates": [
          25.0790305,
          42.3480115
        ]
      },
      "id": "node/273488852"
    },
    {
      "type": "Feature",
      "properties": {
        "@id": "node/273488853",
        "ekatte": "38978",
        "int_name": "Kostinbrod",
        "name": "Костинброд",
        "name:de": "Kostinbrod",
        "name:el": "Κόστινμπροντ",
        "name:en": "Kostinbrod",
        "name:ro": "Kostinbrod",
        "place": "town",
        "population": "11423",
        "source": "bgtopomaps",
        "wikidata": "Q671522",
        "wikipedia": "bg:Костинброд"
      },
      "geometry": {
        "type": "Point",
        "coordinates": [
          23.2156511,
          42.8131989
        ]
      },
      "id": "node/273488853"
    },
    {
      "type": "Feature",
      "properties": {
        "@id": "node/273488854",
        "alt_name:tr": "Karlıova",
        "ekatte": "36498",
        "int_name": "Karlovo",
        "name": "Карлово",
        "name:bg": "Карлово",
        "name:de": "Karlowo",
        "name:en": "Karlovo",
        "name:pl": "Karłowo",
        "name:tr": "Karlova",
        "old_name:bg:1953-1962": "Левскиград",
        "place": "town",
        "population": "23919",
        "postal_code": "4300",
        "source": "bgtopomaps",
        "wikidata": "Q316841"
      },
      "geometry": {
        "type": "Point",
        "coordinates": [
          24.8048226,
          42.6358156
        ]
      },
      "id": "node/273488854"
    },
    {
      "type": "Feature",
      "properties": {
        "@id": "node/273488856",
        "ekatte": "06207",
        "int_name": "Bratsigovo",
        "name": "Брацигово",
        "name:en": "Bratsigovo",
        "place": "town",
        "source": "bgtopomaps",
        "wikidata": "Q405842",
        "wikipedia": "en:Bratsigovo"
      },
      "geometry": {
        "type": "Point",
        "coordinates": [
          24.368903,
          42.027104
        ]
      },
      "id": "node/273488856"
    },
    {
      "type": "Feature",
      "properties": {
        "@id": "node/273488860",
        "ekatte": "10803",
        "int_name": "Vetovo",
        "name": "Ветово",
        "name:en": "Vetovo",
        "name:ro": "Vetovo",
        "place": "town",
        "source": "bgtopomaps",
        "wikidata": "Q404746"
      },
      "geometry": {
        "type": "Point",
        "coordinates": [
          26.2636455,
          43.7042823
        ]
      },
      "id": "node/273488860"
    },
    {
      "type": "Feature",
      "properties": {
        "@id": "node/273488861",
        "ekatte": "80371",
        "int_name": "Chepelare",
        "name": "Чепеларе",
        "name:bg": "Чепеларе",
        "name:de": "Tschepelare",
        "name:en": "Chepelare",
        "name:es": "Chepelare",
        "name:fr": "Tchepelare",
        "name:pt": "Čepelare",
        "name:ro": "Cepelare",
        "place": "town",
        "source": "bgtopomaps",
        "wikidata": "Q405807",
        "wikipedia": "bg:Чепеларе"
      },
      "geometry": {
        "type": "Point",
        "coordinates": [
          24.6853052,
          41.7256563
        ]
      },
      "id": "node/273488861"
    },
    {
      "type": "Feature",
      "properties": {
        "@id": "node/273488862",
        "ekatte": "62997",
        "int_name": "Roman",
        "name": "Роман",
        "name:en": "Roman",
        "place": "town",
        "source": "bgtopomaps",
        "wikidata": "Q406506"
      },
      "geometry": {
        "type": "Point",
        "coordinates": [
          23.9254908,
          43.1463767
        ]
      },
      "id": "node/273488862"
    },
    {
      "type": "Feature",
      "properties": {
        "@id": "node/273488863",
        "ekatte": "65365",
        "int_name": "Sapareva banya",
        "name": "Сапарева баня",
        "name:de": "Saparewa Banja",
        "name:en": "Sapareva Banya",
        "place": "town",
        "source": "bgtopomaps",
        "wikidata": "Q405166",
        "wikipedia": "bg:Сапарева баня"
      },
      "geometry": {
        "type": "Point",
        "coordinates": [
          23.2634537,
          42.2889464
        ]
      },
      "id": "node/273488863"
    },
    {
      "type": "Feature",
      "properties": {
        "@id": "node/273488864",
        "ekatte": "67708",
        "int_name": "Smyadovo",
        "name": "Смядово",
        "name:en": "Smyadovo",
        "place": "town",
        "source": "bgtopomaps",
        "wikidata": "Q405950"
      },
      "geometry": {
        "type": "Point",
        "coordinates": [
          27.0204063,
          43.0662446
        ]
      },
      "id": "node/273488864"
    },
    {
      "type": "Feature",
      "properties": {
        "@id": "node/273488865",
        "ekatte": "37376",
        "int_name": "Knezha",
        "name": "Кнежа",
        "name:bg": "Кнежа",
        "name:en": "Knezha",
        "place": "town",
        "population": "10925",
        "source": "bgtopomaps",
        "wikidata": "Q405731"
      },
      "geometry": {
        "type": "Point",
        "coordinates": [
          24.0745138,
          43.4990084
        ]
      },
      "id": "node/273488865"
    },
    {
      "type": "Feature",
      "properties": {
        "@id": "node/273488867",
        "addr:postcode": "8130",
        "ekatte": "67800",
        "int_name": "Sozopol",
        "name": "Созопол",
        "name:bg": "Созопол",
        "name:de": "Sosopol",
        "name:el": "Σωζόπολη",
        "name:en": "Sozopol",
        "name:fr": "Sozopol",
        "name:ru": "Созопол",
        "name:sv": "Sozopol",
        "name:tr": "Süzebolu",
        "place": "town",
        "population": "5195",
        "source": "bgtopomaps",
        "website": "https://www.sozopol.bg/",
        "wikidata": "Q271925",
        "wikipedia": "bg:Созопол"
      },
      "geometry": {
        "type": "Point",
        "coordinates": [
          27.6943124,
          42.4181556
        ]
      },
      "id": "node/273488867"
    },
    {
      "type": "Feature",
      "properties": {
        "@id": "node/273488868",
        "ekatte": "06286",
        "int_name": "Breznik",
        "name": "Брезник",
        "name:de": "Bresnik",
        "name:en": "Breznik",
        "place": "town",
        "source": "bgtopomaps",
        "wikidata": "Q390361"
      },
      "geometry": {
        "type": "Point",
        "coordinates": [
          22.9103497,
          42.7397669
        ]
      },
      "id": "node/273488868"
    },
    {
      "type": "Feature",
      "properties": {
        "@id": "node/273488869",
        "ekatte": "36079",
        "int_name": "Kaolinovo",
        "name": "Каолиново",
        "name:en": "Kaolinovo",
        "place": "town",
        "source": "bgtopomaps",
        "wikidata": "Q5077360"
      },
      "geometry": {
        "type": "Point",
        "coordinates": [
          27.1070625,
          43.6205554
        ]
      },
      "id": "node/273488869"
    },
    {
      "type": "Feature",
      "properties": {
        "@id": "node/273488870",
        "ekatte": "06224",
        "int_name": "Bregovo",
        "name": "Брегово",
        "name:en": "Bregovo",
        "name:ro": "Bregovo",
        "name:sr": "Брегово",
        "place": "town",
        "source": "bgtopomaps",
        "wikidata": "Q405383"
      },
      "geometry": {
        "type": "Point",
        "coordinates": [
          22.6386293,
          44.1518851
        ]
      },
      "id": "node/273488870"
    },
    {
      "type": "Feature",
      "properties": {
        "@id": "node/273488871",
        "ekatte": "70295",
        "int_name": "Suhindol",
        "name": "Сухиндол",
        "name:en": "Suhindol",
        "place": "town",
        "source": "bgtopomaps",
        "wikidata": "Q405562"
      },
      "geometry": {
        "type": "Point",
        "coordinates": [
          25.1663916,
          43.1863318
        ]
      },
      "id": "node/273488871"
    },
    {
      "type": "Feature",
      "properties": {
        "@id": "node/273488872",
        "ekatte": "58030",
        "int_name": "Pravets",
        "name": "Правец",
        "name:en": "Pravets",
        "name:ro": "Praveț",
        "name:ru": "Правец",
        "place": "town",
        "source": "bgtopomaps",
        "wikidata": "Q387864"
      },
      "geometry": {
        "type": "Point",
        "coordinates": [
          23.9148925,
          42.8956755
        ]
      },
      "id": "node/273488872"
    },
    {
      "type": "Feature",
      "properties": {
        "@id": "node/273488873",
        "ekatte": "46045",
        "int_name": "Madan",
        "name": "Мадан",
        "name:en": "Madan",
        "place": "town",
        "population": "6526",
        "source": "bgtopomaps",
        "wikidata": "Q405449"
      },
      "geometry": {
        "type": "Point",
        "coordinates": [
          24.9393625,
          41.4985656
        ]
      },
      "id": "node/273488873"
    },
    {
      "type": "Feature",
      "properties": {
        "@id": "node/273488877",
        "ekatte": "35242",
        "int_name": "Kaynardzha",
        "name": "Кайнарджа",
        "name:en": "Kaynardzha",
        "name:ro": "Kainardja",
        "place": "town",
        "wikidata": "Q2346358"
      },
      "geometry": {
        "type": "Point",
        "coordinates": [
          27.5076325,
          43.9922854
        ]
      },
      "id": "node/273488877"
    },
    {
      "type": "Feature",
      "properties": {
        "@id": "node/273488878",
        "ekatte": "57649",
        "int_name": "Popovo",
        "name": "Попово",
        "name:en": "Popovo",
        "name:tr": "Pop Köy",
        "place": "town",
        "population": "15878",
        "source": "bgtopomaps",
        "wikidata": "Q406068",
        "wikipedia": "bg:Попово"
      },
      "geometry": {
        "type": "Point",
        "coordinates": [
          26.2271967,
          43.3481473
        ]
      },
      "id": "node/273488878"
    },
    {
      "type": "Feature",
      "properties": {
        "@id": "node/273488879",
        "ekatte": "07598",
        "int_name": "Byala",
        "name": "Бяла",
        "name:bg": "Бяла",
        "name:en": "Byala",
        "place": "town",
        "source": "bgtopomaps",
        "wikidata": "Q2043641",
        "wikipedia": "bg:Бяла (област Варна)"
      },
      "geometry": {
        "type": "Point",
        "coordinates": [
          27.8845354,
          42.8766305
        ]
      },
      "id": "node/273488879"
    },
    {
      "type": "Feature",
      "properties": {
        "@id": "node/273488881",
        "ekatte": "39116",
        "int_name": "Kocherinovo",
        "name": "Кочериново",
        "name:de": "Kotscherinowo",
        "name:el": "Κοτσερίνοβο",
        "name:en": "Kocherinovo",
        "name:mk": "Кочериново",
        "place": "town",
        "population": "2400",
        "source": "bgtopomaps",
        "wikidata": "Q407307",
        "wikipedia": "en:Kocherinovo"
      },
      "geometry": {
        "type": "Point",
        "coordinates": [
          23.0581308,
          42.0859637
        ]
      },
      "id": "node/273488881"
    },
    {
      "type": "Feature",
      "properties": {
        "@id": "node/273488882",
        "ekatte": "81390",
        "int_name": "Chiprovtsi",
        "name": "Чипровци",
        "name:en": "Chiprovtsi",
        "place": "town",
        "website": "https://www.chiprovtsi.bg/",
        "wikidata": "Q405361"
      },
      "geometry": {
        "type": "Point",
        "coordinates": [
          22.8807639,
          43.3843795
        ]
      },
      "id": "node/273488882"
    },
    {
      "type": "Feature",
      "properties": {
        "@id": "node/273488884",
        "ekatte": "44327",
        "int_name": "Lukovit",
        "name": "Луковит",
        "name:bg": "Луковит",
        "name:en": "Lukovit",
        "place": "town",
        "population": "9546",
        "source": "bgtopomaps",
        "wikidata": "Q405585"
      },
      "geometry": {
        "type": "Point",
        "coordinates": [
          24.1619125,
          43.2064255
        ]
      },
      "id": "node/273488884"
    },
    {
      "type": "Feature",
      "properties": {
        "@id": "node/273488889",
        "ekatte": "38902",
        "int_name": "Kostenets",
        "name": "Костенец",
        "name:en": "Kostenets",
        "name:ro": "Kosteneț",
        "place": "town",
        "population": "6556",
        "source": "bgtopomaps",
        "wikidata": "Q407257"
      },
      "geometry": {
        "type": "Point",
        "coordinates": [
          23.8588278,
          42.3076287
        ]
      },
      "id": "node/273488889"
    },
    {
      "type": "Feature",
      "properties": {
        "@id": "node/273488890",
        "ekatte": "46084",
        "name": "Маджарово",
        "name:de": "Madscharowo",
        "name:el": "Ματζάροβο",
        "name:en": "Madzharovo",
        "name:fr": "Madzharovo",
        "place": "town",
        "source": "bgtopomaps",
        "wikidata": "Q407352"
      },
      "geometry": {
        "type": "Point",
        "coordinates": [
          25.860336,
          41.6336488
        ]
      },
      "id": "node/273488890"
    },
    {
      "type": "Feature",
      "properties": {
        "@id": "node/273488891",
        "ekatte": "40097",
        "int_name": "Krushari",
        "name": "Крушари",
        "name:en": "Krushari",
        "place": "town",
        "source": "bgtopomaps",
        "wikidata": "Q2990389"
      },
      "geometry": {
        "type": "Point",
        "coordinates": [
          27.7564125,
          43.8188654
        ]
      },
      "id": "node/273488891"
    },
    {
      "type": "Feature",
      "properties": {
        "@id": "node/273488893",
        "ekatte": "49494",
        "ele": "375",
        "int_name": "Maglizh",
        "is_in:country": "България",
        "is_in:municipality": "Мъглиж",
        "is_in:region": "Стара Загора",
        "name": "Мъглиж",
        "name:bg": "Мъглиж",
        "name:en": "Maglizh",
        "name:ro": "Măglij",
        "name:ru": "Мыглиж",
        "place": "town",
        "population": "3295",
        "source": "bgtopomaps",
        "wikidata": "Q405916",
        "wikipedia": "en:Maglizh"
      },
      "geometry": {
        "type": "Point",
        "coordinates": [
          25.5460156,
          42.6057776
        ]
      },
      "id": "node/273488893"
    },
    {
      "type": "Feature",
      "properties": {
        "@id": "node/273488894",
        "ekatte": "69660",
        "int_name": "Straldzha",
        "name": "Стралджа",
        "name:bg": "Стралджа",
        "name:de": "Straldscha",
        "name:en": "Straldzha",
        "name:it": "Straldža",
        "name:pt": "Straldža",
        "name:ro": "Stralgea",
        "place": "town",
        "population": "6372",
        "source": "bgtopomaps",
        "wikidata": "Q404981",
        "wikipedia": "bg:Стралджа"
      },
      "geometry": {
        "type": "Point",
        "coordinates": [
          26.6916416,
          42.6002084
        ]
      },
      "id": "node/273488894"
    },
    {
      "type": "Feature",
      "properties": {
        "@id": "node/273488895",
        "addr:postcode": "8180",
        "ekatte": "58356",
        "int_name": "Primorsko",
        "name": "Приморско",
        "name:bg": "Приморско",
        "name:de": "Primorsko",
        "name:en": "Primorsko",
        "name:fr": "Primorsko",
        "place": "town",
        "population": "3531",
        "source": "bgtopomaps",
        "website": "https://www.primorsko.bg/",
        "wikidata": "Q405153",
        "wikipedia": "bg:Приморско"
      },
      "geometry": {
        "type": "Point",
        "coordinates": [
          27.7506179,
          42.2698672
        ]
      },
      "id": "node/273488895"
    },
    {
      "type": "Feature",
      "properties": {
        "@id": "node/273488896",
        "addr:postcode": "8120",
        "ekatte": "35883",
        "int_name": "Kameno",
        "name": "Камено",
        "name:bg": "Камено",
        "name:en": "Kameno",
        "name:fr": "Kameno",
        "place": "town",
        "population": "5329",
        "source": "bgtopomaps",
        "wikidata": "Q405191",
        "wikipedia": "bg:Камено"
      },
      "geometry": {
        "type": "Point",
        "coordinates": [
          27.2910461,
          42.5711572
        ]
      },
      "id": "node/273488896"
    },
    {
      "type": "Feature",
      "properties": {
        "@id": "node/273488939",
        "ekatte": "80501",
        "int_name": "Cherven bryag",
        "name": "Червен бряг",
        "name:bg": "Червен бряг",
        "name:en": "Cherven Bryag",
        "place": "town",
        "population": "13818",
        "source": "bgtopomaps",
        "wikidata": "Q407330"
      },
      "geometry": {
        "type": "Point",
        "coordinates": [
          24.0824325,
          43.2789455
        ]
      },
      "id": "node/273488939"
    },
    {
      "type": "Feature",
      "properties": {
        "@id": "node/273488940",
        "ekatte": "22006",
        "int_name": "Dolna banya",
        "name": "Долна баня",
        "name:en": "Dolna Bania",
        "name:ro": "Dolna Banea",
        "place": "town",
        "source": "bgtopomaps",
        "wikidata": "Q405248"
      },
      "geometry": {
        "type": "Point",
        "coordinates": [
          23.7645019,
          42.3108246
        ]
      },
      "id": "node/273488940"
    },
    {
      "type": "Feature",
      "properties": {
        "@id": "node/273488942",
        "addr:postcode": "2790",
        "ekatte": "87338",
        "int_name": "Yakoruda",
        "name": "Якоруда",
        "name:el": "Γιακόρουντα",
        "name:en": "Yakoruda",
        "name:fr": "Yakorouda",
        "name:mk": "Јакоруда",
        "place": "town",
        "population": "5480",
        "source": "bgtopomaps",
        "website": "http://yakoruda.gateway.bg",
        "wikidata": "Q406493",
        "wikipedia": "bg:Якоруда"
      },
      "geometry": {
        "type": "Point",
        "coordinates": [
          23.6677825,
          42.0172856
        ]
      },
      "id": "node/273488942"
    },
    {
      "type": "Feature",
      "properties": {
        "@id": "node/273488943",
        "ekatte": "05027",
        "int_name": "Bozhurishte",
        "name": "Божурище",
        "name:de": "Boschurischte",
        "name:el": "Μποζούριστε",
        "name:en": "Bozhurishte",
        "name:it": "Božurište",
        "name:pt": "Božurište",
        "place": "town",
        "population": "5616",
        "source": "bgtopomaps",
        "wikidata": "Q404811",
        "wikipedia": "en:Bozhurishte"
      },
      "geometry": {
        "type": "Point",
        "coordinates": [
          23.1967627,
          42.7637383
        ]
      },
      "id": "node/273488943"
    },
    {
      "type": "Feature",
      "properties": {
        "@id": "node/273488944",
        "ekatte": "30962",
        "int_name": "Zlataritsa",
        "name": "Златарица",
        "name:en": "Zlataritsa",
        "place": "town",
        "source": "bgtopomaps",
        "wikidata": "Q405323"
      },
      "geometry": {
        "type": "Point",
        "coordinates": [
          25.8908187,
          43.0455003
        ]
      },
      "id": "node/273488944"
    },
    {
      "type": "Feature",
      "properties": {
        "@id": "node/273488945",
        "addr:postcode": "2730",
        "ekatte": "66460",
        "int_name": "Simitli",
        "name": "Симитли",
        "name:de": "Simitli",
        "name:el": "Σιμιτλί",
        "name:en": "Simitli",
        "name:fr": "Simitli",
        "name:mk": "Симитли",
        "name:ro": "Simitli",
        "place": "town",
        "population": "7243",
        "source": "bgtopomaps",
        "wikidata": "Q1897942",
        "wikipedia": "bg:Симитли"
      },
      "geometry": {
        "type": "Point",
        "coordinates": [
          23.108109,
          41.8933839
        ]
      },
      "id": "node/273488945"
    },
    {
      "type": "Feature",
      "properties": {
        "@id": "node/273488946",
        "ekatte": "65139",
        "name": "Садово",
        "name:de": "Sadowo",
        "name:el": "Σάντοβο",
        "name:en": "Sadovo",
        "name:ru": "Садово",
        "place": "town",
        "source": "bgtopomaps",
        "wikidata": "Q405215"
      },
      "geometry": {
        "type": "Point",
        "coordinates": [
          24.9374825,
          42.1342256
        ]
      },
      "id": "node/273488946"
    },
    {
      "type": "Feature",
      "properties": {
        "@id": "node/273488947",
        "ekatte": "39921",
        "int_name": "Krichim",
        "name": "Кричим",
        "name:en": "Krichim",
        "place": "town",
        "population": "8571",
        "source": "bgtopomaps",
        "wikidata": "Q406822"
      },
      "geometry": {
        "type": "Point",
        "coordinates": [
          24.4702714,
          42.0422788
        ]
      },
      "id": "node/273488947"
    },
    {
      "type": "Feature",
      "properties": {
        "@id": "node/273488949",
        "ekatte": "66665",
        "int_name": "Sitovo",
        "name": "Ситово",
        "name:en": "Sitovo",
        "place": "town",
        "source": "bgtopomaps",
        "wikidata": "Q2657356",
        "wikipedia": "bg:Ситово (област Силистра)"
      },
      "geometry": {
        "type": "Point",
        "coordinates": [
          27.0181825,
          44.0256754
        ]
      },
      "id": "node/273488949"
    },
    {
      "type": "Feature",
      "properties": {
        "@id": "node/273488951",
        "addr:postcode": "7100",
        "ekatte": "07603",
        "int_name": "Byala",
        "name": "Бяла",
        "name:en": "Byala",
        "name:fr": "Byala",
        "name:ro": "Beala",
        "name:ru": "Бяла",
        "place": "town",
        "population": "8831",
        "source": "bgtopomaps",
        "website": "https://byala.bg/",
        "wikidata": "Q132395",
        "wikipedia": "bg:Бяла (област Русе)"
      },
      "geometry": {
        "type": "Point",
        "coordinates": [
          25.7365619,
          43.4593631
        ]
      },
      "id": "node/273488951"
    },
    {
      "type": "Feature",
      "properties": {
        "@id": "node/273488952",
        "ekatte": "20746",
        "int_name": "Dzhebel",
        "name": "Джебел",
        "name:cs": "Džebel",
        "name:en": "Dzhebel",
        "place": "town",
        "source": "bgtopomaps",
        "wikidata": "Q405778",
        "wikipedia": "en:Dzhebel"
      },
      "geometry": {
        "type": "Point",
        "coordinates": [
          25.3021325,
          41.4974456
        ]
      },
      "id": "node/273488952"
    },
    {
      "type": "Feature",
      "properties": {
        "@id": "node/273488956",
        "ekatte": "39970",
        "int_name": "Krumovgrad",
        "name": "Крумовград",
        "name:cs": "Krumovgrad",
        "name:el": "Κούμοβγκραντ",
        "name:en": "Krumovgrad",
        "name:ru": "Крумовград",
        "name:tr": "Koşukavak",
        "place": "town",
        "population": "16937",
        "source": "bgtopomaps",
        "wikidata": "Q406057",
        "wikipedia": "en:Krumovgrad"
      },
      "geometry": {
        "type": "Point",
        "coordinates": [
          25.6546299,
          41.4731094
        ]
      },
      "id": "node/273488956"
    },
    {
      "type": "Feature",
      "properties": {
        "@id": "node/273488958",
        "ekatte": "31044",
        "int_name": "Zlatitsa",
        "name": "Златица",
        "name:de": "Slatitsa",
        "name:en": "Zlatitsa",
        "place": "town",
        "source": "bgtopomaps",
        "wikidata": "Q405262"
      },
      "geometry": {
        "type": "Point",
        "coordinates": [
          24.1389525,
          42.7116955
        ]
      },
      "id": "node/273488958"
    },
    {
      "type": "Feature",
      "properties": {
        "@id": "node/273488961",
        "addr:postcode": "8162",
        "ekatte": "46663",
        "int_name": "Malko Tarnovo",
        "name": "Малко Търново",
        "name:bg": "Малко Търново",
        "name:de": "Malko Tarnowo",
        "name:en": "Malko Tarnovo",
        "name:fr": "Malko Tarnovo",
        "name:tr": "Küçük Tırnova",
        "place": "town",
        "population": "2344",
        "source": "bgtopomaps",
        "website": "http://www.malkotarnovo.org",
        "wikidata": "Q406488",
        "wikipedia": "bg:Малко Търново"
      },
      "geometry": {
        "type": "Point",
        "coordinates": [
          27.5244404,
          41.9803021
        ]
      },
      "id": "node/273488961"
    },
    {
      "type": "Feature",
      "properties": {
        "@id": "node/273488962",
        "ekatte": "38558",
        "importance": "Bulgarian 100",
        "int_name": "Koprivshtitsa",
        "name": "Копривщица",
        "name:bg": "Копривщица",
        "name:cs": "Koprivštica",
        "name:de": "Kopriwschtiza",
        "name:en": "Koprivshtitsa",
        "name:eo": "Koprivŝtico",
        "name:fr": "Koprivchtitsa",
        "name:it": "Koprivštica",
        "name:pl": "Kopriwsztica",
        "name:ro": "Koprivștița",
        "place": "town",
        "source": "bgtopomaps",
        "wikidata": "Q251439"
      },
      "geometry": {
        "type": "Point",
        "coordinates": [
          24.3577991,
          42.6375324
        ]
      },
      "id": "node/273488962"
    },
    {
      "type": "Feature",
      "properties": {
        "@id": "node/273488963",
        "ekatte": "21052",
        "int_name": "Dimitrovgrad",
        "is_in:country": "България",
        "is_in:region": "Хасково",
        "name": "Димитровград",
        "name:bg": "Димитровград",
        "name:de": "Dimitrowgrad",
        "name:el": "Ντιμίτροβγκραντ",
        "name:en": "Dimitrovgrad",
        "name:pl": "Dimitrowgrad",
        "name:ro": "Dimitrovgrad",
        "name:tr": "Kayacık",
        "place": "town",
        "population": "49061",
        "source": "bgtopomaps",
        "wikidata": "Q331048",
        "wikipedia": "en:Dimitrovgrad, Bulgaria"
      },
      "geometry": {
        "type": "Point",
        "coordinates": [
          25.5916466,
          42.0582493
        ]
      },
      "id": "node/273488963"
    },
    {
      "type": "Feature",
      "properties": {
        "@id": "node/273488964",
        "ekatte": "21097",
        "int_name": "Dimovo",
        "name": "Димово",
        "name:en": "Dimovo",
        "name:ro": "Dimovo",
        "place": "town",
        "source": "bgtopomaps",
        "wikidata": "Q407222",
        "wikipedia": "ro:Dimovo"
      },
      "geometry": {
        "type": "Point",
        "coordinates": [
          22.7263193,
          43.7399243
        ]
      },
      "id": "node/273488964"
    },
    {
      "type": "Feature",
      "properties": {
        "@id": "node/273488965",
        "ekatte": "30778",
        "int_name": "Zemen",
        "name": "Земен",
        "name:el": "Ζέμεν",
        "name:en": "Zemen",
        "old_name": "Белово",
        "place": "town",
        "source": "bgtopomaps",
        "wikidata": "Q405329"
      },
      "geometry": {
        "type": "Point",
        "coordinates": [
          22.7503014,
          42.4798619
        ]
      },
      "id": "node/273488965"
    },
    {
      "type": "Feature",
      "properties": {
        "@id": "node/273488966",
        "ekatte": "30065",
        "int_name": "Zavet",
        "name": "Завет",
        "name:en": "Zavet",
        "place": "town",
        "source": "bgtopomaps",
        "wikidata": "Q2995730",
        "wikipedia": "bg:Завет (град)"
      },
      "geometry": {
        "type": "Point",
        "coordinates": [
          26.6781225,
          43.7591754
        ]
      },
      "id": "node/273488966"
    },
    {
      "type": "Feature",
      "properties": {
        "@id": "node/273488967",
        "ekatte": "83017",
        "int_name": "Shabla",
        "name": "Шабла",
        "name:bg": "Шабла",
        "name:de": "Schabla",
        "name:en": "Shabla",
        "place": "town",
        "source": "bgtopomaps",
        "wikidata": "Q406639",
        "wikipedia": "bg:Шабла"
      },
      "geometry": {
        "type": "Point",
        "coordinates": [
          28.5339137,
          43.5406619
        ]
      },
      "id": "node/273488967"
    },
    {
      "type": "Feature",
      "properties": {
        "@id": "node/273488974",
        "ekatte": "32874",
        "int_name": "Isperih",
        "name": "Исперих",
        "name:en": "Isperih",
        "place": "town",
        "population": "9006",
        "source": "bgtopomaps",
        "wikidata": "Q405797",
        "wikipedia": "bg:Исперих"
      },
      "geometry": {
        "type": "Point",
        "coordinates": [
          26.8301419,
          43.7168724
        ]
      },
      "id": "node/273488974"
    },
    {
      "type": "Feature",
      "properties": {
        "@id": "node/273488977",
        "addr:postcode": "2840",
        "alt_name:mk": "Кресна",
        "ekatte": "14492",
        "ele": "232",
        "int_name": "Kresna",
        "name": "Кресна",
        "name:bg": "Кресна",
        "name:de": "Kresna",
        "name:el": "Κρέσνα",
        "name:en": "Kresna",
        "name:fr": "Kresna",
        "name:mk": "Станица Пирин",
        "place": "town",
        "population": "3628",
        "source": "bgtopomaps",
        "wikidata": "Q406476",
        "wikipedia": "bg:Кресна"
      },
      "geometry": {
        "type": "Point",
        "coordinates": [
          23.1633544,
          41.7225603
        ]
      },
      "id": "node/273488977"
    },
    {
      "type": "Feature",
      "properties": {
        "@id": "node/273488978",
        "ekatte": "48043",
        "int_name": "Mizia",
        "name": "Мизия",
        "name:en": "Mizia",
        "name:ro": "Mizia",
        "place": "town",
        "source": "bgtopomaps",
        "wikidata": "Q406481"
      },
      "geometry": {
        "type": "Point",
        "coordinates": [
          23.8536171,
          43.689742
        ]
      },
      "id": "node/273488978"
    },
    {
      "type": "Feature",
      "properties": {
        "@id": "node/273488979",
        "designation": "3320",
        "ekatte": "37798",
        "int_name": "Kozloduy",
        "name": "Козлодуй",
        "name:en": "Kozloduy",
        "name:ro": "Kozlodui",
        "name:ru": "Козлодуй",
        "place": "town",
        "population": "13593",
        "source": "bgtopomaps",
        "wikidata": "Q405157",
        "wikipedia": "ro:Kozlodui",
        "wikipedia:en": "Kozloduy",
        "wikipedia:ro": "Kozlodui"
      },
      "geometry": {
        "type": "Point",
        "coordinates": [
          23.7293313,
          43.7750934
        ]
      },
      "id": "node/273488979"
    },
    {
      "type": "Feature",
      "properties": {
        "@id": "node/273488980",
        "ekatte": "32901",
        "int_name": "Ihtiman",
        "name": "Ихтиман",
        "name:en": "Ihtiman",
        "name:nl": "Ihtiman",
        "name:ro": "Ihtiman",
        "name:tr": "İhtiman",
        "place": "town",
        "population": "13568",
        "source": "bgtopomaps",
        "wikidata": "Q405712"
      },
      "geometry": {
        "type": "Point",
        "coordinates": [
          23.8143825,
          42.4384955
        ]
      },
      "id": "node/273488980"
    },
    {
      "type": "Feature",
      "properties": {
        "@id": "node/273488982",
        "alt_name:tr": "Dılgopol",
        "ekatte": "24565",
        "int_name": "Dalgopol",
        "name": "Дългопол",
        "name:en": "Dalgopol",
        "name:tr": "Yeniköy",
        "place": "town",
        "source": "bgtopomaps",
        "wikidata": "Q405573"
      },
      "geometry": {
        "type": "Point",
        "coordinates": [
          27.3460079,
          43.0526157
        ]
      },
      "id": "node/273488982"
    },
    {
      "type": "Feature",
      "properties": {
        "@id": "node/273488983",
        "ekatte": "53552",
        "int_name": "Opaka",
        "name": "Опака",
        "name:en": "Opaka",
        "place": "town",
        "source": "bgtopomaps",
        "wikidata": "Q404756",
        "wikipedia": "bg:Опака"
      },
      "geometry": {
        "type": "Point",
        "coordinates": [
          26.1739537,
          43.4471325
        ]
      },
      "id": "node/273488983"
    },
    {
      "type": "Feature",
      "properties": {
        "@id": "node/273488985",
        "ekatte": "73403",
        "int_name": "Tryavna",
        "name": "Трявна",
        "name:de": "Trjawna",
        "name:en": "Tryavna",
        "name:fr": "Tryavna",
        "place": "town",
        "population": "9478",
        "postal_code": "5350",
        "source": "bgtopomaps",
        "website": "http://www.tryavna.bg",
        "wikidata": "Q405136",
        "wikipedia": "bg:Трявна"
      },
      "geometry": {
        "type": "Point",
        "coordinates": [
          25.4924992,
          42.8674135
        ]
      },
      "id": "node/273488985"
    },
    {
      "type": "Feature",
      "properties": {
        "@id": "node/273488986",
        "ekatte": "59080",
        "name": "Първомай",
        "name:de": "Parwomaj",
        "name:el": "Παρβομάι",
        "name:en": "Parvomay",
        "place": "town",
        "population": "13984",
        "source": "bgtopomaps",
        "wikidata": "Q405991"
      },
      "geometry": {
        "type": "Point",
        "coordinates": [
          25.2247171,
          42.09946
        ]
      },
      "id": "node/273488986"
    },
    {
      "type": "Feature",
      "properties": {
        "@id": "node/273488987",
        "ekatte": "32024",
        "name": "Ивайловград",
        "name:de": "Iwajlowgrad",
        "name:el": "Ιβαΐβολβγκραντ",
        "name:en": "Ivaylovgrad",
        "name:tr": "Ortaköy",
        "place": "town",
        "source": "bgtopomaps",
        "wikidata": "Q407390",
        "wikipedia": "en:Ivaylovgrad"
      },
      "geometry": {
        "type": "Point",
        "coordinates": [
          26.1234902,
          41.5258135
        ]
      },
      "id": "node/273488987"
    },
    {
      "type": "Feature",
      "properties": {
        "@id": "node/273488988",
        "addr:postcode": "2760",
        "alt_name:mk": "Разлог",
        "ekatte": "61813",
        "int_name": "Razlog",
        "name": "Разлог",
        "name:de": "Raslog",
        "name:el": "Ράζλογκ",
        "name:en": "Razlog",
        "name:fr": "Razlog",
        "name:mk": "Мехомија (Разлог)",
        "place": "town",
        "population": "12789",
        "website": "https://razlog.bg/",
        "wikidata": "Q929605",
        "wikipedia": "bg:Разлог"
      },
      "geometry": {
        "type": "Point",
        "coordinates": [
          23.4661521,
          41.8861079
        ]
      },
      "id": "node/273488988"
    },
    {
      "type": "Feature",
      "properties": {
        "@id": "node/273488989",
        "ekatte": "52218",
        "int_name": "Apriltsi",
        "name": "Априлци",
        "name:bg": "Априлци",
        "name:en": "Apriltsi",
        "place": "town",
        "source": "bgtopomaps",
        "wikidata": "Q405223",
        "wikipedia": "bg:Априлци"
      },
      "geometry": {
        "type": "Point",
        "coordinates": [
          24.9134025,
          42.8407855
        ]
      },
      "id": "node/273488989"
    },
    {
      "type": "Feature",
      "properties": {
        "@id": "node/273488991",
        "ekatte": "20482",
        "int_name": "Devnya",
        "name": "Девня",
        "name:en": "Devnya",
        "place": "town",
        "population": "9322",
        "source": "bgtopomaps",
        "wikidata": "Q405640"
      },
      "geometry": {
        "type": "Point",
        "coordinates": [
          27.5564948,
          43.2184213
        ]
      },
      "id": "node/273488991"
    },
    {
      "type": "Feature",
      "properties": {
        "@id": "node/273488992",
        "ekatte": "55782",
        "int_name": "Iskar",
        "name": "Искър",
        "name:en": "Iskar",
        "place": "town",
        "source": "bgtopomaps",
        "wikidata": "Q406538"
      },
      "geometry": {
        "type": "Point",
        "coordinates": [
          24.2557605,
          43.4597596
        ]
      },
      "id": "node/273488992"
    },
    {
      "type": "Feature",
      "properties": {
        "@id": "node/273488993",
        "addr:postcode": "6750",
        "ekatte": "00607",
        "int_name": "Ardino",
        "name": "Ардино",
        "name:en": "Ardino",
        "name:fr": "Ardino",
        "name:tr": "İndere",
        "place": "town",
        "population": "3989",
        "source": "bgtopomaps",
        "website": "https://www.ardino.bg/",
        "wikidata": "Q407347",
        "wikipedia": "bg:Ардино"
      },
      "geometry": {
        "type": "Point",
        "coordinates": [
          25.1338545,
          41.5809659
        ]
      },
      "id": "node/273488993"
    },
    {
      "type": "Feature",
      "properties": {
        "@id": "node/273488995",
        "ekatte": "63207",
        "int_name": "Rudozem",
        "name": "Рудозем",
        "name:en": "Rudozem",
        "name:ru": "Рудозем",
        "place": "town",
        "source": "bgtopomaps",
        "wikidata": "Q405334"
      },
      "geometry": {
        "type": "Point",
        "coordinates": [
          24.8466756,
          41.4860848
        ]
      },
      "id": "node/273488995"
    },
    {
      "type": "Feature",
      "properties": {
        "@id": "node/273488996",
        "ekatte": "04501",
        "int_name": "Bobov dol",
        "name": "Бобов дол",
        "name:de": "Bobow Dol",
        "name:el": "Μπόμποβ Ντολ",
        "name:en": "Bobov Dol",
        "place": "town",
        "population": "5956",
        "source": "bgtopomaps",
        "wikidata": "Q405175",
        "wikipedia": "bg:Бобов дол"
      },
      "geometry": {
        "type": "Point",
        "coordinates": [
          23.0073636,
          42.3662276
        ]
      },
      "id": "node/273488996"
    },
    {
      "type": "Feature",
      "properties": {
        "@id": "node/273488997",
        "alt_name:el": "Στενήμαχος",
        "ekatte": "00702",
        "int_name": "Asenovgrad",
        "name": "Асеновград",
        "name:bg": "Асеновград",
        "name:de": "Assenowgrad",
        "name:el": "Ασένοβγκραντ",
        "name:en": "Asenovgrad",
        "name:et": "Asenovgrad",
        "name:fr": "Assénovgrad",
        "name:pl": "Asenowgrad",
        "place": "town",
        "population": "54778",
        "source": "bgtopomaps",
        "wikidata": "Q191871"
      },
      "geometry": {
        "type": "Point",
        "coordinates": [
          24.8762702,
          42.0073633
        ]
      },
      "id": "node/273488997"
    },
    {
      "type": "Feature",
      "properties": {
        "@id": "node/273488999",
        "ekatte": "00518",
        "int_name": "Antonovo",
        "name": "Антоново",
        "name:en": "Antonovo",
        "place": "town",
        "source": "bgtopomaps",
        "wikidata": "Q405852",
        "wikipedia": "bg:Антоново"
      },
      "geometry": {
        "type": "Point",
        "coordinates": [
          26.1616683,
          43.1497923
        ]
      },
      "id": "node/273488999"
    },
    {
      "type": "Feature",
      "properties": {
        "@id": "node/273489001",
        "ekatte": "05236",
        "int_name": "Boychinovtsi",
        "name": "Бойчиновци",
        "name:en": "Boychinovtsi",
        "name:ro": "Boicinovți",
        "place": "town",
        "source": "bgtopomaps",
        "wikidata": "Q405184"
      },
      "geometry": {
        "type": "Point",
        "coordinates": [
          23.3324399,
          43.4711262
        ]
      },
      "id": "node/273489001"
    },
    {
      "type": "Feature",
      "properties": {
        "@id": "node/273489003",
        "ekatte": "20465",
        "int_name": "Devin",
        "name": "Девин",
        "name:el": "Ντέβιν",
        "name:en": "Devin",
        "place": "town",
        "population": "6527",
        "source": "bgtopomaps",
        "wikidata": "Q405341",
        "wikipedia": "bg:Девин"
      },
      "geometry": {
        "type": "Point",
        "coordinates": [
          24.3984625,
          41.7433556
        ]
      },
      "id": "node/273489003"
    },
    {
      "type": "Feature",
      "properties": {
        "@id": "node/273489004",
        "ekatte": "39030",
        "ele": "528",
        "int_name": "Kotel",
        "name": "Котел",
        "name:de": "Kotel",
        "name:en": "Kotel",
        "name:ru": "Котел",
        "place": "town",
        "population": "5370",
        "source": "bgtopomaps",
        "wikidata": "Q404822",
        "wikipedia": "en:Kotel, Bulgaria"
      },
      "geometry": {
        "type": "Point",
        "coordinates": [
          26.4491598,
          42.8873776
        ]
      },
      "id": "node/273489004"
    },
    {
      "type": "Feature",
      "properties": {
        "@id": "node/273814430",
        "ekatte": "47336",
        "int_name": "Marten",
        "name": "Мартен",
        "name:en": "Marten",
        "place": "town",
        "source": "bgtopomaps",
        "wikidata": "Q406352"
      },
      "geometry": {
        "type": "Point",
        "coordinates": [
          26.08118,
          43.91718
        ]
      },
      "id": "node/273814430"
    },
    {
      "type": "Feature",
      "properties": {
        "@id": "node/273815275",
        "ekatte": "10820",
        "int_name": "Vetren",
        "name": "Ветрен",
        "name:en": "Vetren",
        "place": "town",
        "source": "bgtopomaps",
        "wikidata": "Q2380619"
      },
      "geometry": {
        "type": "Point",
        "coordinates": [
          24.04463,
          42.28236
        ]
      },
      "id": "node/273815275"
    },
    {
      "type": "Feature",
      "properties": {
        "@id": "node/273873622",
        "ekatte": "70648",
        "int_name": "Sarnitsa",
        "name": "Сърница",
        "name:de": "Sarniza",
        "name:en": "Sarnitsa",
        "name:mk": "Срница",
        "place": "town",
        "wikidata": "Q405972",
        "wikipedia": "en:Sarnitsa, Pazardzhik Province"
      },
      "geometry": {
        "type": "Point",
        "coordinates": [
          24.024161,
          41.7384034
        ]
      },
      "id": "node/273873622"
    },
    {
      "type": "Feature",
      "properties": {
        "@id": "node/273873916",
        "addr:postcode": "8183",
        "ekatte": "37023",
        "int_name": "Kiten",
        "name": "Китен",
        "name:bg": "Китен",
        "name:en": "Kiten",
        "name:fr": "Kiten",
        "place": "town",
        "population": "1113",
        "source": "bgtopomaps",
        "wikidata": "Q1993655",
        "wikipedia": "bg:Китен"
      },
      "geometry": {
        "type": "Point",
        "coordinates": [
          27.77419,
          42.23584
        ]
      },
      "id": "node/273873916"
    },
    {
      "type": "Feature",
      "properties": {
        "@id": "node/273874316",
        "addr:postcode": "2777",
        "alt_name:mk": "Добриниште",
        "ekatte": "21498",
        "int_name": "Dobrinishte",
        "name": "Добринище",
        "name:de": "Dobrinischte",
        "name:el": "Ντομπρίνιστε",
        "name:en": "Dobrinishte",
        "name:fr": "Dobrinichte",
        "name:mk": "Добриништа",
        "place": "town",
        "population": "2661",
        "wikidata": "Q407377",
        "wikipedia": "bg:Добринище"
      },
      "geometry": {
        "type": "Point",
        "coordinates": [
          23.5629827,
          41.8210798
        ]
      },
      "id": "node/273874316"
    },
    {
      "type": "Feature",
      "properties": {
        "@id": "node/273874457",
        "ekatte": "38844",
        "int_name": "Kostandovo",
        "name": "Костандово",
        "name:bg": "Костандово",
        "name:en": "Kostandovo",
        "place": "town",
        "population": "4350",
        "source": "bgtopomaps",
        "wikidata": "Q406029"
      },
      "geometry": {
        "type": "Point",
        "coordinates": [
          24.1074225,
          42.0262455
        ]
      },
      "id": "node/273874457"
    },
    {
      "type": "Feature",
      "properties": {
        "@id": "node/273874774",
        "addr:postcode": "8217",
        "ekatte": "00833",
        "int_name": "Aheloy",
        "name": "Ахелой",
        "name:bg": "Ахелой",
        "name:en": "Aheloy",
        "name:fr": "Akheloï",
        "name:ru": "Ахелой",
        "place": "town",
        "population": "2087",
        "source": "bgtopomaps",
        "wikidata": "Q2597663",
        "wikipedia": "bg:Ахелой (град)"
      },
      "geometry": {
        "type": "Point",
        "coordinates": [
          27.6477519,
          42.6486312
        ]
      },
      "id": "node/273874774"
    },
    {
      "type": "Feature",
      "properties": {
        "@id": "node/273877354",
        "ekatte": "40467",
        "int_name": "Kuklen",
        "name": "Куклен",
        "name:bg": "Куклен",
        "name:en": "Kuklen",
        "name:nl": "Kuklen",
        "place": "town",
        "source": "bgtopomaps",
        "wikidata": "Q407249"
      },
      "geometry": {
        "type": "Point",
        "coordinates": [
          24.7896,
          42.03427
        ]
      },
      "id": "node/273877354"
    },
    {
      "type": "Feature",
      "properties": {
        "@id": "node/273879356",
        "addr:postcode": "8142",
        "ekatte": "81178",
        "int_name": "Chernomorets",
        "name": "Черноморец",
        "name:bg": "Черноморец",
        "name:en": "Chernomorets",
        "name:fr": "Tchernomorets",
        "place": "town",
        "population": "2221",
        "source": "bgtopomaps",
        "wikidata": "Q1022281",
        "wikipedia": "bg:Черноморец"
      },
      "geometry": {
        "type": "Point",
        "coordinates": [
          27.63823,
          42.4438501
        ]
      },
      "id": "node/273879356"
    },
    {
      "type": "Feature",
      "properties": {
        "@id": "node/273879428",
        "addr:postcode": "8256",
        "ekatte": "11538",
        "ele": "0",
        "int_name": "Sveti Vlas",
        "name": "Свети Влас",
        "name:bg": "Свети Влас",
        "name:de": "Sweti Wlas",
        "name:en": "Sveti Vlas",
        "name:fr": "Sveti Vlas",
        "name:hu": "Szent Vlasz",
        "name:ru": "Святой Влас",
        "place": "town",
        "population": "4141",
        "source": "bgtopomaps",
        "wikidata": "Q406657",
        "wikipedia": "bg:Свети Влас"
      },
      "geometry": {
        "type": "Point",
        "coordinates": [
          27.7588044,
          42.7138408
        ]
      },
      "id": "node/273879428"
    },
    {
      "type": "Feature",
      "properties": {
        "@id": "node/273880448",
        "ekatte": "32278",
        "int_name": "Ignatievo",
        "is_in:country": "България",
        "is_in:region": "Варна",
        "name": "Игнатиево",
        "name:en": "Ignatievo",
        "place": "town",
        "population": "4282",
        "source": "bgtopomaps",
        "wikidata": "Q2597671"
      },
      "geometry": {
        "type": "Point",
        "coordinates": [
          27.7747311,
          43.2495548
        ]
      },
      "id": "node/273880448"
    },
    {
      "type": "Feature",
      "properties": {
        "@id": "node/273881009",
        "ekatte": "40292",
        "ele": "439",
        "int_name": "Kran",
        "name": "Крън",
        "name:en": "Kran",
        "name:ro": "Krăn",
        "place": "town",
        "population": "3095",
        "source": "bgtopomaps",
        "wikidata": "Q769058",
        "wikipedia": "en:Kran, Stara Zagora Province"
      },
      "geometry": {
        "type": "Point",
        "coordinates": [
          25.3806846,
          42.6677735
        ]
      },
      "id": "node/273881009"
    },
    {
      "type": "Feature",
      "properties": {
        "@id": "node/276708567",
        "capital": "4",
        "ekatte": "83510",
        "int_name": "Shumen",
        "name": "Шумен",
        "name:bg": "Шумен",
        "name:da": "Sjumen",
        "name:de": "Schumen",
        "name:el": "Σούμεν",
        "name:en": "Shumen",
        "name:eo": "Ŝumen",
        "name:et": "Šumen",
        "name:eu": "Xumen",
        "name:fr": "Choumen",
        "name:lt": "Šumenas",
        "name:ml": "ഷുമെൻ",
        "name:nl": "Sjoemen",
        "name:pl": "Szumen",
        "name:ro": "Șumen",
        "name:ru": "Шумен",
        "name:sr": "Шумен",
        "name:sr-Latn": "Šumen",
        "name:sv": "Sjumen",
        "name:tr": "Şumnu",
        "old_name:bg:1950-1965": "Коларовград",
        "old_name:de": "Schumla",
        "place": "city",
        "population": "85504",
        "website": "https://shumen.bg/",
        "wikidata": "Q181830",
        "wikipedia": "bg:Шумен"
      },
      "geometry": {
        "type": "Point",
        "coordinates": [
          26.9247362,
          43.2703797
        ]
      },
      "id": "node/276708567"
    },
    {
      "type": "Feature",
      "properties": {
        "@id": "node/291465866",
        "addr:postcode": "8250",
        "ekatte": "53045",
        "int_name": "Obzor",
        "name": "Обзор",
        "name:bg": "Обзор",
        "name:de": "Obsor",
        "name:en": "Obzor",
        "name:fr": "Obzor",
        "place": "town",
        "population": "2650",
        "website": "https://obzorcity.com/",
        "wikidata": "Q406649",
        "wikipedia": "bg:Обзор"
      },
      "geometry": {
        "type": "Point",
        "coordinates": [
          27.8794434,
          42.8205748
        ]
      },
      "id": "node/291465866"
    },
    {
      "type": "Feature",
      "properties": {
        "@id": "node/297992208",
        "ekatte": "24061",
        "int_name": "Dunavtsi",
        "name": "Дунавци",
        "name:en": "Dunavtsi",
        "name:ro": "Dunavți",
        "place": "town",
        "wikidata": "Q405856"
      },
      "geometry": {
        "type": "Point",
        "coordinates": [
          22.8153639,
          43.9139817
        ]
      },
      "id": "node/297992208"
    },
    {
      "type": "Feature",
      "properties": {
        "@id": "node/323351236",
        "ekatte": "83199",
        "ele": "650",
        "int_name": "Shipka",
        "name": "Шипка",
        "name:de": "Schipka",
        "name:en": "Shipka",
        "name:ro": "Șipka",
        "place": "town",
        "population": "1267",
        "wikidata": "Q133961",
        "wikipedia": "bg:Шипка (град)",
        "wikipedia:de": "Schipka_(Stadt)",
        "wikipedia:en": "Shipka_(town)"
      },
      "geometry": {
        "type": "Point",
        "coordinates": [
          25.3325198,
          42.7123752
        ]
      },
      "id": "node/323351236"
    },
    {
      "type": "Feature",
      "properties": {
        "@id": "node/331131269",
        "ekatte": "35496",
        "int_name": "Kalofer",
        "name": "Калофер",
        "name:bg": "Калофер",
        "name:en": "Kalofer",
        "name:ru": "Калофер",
        "place": "town",
        "population": "2639",
        "wikidata": "Q405351"
      },
      "geometry": {
        "type": "Point",
        "coordinates": [
          24.9737862,
          42.6122664
        ]
      },
      "id": "node/331131269"
    },
    {
      "type": "Feature",
      "properties": {
        "@id": "node/331855323",
        "alt_name:el": "Μελένικο",
        "ekatte": "47754",
        "int_name": "Melnik",
        "name": "Мелник",
        "name:bg": "Мелник",
        "name:de": "Melnik",
        "name:el": "Μέλνικ",
        "name:en": "Melnik",
        "name:fr": "Melnik",
        "name:pl": "Melnik",
        "place": "town",
        "population": "325",
        "postal_code": "2820",
        "wikidata": "Q599994",
        "wikipedia": "bg:Мелник"
      },
      "geometry": {
        "type": "Point",
        "coordinates": [
          23.393246,
          41.5229421
        ]
      },
      "id": "node/331855323"
    },
    {
      "type": "Feature",
      "properties": {
        "@id": "node/344323854",
        "addr:postcode": "8210",
        "ekatte": "35033",
        "int_name": "Kableshkovo",
        "name": "Каблешково",
        "name:en": "Kableshkovo",
        "name:fr": "Kablechkovo",
        "place": "town",
        "population": "2906",
        "wikidata": "Q406004",
        "wikipedia": "bg:Каблешково"
      },
      "geometry": {
        "type": "Point",
        "coordinates": [
          27.5648758,
          42.6598371
        ]
      },
      "id": "node/344323854"
    },
    {
      "type": "Feature",
      "properties": {
        "@id": "node/357444883",
        "ekatte": "68080",
        "int_name": "Sopot",
        "name": "Сопот",
        "name:bg": "Сопот",
        "name:en": "Sopot",
        "name:fr": "Sopot",
        "old_name:bg:1950-1965": "Вазовград",
        "place": "town",
        "population": "8754",
        "postal_code": "4330",
        "wikidata": "Q407110"
      },
      "geometry": {
        "type": "Point",
        "coordinates": [
          24.7554866,
          42.6543846
        ]
      },
      "id": "node/357444883"
    },
    {
      "type": "Feature",
      "properties": {
        "@id": "node/364512417",
        "ekatte": "56719",
        "int_name": "Plachkovtsi",
        "name": "Плачковци",
        "name:en": "Plachkovtsi",
        "place": "town",
        "wikidata": "Q406335"
      },
      "geometry": {
        "type": "Point",
        "coordinates": [
          25.4832748,
          42.8240207
        ]
      },
      "id": "node/364512417"
    },
    {
      "type": "Feature",
      "properties": {
        "@id": "node/455943256",
        "addr:postcode": "8280",
        "ekatte": "00878",
        "int_name": "Ahtopol",
        "name": "Ахтопол",
        "name:bg": "Ахтопол",
        "name:de": "Achtopol",
        "name:el": "Αγαθούπολη",
        "name:en": "Ahtopol",
        "name:fr": "Аkhtopol",
        "place": "town",
        "population": "1419",
        "wikidata": "Q341027",
        "wikipedia": "bg:Ахтопол"
      },
      "geometry": {
        "type": "Point",
        "coordinates": [
          27.9434142,
          42.0995866
        ]
      },
      "id": "node/455943256"
    },
    {
      "type": "Feature",
      "properties": {
        "@id": "node/457344427",
        "ekatte": "65677",
        "int_name": "Svilengrad",
        "is_in:country": "България",
        "is_in:region": "Хасково",
        "name": "Свиленград",
        "name:de": "Swilengrad",
        "name:el": "Σβίλενγκραντ",
        "name:en": "Svilengrad",
        "name:fr": "Svilengrad",
        "name:ml": "സ്വിലെൻഗ്രാഡ്",
        "name:ru": "Свиленград",
        "place": "town",
        "population": "18842",
        "source": "bgtopomaps",
        "wikidata": "Q405789"
      },
      "geometry": {
        "type": "Point",
        "coordinates": [
          26.201814,
          41.7689145
        ]
      },
      "id": "node/457344427"
    },
    {
      "type": "Feature",
      "properties": {
        "@id": "node/457720110",
        "ekatte": "56126",
        "ele": "168",
        "int_name": "Petrich",
        "name": "Петрич",
        "name:bg": "Петрич",
        "name:cy": "Petrich",
        "name:de": "Petritsch",
        "name:el": "Πετρίτσι",
        "name:en": "Petrich",
        "name:fa": "پتریچ",
        "name:fr": "Pétritch",
        "name:ja": "ペトリチ",
        "name:mk": "Петрич",
        "name:nl": "Petritsj",
        "name:pl": "Petricz",
        "name:ro": "Petrici",
        "name:ru": "Петрич",
        "name:sk": "Petrič",
        "name:tr": "Petriç",
        "place": "town",
        "population": "30772",
        "postal_code": "2850",
        "source": "bgtopomaps",
        "wikidata": "Q191099",
        "wikipedia": "bg:Петрич"
      },
      "geometry": {
        "type": "Point",
        "coordinates": [
          23.2067832,
          41.3952948
        ]
      },
      "id": "node/457720110"
    },
    {
      "type": "Feature",
      "properties": {
        "@id": "node/458871623",
        "ekatte": "07140",
        "int_name": "Buhovo",
        "name": "Бухово",
        "name:de": "Buchowo",
        "name:el": "Μπούχοβο",
        "name:en": "Buhovo",
        "name:fr": "Bouhovo",
        "place": "town",
        "population": "2580",
        "wikidata": "Q2597688",
        "wikipedia": "bg:Бухово"
      },
      "geometry": {
        "type": "Point",
        "coordinates": [
          23.5665131,
          42.7647891
        ]
      },
      "id": "node/458871623"
    },
    {
      "type": "Feature",
      "properties": {
        "@id": "node/501845742",
        "ekatte": "56770",
        "int_name": "Pliska",
        "name": "Плиска",
        "name:en": "Pliska",
        "place": "town",
        "source": "bgtopomaps",
        "wikidata": "Q318889",
        "wikipedia": "bg:Плиска"
      },
      "geometry": {
        "type": "Point",
        "coordinates": [
          27.1248256,
          43.3620649
        ]
      },
      "id": "node/501845742"
    },
    {
      "type": "Feature",
      "properties": {
        "@id": "node/529652159",
        "ekatte": "73359",
        "int_name": "Trastenik",
        "name": "Тръстеник",
        "name:en": "Trastenik",
        "place": "town",
        "wikidata": "Q405720"
      },
      "geometry": {
        "type": "Point",
        "coordinates": [
          24.4685371,
          43.5200069
        ]
      },
      "id": "node/529652159"
    },
    {
      "type": "Feature",
      "properties": {
        "@id": "node/530587061",
        "ekatte": "36779",
        "int_name": "Kermen",
        "is_in:country": "България",
        "is_in:region": "Сливен",
        "name": "Кермен",
        "name:el": "Κέρμεν",
        "name:en": "Kermen",
        "place": "town",
        "wikidata": "Q2469089",
        "wikipedia": "bg:Кермен"
      },
      "geometry": {
        "type": "Point",
        "coordinates": [
          26.2560569,
          42.5056243
        ]
      },
      "id": "node/530587061"
    },
    {
      "type": "Feature",
      "properties": {
        "@id": "node/597134611",
        "ekatte": "51723",
        "int_name": "Nikopol",
        "name": "Никопол",
        "name:en": "Nikopol",
        "name:ro": "Nicopole",
        "place": "town",
        "population": "4000",
        "wikidata": "Q409102",
        "wikipedia": "en:Nikopol, Bulgaria"
      },
      "geometry": {
        "type": "Point",
        "coordinates": [
          24.8996563,
          43.7070803
        ]
      },
      "id": "node/597134611"
    },
    {
      "type": "Feature",
      "properties": {
        "@id": "way/813422475",
        "place": "town",
        "@geometry": "center"
      },
      "geometry": {
        "type": "Point",
        "coordinates": [
          23.0977002,
          41.9345181
        ]
      },
      "id": "way/813422475"
    },
    {
      "type": "Feature",
      "properties": {
        "@id": "node/836529193",
        "capital": "4",
        "ekatte": "68850",
        "int_name": "Stara Zagora",
        "name": "Стара Загора",
        "name:bg": "Стара Загора",
        "name:de": "Stara Sagora",
        "name:el": "Στάρα Ζαγόρα",
        "name:en": "Stara Zagora",
        "name:et": "Stara Zagora",
        "name:fr": "Stara Zagora",
        "name:grc": "Βερόη",
        "name:hr": "Stara Zagora",
        "name:ml": "സ്റ്റാറ സഗോറ",
        "name:nl": "Stara Zagora",
        "name:ro": "Stara Zagora",
        "name:ru": "Стара-Загора",
        "name:sk": "Stará Zagora",
        "name:sr": "Стара Загора",
        "name:tr": "Eski Zağra",
        "place": "city",
        "population": "149266",
        "website": "https://starazagora.bg/",
        "wikidata": "Q170415",
        "wikipedia": "bg:Стара Загора"
      },
      "geometry": {
        "type": "Point",
        "coordinates": [
          25.6257479,
          42.4248111
        ]
      },
      "id": "node/836529193"
    },
    {
      "type": "Feature",
      "properties": {
        "@id": "node/1077973943",
        "ekatte": "37277",
        "int_name": "Klisura",
        "name": "Клисура",
        "name:bg": "Клисура",
        "name:en": "Klisura",
        "name:uk": "Клісура",
        "place": "town",
        "wikidata": "Q405893",
        "wikipedia": "en:Klisura, Plovdiv Province"
      },
      "geometry": {
        "type": "Point",
        "coordinates": [
          24.4494186,
          42.6937241
        ]
      },
      "id": "node/1077973943"
    },
    {
      "type": "Feature",
      "properties": {
        "@id": "node/1214023838",
        "ekatte": "81414",
        "int_name": "Chirpan",
        "name": "Чирпан",
        "name:bg": "Чирпан",
        "name:de": "Tschirpan",
        "name:en": "Chirpan",
        "place": "town",
        "population": "16315",
        "wikidata": "Q407340"
      },
      "geometry": {
        "type": "Point",
        "coordinates": [
          25.3256972,
          42.199981
        ]
      },
      "id": "node/1214023838"
    },
    {
      "type": "Feature",
      "properties": {
        "@id": "node/1219668757",
        "ekatte": "07702",
        "int_name": "Byala Slatina",
        "name": "Бяла Слатина",
        "name:en": "Byala Slatina",
        "place": "town",
        "population": "12519",
        "source": "bgtopomaps",
        "wikidata": "Q405228"
      },
      "geometry": {
        "type": "Point",
        "coordinates": [
          23.9450995,
          43.4697446
        ]
      },
      "id": "node/1219668757"
    },
    {
      "type": "Feature",
      "properties": {
        "@id": "node/1695086208",
        "ekatte": "23409",
        "int_name": "Dragoman",
        "is_in:country": "България",
        "is_in:municipality": "Драгоман",
        "is_in:region": "София",
        "name": "Драгоман",
        "name:bg": "Драгоман",
        "name:de": "Dragoman",
        "name:el": "Ντράγκομαν",
        "name:en": "Dragoman",
        "name:nl": "Dragoman",
        "name:ro": "Dragoman",
        "place": "town",
        "source": "bgtopomaps",
        "wikidata": "Q405373"
      },
      "geometry": {
        "type": "Point",
        "coordinates": [
          22.93018,
          42.9218621
        ]
      },
      "id": "node/1695086208"
    },
    {
      "type": "Feature",
      "properties": {
        "@id": "node/1698668366",
        "alt_name:el": "Πλόβντιβ",
        "capital": "4",
        "ekatte": "56784",
        "int_name": "Plovdiv",
        "name": "Пловдив",
        "name:ar": "بلوفديف",
        "name:ast": "Plovdiv",
        "name:bg": "Пловдив",
        "name:br": "Plovdiv",
        "name:ca": "Plóvdiv",
        "name:cs": "Plovdiv",
        "name:cu": "Фїлїппополь",
        "name:cy": "Plovdiv",
        "name:da": "Plovdiv",
        "name:de": "Plowdiw",
        "name:el": "Φιλιππούπολη",
        "name:en": "Plovdiv",
        "name:eo": "Plovdiv",
        "name:es": "Plovdiv",
        "name:et": "Plovdiv",
        "name:eu": "Plovdiv",
        "name:fa": "پلوودیو",
        "name:fi": "Plovdiv",
        "name:fr": "Plovdiv",
        "name:he": "פלובדיב",
        "name:hr": "Plovdiv",
        "name:hu": "Plovdiv",
        "name:hy": "Պլովդիվ",
        "name:id": "Plovdiv",
        "name:io": "Plovdiv",
        "name:is": "Plovdiv",
        "name:it": "Plovdiv",
        "name:ja": "プロヴディフ",
        "name:jv": "Plovdiv",
        "name:ka": "პლოვდივი",
        "name:ko": "플로브디프",
        "name:la": "Philippopolis",
        "name:lt": "Plovdivas",
        "name:lv": "Plovdiva",
        "name:ml": "പ്ലോവ്ഡിവ്",
        "name:mr": "प्लॉव्हडिव्ह",
        "name:ms": "Plovdiv",
        "name:mt": "Plovdiv",
        "name:nl": "Plovdiv",
        "name:nn": "Plovdiv",
        "name:no": "Plovdiv",
        "name:pl": "Płowdiw",
        "name:pt": "Plovdiv",
        "name:ro": "Plovdiv",
        "name:ru": "Пловдив",
        "name:sk": "Plovdiv",
        "name:sl": "Plovdiv",
        "name:sr": "Пловдив",
        "name:sv": "Plovdiv",
        "name:th": "พลอฟดิฟ",
        "name:tk": "Plowdiw",
        "name:tl": "Plovdiv",
        "name:tr": "Filibe",
        "name:uk": "Пловдив",
        "name:vi": "Plovdiv",
        "name:vo": "Plovdiv",
        "name:yi": "פלאוודיוו",
        "name:zh": "普羅夫迪夫",
        "name:zh-Hans": "普罗夫迪夫",
        "name:zh-Hant": "普羅夫迪夫",
        "place": "city",
        "population": "368983",
        "wikidata": "Q459",
        "wikipedia": "bg:Пловдив"
      },
      "geometry": {
        "type": "Point",
        "coordinates": [
          24.7499297,
          42.1418541
        ]
      },
      "id": "node/1698668366"
    },
    {
      "type": "Feature",
      "properties": {
        "@id": "node/1699229585",
        "ekatte": "47278",
        "name": "Симеоновград",
        "name:de": "Simeonowgrad",
        "name:el": "Σιμεόνοβγκραντ",
        "name:en": "Simeonovgrad",
        "place": "town",
        "population": "6853",
        "source": "bgtopomaps",
        "wikidata": "Q5474197"
      },
      "geometry": {
        "type": "Point",
        "coordinates": [
          25.8316217,
          42.0337777
        ]
      },
      "id": "node/1699229585"
    },
    {
      "type": "Feature",
      "properties": {
        "@id": "node/1700083447",
        "ISO3166-2": "BG-23",
        "addr:postcode": "1000",
        "admin_level": "2",
        "alt_name:gl": "София",
        "capital": "yes",
        "ekatte": "68134",
        "ele": "595",
        "int_name": "Sofia",
        "is_capital": "country",
        "name": "София",
        "name:am": "ሶፊያ",
        "name:an": "Sofiya",
        "name:ar": "صوفيا",
        "name:arz": "صوفيا",
        "name:ast": "Sofía",
        "name:az": "Sofiya",
        "name:bat-smg": "Suofėjė",
        "name:be": "Сафія",
        "name:be-tarask": "Сафія",
        "name:bg": "София",
        "name:bn": "সফিয়া",
        "name:bo": "སོ་ཧྥི་ཡ།",
        "name:br": "Sofia",
        "name:bs": "Sofija",
        "name:ca": "Sofia",
        "name:ckb": "سۆفیا",
        "name:crh": "Sofiya",
        "name:cs": "Sofie",
        "name:cu": "Софїꙗ",
        "name:cv": "Софиа",
        "name:de": "Sofia",
        "name:diq": "Sofya",
        "name:dsb": "Sofija",
        "name:el": "Σόφια",
        "name:en": "Sofia",
        "name:eo": "Sofio",
        "name:es": "Sofía",
        "name:et": "Sofia",
        "name:eu": "Sofia",
        "name:fa": "صوفیه",
        "name:fi": "Sofia",
        "name:fr": "Sofia",
        "name:ga": "Sóifia",
        "name:gag": "Sofiya",
        "name:gl": "Sofía",
        "name:he": "סופיה",
        "name:hi": "सोफिया",
        "name:hr": "Sofija",
        "name:hsb": "Sofija",
        "name:hu": "Szófia",
        "name:hy": "Սոֆիա",
        "name:io": "Sofiya",
        "name:is": "Sófía",
        "name:it": "Sofia",
        "name:ja": "ソフィア",
        "name:ka": "სოფია",
        "name:kaa": "Sofiya",
        "name:kk": "София",
        "name:kn": "ಸೋಫಿಯಾ",
        "name:ko": "소피아",
        "name:ku": "Sofya",
        "name:kv": "София",
        "name:ky": "София",
        "name:la": "Serdica",
        "name:lez": "София",
        "name:lij": "Sòfia",
        "name:lt": "Sofija",
        "name:lv": "Sofija",
        "name:mhr": "Софий",
        "name:mk": "Софија",
        "name:ml": "സോഫിയ",
        "name:mn": "Софи",
        "name:mr": "सोफिया",
        "name:myv": "София ош",
        "name:nah": "Sofiya",
        "name:nl": "Sofia",
        "name:no": "Sofia",
        "name:oc": "Sòfia",
        "name:os": "София",
        "name:pl": "Sofia",
        "name:pms": "Sòfia",
        "name:pnb": "صوفیہ",
        "name:pt": "Sófia",
        "name:qu": "Sofiya",
        "name:rmy": "Sofiya",
        "name:ro": "Sofia",
        "name:ru": "София",
        "name:rw": "Sofiya",
        "name:sah": "София",
        "name:sh": "Sofija",
        "name:sk": "Sofia",
        "name:sl": "Sofija",
        "name:sq": "Sofja",
        "name:sr": "Софија",
        "name:sv": "Sofia",
        "name:ta": "சோஃவியா",
        "name:tg": "София",
        "name:th": "โซเฟีย",
        "name:tk": "Sofiýa",
        "name:tr": "Sofya",
        "name:udm": "София",
        "name:ug": "سوفىيە",
        "name:uk": "Софія",
        "name:ur": "صوفیہ",
        "name:vep": "Sofii",
        "name:vi": "Sofia",
        "name:vo": "Sofiya",
        "name:wo": "Sofiya",
        "name:yi": "סאפיע",
        "name:zh": "索非亞",
        "name:zh-Hans": "索非亚",
        "name:zh-Hant": "索非亞",
        "note": "center has postcode=1000",
        "old_name": "Сердика",
        "place": "city",
        "population": "1286383",
        "source:name:br": "ofis publik ar brezhoneg",
        "website": "https://www.sofia.bg/",
        "wikidata": "Q472",
        "wikipedia": "bg:София",
        "@relations": [
          {
            "role": "label",
            "rel": 4283101,
            "reltags": {
              "alt_name:gl": "София",
              "capital": "yes",
              "int_name": "Sofia",
              "name": "София",
              "name:am": "ሶፊያ",
              "name:an": "Sofiya",
              "name:ar": "صوفيا",
              "name:arz": "صوفيا",
              "name:ast": "Sofía",
              "name:az": "Sofiya",
              "name:bat-smg": "Suofėjė",
              "name:be": "Сафія",
              "name:be-tarask": "Сафія",
              "name:bg": "София",
              "name:bn": "সফিয়া",
              "name:bo": "སོ་ཧྥི་ཡ།",
              "name:bs": "Sofija",
              "name:ckb": "سۆفیا",
              "name:crh": "Sofiya",
              "name:cs": "Sofie",
              "name:cu": "Софїꙗ",
              "name:cv": "Софи",
              "name:de": "Sofia",
              "name:diq": "Sofya",
              "name:dsb": "Sofija",
              "name:el": "Σόφια",
              "name:en": "Sofia",
              "name:eo": "Sofio",
              "name:es": "Sofía",
              "name:et": "Sofia",
              "name:eu": "Sofia",
              "name:fa": "صوفیه",
              "name:fi": "Sofia",
              "name:fr": "Sofia",
              "name:ga": "Sóifia",
              "name:gag": "Sofiya",
              "name:gl": "Sofía",
              "name:he": "סופיה",
              "name:hi": "सोफिया",
              "name:hr": "Sofija",
              "name:hsb": "Sofija",
              "name:hu": "Szófia",
              "name:hy": "Սոֆիա",
              "name:io": "Sofiya",
              "name:is": "Sófía",
              "name:ja": "ソフィア",
              "name:ka": "სოფია",
              "name:kaa": "Sofiya",
              "name:kk": "София",
              "name:kn": "ಸೋಫಿಯಾ",
              "name:ko": "소피아",
              "name:ku": "Sofya",
              "name:kv": "София",
              "name:ky": "София",
              "name:la": "Serdica",
              "name:lez": "София",
              "name:lij": "Sòfia",
              "name:lt": "Sofija",
              "name:lv": "Sofija",
              "name:mhr": "Софий",
              "name:mk": "Софија",
              "name:ml": "സോഫിയ",
              "name:mn": "Софи",
              "name:mr": "सोफिया",
              "name:myv": "София ош",
              "name:nah": "Sofiya",
              "name:nl": "Sofia",
              "name:no": "Sofia",
              "name:oc": "Sòfia",
              "name:os": "София",
              "name:pl": "Sofia",
              "name:pms": "Sòfia",
              "name:pnb": "صوفیہ",
              "name:pt": "Sófia",
              "name:qu": "Sofiya",
              "name:rmy": "Sofiya",
              "name:ro": "Sofia",
              "name:ru": "София",
              "name:rw": "Sofiya",
              "name:sah": "София",
              "name:sh": "Sofija",
              "name:sk": "Sofia",
              "name:sl": "Sofija",
              "name:sq": "Sofja",
              "name:sr": "Софија",
              "name:sv": "Sofia",
              "name:ta": "சோஃவியா",
              "name:tg": "София",
              "name:th": "โซเฟีย",
              "name:tk": "Sofiýa",
              "name:tr": "Sofya",
              "name:udm": "София",
              "name:ug": "سوفىيە",
              "name:uk": "Софія",
              "name:ur": "صوفیہ",
              "name:vep": "Sofii",
              "name:vi": "Sofia",
              "name:vo": "Sofiya",
              "name:wo": "Sofiya",
              "name:yi": "סאפיע",
              "name:zh": "索菲亞",
              "name:zh-Hans": "索非亚",
              "name:zh-Hant": "索非亞",
              "old_name": "Сердика",
              "place": "city",
              "type": "multipolygon",
              "wikidata": "Q472",
              "wikipedia": "bg:София"
            }
          }
        ]
      },
      "geometry": {
        "type": "Point",
        "coordinates": [
          23.3217359,
          42.6977028
        ]
      },
      "id": "node/1700083447"
    },
    {
      "type": "Feature",
      "properties": {
        "@id": "node/1734063409",
        "ekatte": "73496",
        "int_name": "Tutrakan",
        "name": "Тутракан",
        "name:bg": "Тутракан",
        "name:en": "Tutrakan",
        "name:lt": "Tutrakanas",
        "name:ro": "Turtucaia",
        "place": "town",
        "population": "9503",
        "source": "bgtopomaps",
        "wikidata": "Q404939",
        "wikipedia": "bg:Тутракан"
      },
      "geometry": {
        "type": "Point",
        "coordinates": [
          26.6162765,
          44.04596
        ]
      },
      "id": "node/1734063409"
    },
    {
      "type": "Feature",
      "properties": {
        "@id": "node/1751567591",
        "alt_name:de": "Svischtov",
        "alt_name:tr": "Ziştovi",
        "ekatte": "65766",
        "int_name": "Svishtov",
        "name": "Свищов",
        "name:bg": "Свищов",
        "name:de": "Swischtow",
        "name:en": "Svishtov",
        "name:et": "Svištov",
        "name:fi": "Svištov",
        "name:fr": "Svichtov",
        "name:hr": "Svištov",
        "name:hu": "Szvistov",
        "name:mk": "Свиштов",
        "name:pl": "Swisztow",
        "name:ro": "Sviștov",
        "name:ru": "Свиштов",
        "name:sk": "Svištov",
        "name:sl": "Svištov",
        "name:sv": "Svisjtov",
        "name:tr": "Ziştova",
        "place": "town",
        "population": "33000",
        "source": "bgtopomaps",
        "wikidata": "Q193082",
        "wikipedia": "en:Svishtov"
      },
      "geometry": {
        "type": "Point",
        "coordinates": [
          25.3509536,
          43.6158817
        ]
      },
      "id": "node/1751567591"
    },
    {
      "type": "Feature",
      "properties": {
        "@id": "node/1762402834",
        "ekatte": "22232",
        "int_name": "Dolna Oryahovitsa",
        "name": "Долна Оряховица",
        "name:en": "Dolna Oryahovitsa",
        "place": "town",
        "wikidata": "Q405997"
      },
      "geometry": {
        "type": "Point",
        "coordinates": [
          25.7407514,
          43.1598318
        ]
      },
      "id": "node/1762402834"
    },
    {
      "type": "Feature",
      "properties": {
        "@id": "node/1766890789",
        "ekatte": "15944",
        "int_name": "Shivachevo",
        "name": "Шивачево",
        "name:en": "Shivachevo",
        "place": "town",
        "wikidata": "Q405962",
        "wikipedia": "bg:Шивачево"
      },
      "geometry": {
        "type": "Point",
        "coordinates": [
          26.0284812,
          42.6861958
        ]
      },
      "id": "node/1766890789"
    },
    {
      "type": "Feature",
      "properties": {
        "@id": "node/1833683636",
        "ekatte": "47843",
        "int_name": "Merichleri",
        "name": "Меричлери",
        "name:en": "Merichleri",
        "place": "town",
        "wikidata": "Q405887",
        "wikipedia": "bg:Меричлери"
      },
      "geometry": {
        "type": "Point",
        "coordinates": [
          25.4979996,
          42.1344055
        ]
      },
      "id": "node/1833683636"
    },
    {
      "type": "Feature",
      "properties": {
        "@id": "node/1889743694",
        "ekatte": "66229",
        "int_name": "Senovo",
        "name": "Сеново",
        "name:en": "Senovo",
        "place": "town",
        "population": "1518",
        "postal_code": "7038",
        "wikidata": "Q404734",
        "wikipedia": "bg:Сеново"
      },
      "geometry": {
        "type": "Point",
        "coordinates": [
          26.3679089,
          43.6521868
        ]
      },
      "id": "node/1889743694"
    },
    {
      "type": "Feature",
      "properties": {
        "@id": "node/1972340571",
        "ekatte": "67088",
        "int_name": "Slavyanovo",
        "name": "Славяново",
        "name:en": "Slavyanovo",
        "place": "town",
        "population": "4600",
        "wikidata": "Q405978"
      },
      "geometry": {
        "type": "Point",
        "coordinates": [
          24.8710214,
          43.4647245
        ]
      },
      "id": "node/1972340571"
    },
    {
      "type": "Feature",
      "properties": {
        "@id": "node/2009615258",
        "addr:postcode": "8110",
        "ekatte": "07332",
        "name": "Българово",
        "name:bg": "Българово",
        "name:en": "Balgarovo",
        "name:fr": "Balgarovo",
        "place": "town",
        "population": "1990",
        "wikidata": "Q405862",
        "wikipedia": "bg:Българово"
      },
      "geometry": {
        "type": "Point",
        "coordinates": [
          27.3058388,
          42.620922
        ]
      },
      "id": "node/2009615258"
    },
    {
      "type": "Feature",
      "properties": {
        "@id": "node/2425363314",
        "ekatte": "07716",
        "int_name": "Byala Cherkva",
        "name": "Бяла черква",
        "name:en": "Byala Cherkva",
        "place": "town",
        "wikidata": "Q407239",
        "wikipedia": "bg:Бяла черква"
      },
      "geometry": {
        "type": "Point",
        "coordinates": [
          25.311033,
          43.2052709
        ]
      },
      "id": "node/2425363314"
    },
    {
      "type": "Feature",
      "properties": {
        "@id": "node/2425648643",
        "addr:postcode": "2035",
        "ekatte": "50245",
        "int_name": "Momin Prohod",
        "name": "Момин проход",
        "name:en": "Momin Prohod",
        "name:ro": "Momin Prohod",
        "place": "town",
        "wikidata": "Q406022",
        "wikipedia": "bg:Момин проход"
      },
      "geometry": {
        "type": "Point",
        "coordinates": [
          23.8721549,
          42.3327555
        ]
      },
      "id": "node/2425648643"
    },
    {
      "type": "Feature",
      "properties": {
        "@id": "node/3537261271",
        "ekatte": "05611",
        "name": "Борово",
        "name:de": "Borowo",
        "name:en": "Borovo",
        "place": "town",
        "wikidata": "Q405846",
        "wikipedia": "bg:Борово"
      },
      "geometry": {
        "type": "Point",
        "coordinates": [
          25.8089088,
          43.4883438
        ]
      },
      "id": "node/3537261271"
    },
    {
      "type": "Feature",
      "properties": {
        "@id": "node/7484642574",
        "alt_name:tr": "Mastanlı",
        "ekatte": "48996",
        "int_name": "Momchilgrad",
        "name": "Момчилград",
        "name:de": "Momtschilgrad",
        "name:el": "Μομτσίλγκραντ",
        "name:en": "Momchilgrad",
        "name:tr": "Mestanlı",
        "place": "town",
        "population": "8509",
        "postal_code": "6800",
        "source": "bgtopomaps",
        "wikidata": "Q405784",
        "wikipedia": "bg:Момчилград"
      },
      "geometry": {
        "type": "Point",
        "coordinates": [
          25.410891,
          41.5262935
        ]
      },
      "id": "node/7484642574"
    },
    {
      "type": "Feature",
      "properties": {
        "@id": "node/7507640326",
        "addr:postcode": "8500",
        "ekatte": "00151",
        "int_name": "Aytos",
        "name": "Айтос",
        "name:bg": "Айтос",
        "name:de": "Ajtos",
        "name:el": "Άιτος",
        "name:en": "Aytos",
        "name:es": "Aytos",
        "name:fr": "Aïtos",
        "name:hr": "Ajtos",
        "name:it": "Ajtos",
        "name:mk": "Ајтос",
        "name:pl": "Ajtos",
        "name:ro": "Aitos",
        "name:tr": "Aydos",
        "place": "town",
        "population": "19615",
        "wikidata": "Q275178",
        "wikipedia": "en:Aytos"
      },
      "geometry": {
        "type": "Point",
        "coordinates": [
          27.2520386,
          42.7018865
        ]
      },
      "id": "node/7507640326"
    }
  ]
}