{
  "type": "FeatureCollection",
  "generator": "overpass-turbo",
  "copyright": "The data included in this document is from www.openstreetmap.org. The data is made available under ODbL.",
  "timestamp": "2023-12-16T17:01:45Z",
  "features": [
    {
      "type": "Feature",
      "properties": {
        "@id": "node/29098860",
        "admin_level": "6",
        "alt_name:el": "Φιούμε",
        "alt_name:fa": "ریْ یِکا",
        "alt_name:hy": "Ֆիումե",
        "alt_name:ja": "フューメ",
        "alt_name:la": "Tarsaticum;Tharsatica;Tharsaticum;Vitopolis;Flumen;Fanum Sancti Viti;Flumen Sancti Viti;Fanum Sancti Viti Fluminiensis;Flumaria;Tarte;Tersatica",
        "alt_name:mk": "Фјуме",
        "alt_name:th": "ฟียูเม",
        "capital": "6",
        "name": "Rijeka",
        "name:ar": "رييكا",
        "name:az": "Riyeka",
        "name:be": "Рыека",
        "name:bg": "Риека",
        "name:ce": "Риека",
        "name:ckb": "ڕیێکا",
        "name:cv": "Риека",
        "name:de": "Rijeka",
        "name:el": "Ριέκα",
        "name:fa": "رییکا",
        "name:he": "רייקה",
        "name:hu": "Fiume",
        "name:hy": "Ռիեկա",
        "name:it": "Fiume",
        "name:ja": "リエカ",
        "name:ka": "რიეკა",
        "name:ko": "리예카",
        "name:la": "Tarsatica",
        "name:lij": "Sciùmme",
        "name:lt": "Rijeka",
        "name:mk": "Риека",
        "name:mr": "रियेका",
        "name:os": "Риекæ",
        "name:ru": "Риека",
        "name:rue": "Риека",
        "name:sl": "Reka",
        "name:sr": "Ријека",
        "name:th": "ริเยกา",
        "name:tt": "Риека",
        "name:uk": "Рієка",
        "name:ur": "ریئکا",
        "name:uz": "Riyeka",
        "name:vec": "Fiume",
        "name:vep": "Rijek",
        "name:wuu": "里耶卡",
        "name:xmf": "რიეკა",
        "name:yue": "里耶卡",
        "name:zh": "里耶卡",
        "old_name:de": "Sankt Veit am Flaum",
        "old_name:la": "Tarsatica",
        "place": "city",
        "population": "107964",
        "population:date": "2021-08-31",
        "postal_code": "51000",
        "ref:LOCODE": "HRRJK",
        "source:population": "DZS 2021",
        "website": "https://www.rijeka.hr/",
        "wikidata": "Q1647",
        "wikipedia": "hr:Rijeka"
      },
      "geometry": {
        "type": "Point",
        "coordinates": [
          14.442208,
          45.3267976
        ]
      },
      "id": "node/29098860"
    },
    {
      "type": "Feature",
      "properties": {
        "@id": "node/29909359",
        "alt_name:it": "Cittanova d'Istria",
        "alt_name:la": "Aemona;Civitas Nova;Emonia;Neapolis;Novetium;Novigradum",
        "name": "Novigrad",
        "name:ckb": "نۆڤیگراد",
        "name:de": "Novigrad",
        "name:fa": "نوی‌گراد",
        "name:hr": "Novigrad",
        "name:hu": "Novigrad",
        "name:hy": "Նովիգրադ",
        "name:it": "Cittanova",
        "name:ja": "ノヴィグラード",
        "name:ko": "노비그라드",
        "name:la": "Aemonia",
        "name:lt": "Novigradas",
        "name:mk": "Новиград",
        "name:ru": "Новиград",
        "name:sr": "Новиград",
        "name:uk": "Новиград",
        "name:vec": "Sitanova d'Istria",
        "name:zh-Hans": "诺维格勒",
        "name:zh-Hant": "諾維格勒",
        "official_name": "Novigrad - Cittanova",
        "old_name:de": "Neuenburg",
        "place": "town",
        "population": "2292",
        "population:date": "2021-08-31",
        "source:population": "DZS 2021",
        "website": "https://novigrad.hr/",
        "wikidata": "Q5395",
        "wikipedia": "hr:Novigrad"
      },
      "geometry": {
        "type": "Point",
        "coordinates": [
          13.565007,
          45.3165019
        ]
      },
      "id": "node/29909359"
    },
    {
      "type": "Feature",
      "properties": {
        "@id": "node/29909360",
        "alt_name:be": "Парэнца",
        "alt_name:el": "Παρέντσο",
        "alt_name:ja": "パレンツォ",
        "alt_name:la": "Parentina Civitas;Parentum",
        "alt_name:os": "Паренцо",
        "alt_name:ru": "Паренцо",
        "name": "Poreč",
        "name:ar": "بوريتش",
        "name:az": "Pоreç",
        "name:be": "Порач",
        "name:bg": "Пореч",
        "name:ckb": "پۆرێچ",
        "name:de": "Poreč",
        "name:el": "Πόρετς",
        "name:fa": "پرچ",
        "name:he": "פורץ'",
        "name:hr": "Poreč",
        "name:hy": "Պորեչ",
        "name:it": "Parenzo",
        "name:ja": "ポレッチ",
        "name:ko": "포레치",
        "name:la": "Parentium",
        "name:lt": "Porečas",
        "name:os": "Пореч",
        "name:ru": "Пореч",
        "name:sq": "Poreç",
        "name:sr": "Пореч",
        "name:uk": "Пореч",
        "name:vec": "Parenzo",
        "name:zh": "波雷奇",
        "official_name": "Poreč - Parenzo",
        "old_name:de": "Parenz",
        "place": "town",
        "population": "8841",
        "population:date": "2021-08-31",
        "source:population": "DZS 2021",
        "website": "http://www.porec.hr/",
        "wikidata": "Q5323",
        "wikipedia": "hr:Poreč"
      },
      "geometry": {
        "type": "Point",
        "coordinates": [
          13.5957333,
          45.2271961
        ]
      },
      "id": "node/29909360"
    },
    {
      "type": "Feature",
      "properties": {
        "@id": "node/29909361",
        "addr:postcode": "52210",
        "alt_name:la": "Arupinium;Arupenum;Mons Rubineus;Ruginium;Ruvinium;Castrum Rubini;Rubinum;Rubinium;Ruignum",
        "long_name:it": "Rovigno d'Istria",
        "name": "Rovinj",
        "name:ar": "روفينج",
        "name:be": "Ровінь",
        "name:bg": "Ровин",
        "name:de": "Rovinj",
        "name:el": "Ρόβινι",
        "name:es": "Roviño",
        "name:fa": "رووینی",
        "name:he": "רוביני",
        "name:hr": "Rovinj",
        "name:hu": "Rovinj",
        "name:hy": "Ռովին",
        "name:it": "Rovigno",
        "name:ja": "ロヴィニ",
        "name:ko": "로빈",
        "name:la": "Arupinum",
        "name:lt": "Rovinis",
        "name:os": "Ровинь",
        "name:ru": "Ровинь",
        "name:sq": "Rovinji",
        "name:sr": "Ровињ",
        "name:uk": "Ровінь",
        "name:vec": "Rovigno",
        "name:yue": "羅維尼",
        "name:zh-Hans": "罗维尼",
        "name:zh-Hant": "羅維尼",
        "official_name": "Rovinj - Rovigno",
        "old_name:de": "Ruwein",
        "old_name:la": "Arupinum",
        "place": "town",
        "population": "11629",
        "population:date": "2021-08-31",
        "source:population": "DZS 2021",
        "website": "https://www.rovinj-rovigno.hr/",
        "wikidata": "Q5316",
        "wikipedia": "hr:Rovinj"
      },
      "geometry": {
        "type": "Point",
        "coordinates": [
          13.6417282,
          45.0807411
        ]
      },
      "id": "node/29909361"
    },
    {
      "type": "Feature",
      "properties": {
        "@id": "node/52028687",
        "alt_name:la": "Tragurum;Tragyrium",
        "name": "Trogir",
        "name:ar": "تروغير",
        "name:be": "Трогір",
        "name:bg": "Трогир",
        "name:ckb": "ترۆگیر",
        "name:cs": "Trogir",
        "name:de": "Trau",
        "name:el": "Τρόγκιρ",
        "name:fa": "تروگیر",
        "name:grc": "Τραγούριον",
        "name:he": "טרוגיר",
        "name:hu": "Trau",
        "name:hy": "Տրոգիր",
        "name:it": "Traù",
        "name:ja": "トロギル",
        "name:ka": "ტროგირი",
        "name:ko": "트로기르",
        "name:la": "Tragurium",
        "name:lt": "Trogiras",
        "name:mk": "Трогир",
        "name:myv": "Трогир",
        "name:ru": "Трогир",
        "name:sr": "Трогир",
        "name:uk": "Трогір",
        "name:vec": "Traù",
        "name:zh-Hans": "特罗吉尔",
        "name:zh-Hant": "特羅吉爾",
        "place": "town",
        "population": "10107",
        "population:date": "2021-08-31",
        "source:population": "DZS 2021",
        "website": "https://trogir.hr/",
        "wikidata": "Q189161",
        "wikipedia": "hr:Trogir"
      },
      "geometry": {
        "type": "Point",
        "coordinates": [
          16.2497163,
          43.5164142
        ]
      },
      "id": "node/52028687"
    },
    {
      "type": "Feature",
      "properties": {
        "@id": "node/60648272",
        "alt_name:la": "Crepsa;Crexa",
        "name": "Cres",
        "name:ar": "كريس",
        "name:be": "Црэс",
        "name:bg": "Црес",
        "name:ckb": "تسرێس",
        "name:el": "Τσρες",
        "name:fa": "کرس",
        "name:he": "צרס",
        "name:hu": "Cres",
        "name:hy": "Ցրես",
        "name:it": "Cherso",
        "name:ja": "ツレス",
        "name:ka": "ცრესი",
        "name:ko": "츠레스",
        "name:la": "Chersum",
        "name:lt": "Cresas",
        "name:lv": "Cresa",
        "name:mk": "Црес",
        "name:ru": "Црес",
        "name:sr": "Црес",
        "name:uk": "Црес",
        "name:vec": "Cherso",
        "name:zh": "茨雷斯",
        "old_name:de": "Kersch",
        "place": "town",
        "population": "2185",
        "population:date": "2021-08-31",
        "source:population": "DZS 2021",
        "website": "https://www.cres.hr/",
        "wikidata": "Q13282",
        "wikipedia": "hr:Cres (grad)"
      },
      "geometry": {
        "type": "Point",
        "coordinates": [
          14.4079371,
          44.960346
        ]
      },
      "id": "node/60648272"
    },
    {
      "type": "Feature",
      "properties": {
        "@id": "node/60706661",
        "alt_name:hu": "Szádrév",
        "name": "Bakar",
        "name:ar": "باكار",
        "name:be": "Бакар",
        "name:ckb": "باکار",
        "name:fa": "باکار",
        "name:he": "באקאר",
        "name:hu": "Bakar",
        "name:hy": "Բակար",
        "name:it": "Buccari",
        "name:lt": "Bakaras",
        "name:ru": "Бакар",
        "name:sr": "Бакар",
        "name:uk": "Бакар",
        "name:vec": "Buccari",
        "name:zh-Hans": "巴卡尔",
        "name:zh-Hant": "巴卡爾",
        "place": "town",
        "population": "1187",
        "population:date": "2021-08-31",
        "source:population": "DZS 2021",
        "website": "https://www.bakar.hr/",
        "wikidata": "Q740324",
        "wikipedia": "hr:Bakar (grad)"
      },
      "geometry": {
        "type": "Point",
        "coordinates": [
          14.5346321,
          45.3066028
        ]
      },
      "id": "node/60706661"
    },
    {
      "type": "Feature",
      "properties": {
        "@id": "node/60706665",
        "name": "Opatija",
        "name:ar": "أوباتيا",
        "name:az": "Оpаtiya",
        "name:bg": "Опатия",
        "name:ckb": "ئۆپاتیا",
        "name:de": "Opatija",
        "name:fa": "اپاتیا",
        "name:he": "אופטיה",
        "name:hu": "Abbázia",
        "name:it": "Abbazia",
        "name:ja": "オパティヤ",
        "name:ko": "오파티야",
        "name:la": "Abbatia",
        "name:lt": "Opatija",
        "name:ps": "اوپاتيجا",
        "name:ru": "Опатия",
        "name:sah": "Опатия",
        "name:sr": "Опатија",
        "name:uk": "Опатія",
        "name:vec": "Abbazia",
        "name:zh-Hans": "奥帕蒂亚",
        "name:zh-Hant": "奥帕提雅",
        "old_name:de": "Sankt Jakobi",
        "place": "town",
        "population": "5701",
        "population:date": "2021-08-31",
        "source:population": "DZS 2021",
        "website": "https://opatija.hr/",
        "wikidata": "Q223353",
        "wikipedia": "hr:Opatija"
      },
      "geometry": {
        "type": "Point",
        "coordinates": [
          14.3067834,
          45.3349238
        ]
      },
      "id": "node/60706665"
    },
    {
      "type": "Feature",
      "properties": {
        "@id": "node/64412522",
        "name": "Mali Lošinj",
        "name:ar": "مالي لوسيني",
        "name:ckb": "مالی لۆشینی",
        "name:de": "Mali Lošinj",
        "name:fa": "مالی لشینی",
        "name:it": "Lussinpiccolo",
        "name:ja": "マリ・ロシニ",
        "name:ko": "말리로신",
        "name:la": "Lussinum Minus",
        "name:lt": "Mali Lošinis",
        "name:ru": "Мали-Лошинь",
        "name:sq": "Mali Loshinj",
        "name:sr": "Мали Лошињ",
        "name:uk": "Малий Лошинь",
        "name:vec": "Łusinpicoło",
        "name:zh": "小洛希尼",
        "old_name:de": "Klein-Lötzing",
        "place": "town",
        "population": "5561",
        "population:date": "2021-08-31",
        "source:population": "DZS 2021",
        "website": "https://www.mali-losinj.hr/",
        "wikidata": "Q397720",
        "wikipedia": "hr:Mali Lošinj"
      },
      "geometry": {
        "type": "Point",
        "coordinates": [
          14.4694111,
          44.5316056
        ]
      },
      "id": "node/64412522"
    },
    {
      "type": "Feature",
      "properties": {
        "@id": "node/73395399",
        "alt_name:la": "Aronia;Mucurum;Aronix;Mucrum;Macarum;Muicurum;Macarsca",
        "name": "Makarska",
        "name:ar": "ماكارسكا",
        "name:ba": "Макарска",
        "name:be": "Макарска",
        "name:bg": "Макарска",
        "name:ckb": "ماکارسکا",
        "name:el": "Μακάρσκα",
        "name:fa": "ماکارسکا",
        "name:hr": "Makarska",
        "name:hy": "Մակարսկա",
        "name:it": "Macarsca",
        "name:ja": "マカルスカ",
        "name:ko": "마카르스카",
        "name:la": "Muccurum",
        "name:lt": "Makarska",
        "name:mk": "Макарска",
        "name:myv": "Макарска",
        "name:ru": "Макарска",
        "name:sk": "Makarská",
        "name:sr": "Макарска",
        "name:sr-Latn": "Makarska",
        "name:uk": "Макарська",
        "name:vec": "Macarsca",
        "name:zh-Hans": "马卡尔斯卡",
        "name:zh-Hant": "馬卡爾斯卡",
        "place": "town",
        "population": "12809",
        "population:date": "2021-08-31",
        "source:population": "DZS 2021",
        "website": "https://makarska.hr/",
        "wikidata": "Q272009",
        "wikipedia": "hr:Makarska"
      },
      "geometry": {
        "type": "Point",
        "coordinates": [
          17.020242,
          43.2939756
        ]
      },
      "id": "node/73395399"
    },
    {
      "type": "Feature",
      "properties": {
        "@id": "node/87184260",
        "name": "Ogulin",
        "name:ar": "أوغولين",
        "name:bg": "Огулин",
        "name:ckb": "ئۆگولین",
        "name:fa": "اگولین",
        "name:he": "אוגולין",
        "name:la": "Bivium",
        "name:lt": "Ogulinas",
        "name:ps": "اوګولين",
        "name:ru": "Огулин",
        "name:sr": "Огулин",
        "name:uk": "Огулин",
        "name:zh-Hans": "奥古林",
        "name:zh-Hant": "奧古林",
        "place": "town",
        "population": "7374",
        "population:date": "2021-08-31",
        "source:population": "DZS 2021",
        "website": "https://www.ogulin.hr/",
        "wikidata": "Q397372",
        "wikipedia": "hr:Ogulin"
      },
      "geometry": {
        "type": "Point",
        "coordinates": [
          15.2255172,
          45.2658579
        ]
      },
      "id": "node/87184260"
    },
    {
      "type": "Feature",
      "properties": {
        "@id": "node/91800068",
        "alt_name:la": "Arbia;Arbiana",
        "name": "Rab",
        "name:ar": "راب",
        "name:bg": "Раб",
        "name:ckb": "ڕاب",
        "name:el": "Ραμπ",
        "name:fa": "راب",
        "name:he": "ראב",
        "name:hy": "Ռաբ",
        "name:it": "Arbe",
        "name:ja": "ラブ",
        "name:ko": "라브",
        "name:la": "Arba",
        "name:lt": "Rabas",
        "name:lv": "Raba",
        "name:mk": "Раб",
        "name:ru": "Раб",
        "name:sr": "Раб",
        "name:uk": "Раб",
        "name:vec": "Arbe",
        "name:zh": "拉布",
        "place": "town",
        "population": "364",
        "population:date": "2021-08-31",
        "source:population": "DZS 2021",
        "website": "https://www.rab.hr/",
        "wikidata": "Q13279",
        "wikipedia": "hr:Rab (grad)"
      },
      "geometry": {
        "type": "Point",
        "coordinates": [
          14.7607367,
          44.7562894
        ]
      },
      "id": "node/91800068"
    },
    {
      "type": "Feature",
      "properties": {
        "@id": "node/247369379",
        "alt_name:la": "Vegium;Vegia;Curicum;Curictum",
        "name": "Krk",
        "name:be": "Крк",
        "name:bg": "Крък",
        "name:ckb": "کرک",
        "name:fa": "کرک",
        "name:it": "Veglia",
        "name:ko": "크르크",
        "name:la": "Vegla",
        "name:lt": "Krkas",
        "name:lv": "Krka",
        "name:ru": "Крк",
        "name:sr": "Крк",
        "name:uk": "Крк",
        "name:vec": "Veglia",
        "name:zh-Hans": "克尔克",
        "name:zh-Hant": "克爾克",
        "place": "town",
        "population": "3935",
        "population:date": "2021-08-31",
        "source:population": "DZS 2021",
        "website": "https://www.grad-krk.hr/",
        "wikidata": "Q13274",
        "wikipedia": "hr:Krk (grad)"
      },
      "geometry": {
        "type": "Point",
        "coordinates": [
          14.5752862,
          45.0269806
        ]
      },
      "id": "node/247369379"
    },
    {
      "type": "Feature",
      "properties": {
        "@id": "node/253901428",
        "alt_name:la": "Nouaia;Cissa;Gissa",
        "name": "Novalja",
        "name:ckb": "نۆڤالا",
        "name:fa": "نوالیا",
        "name:hy": "Նովալյա",
        "name:it": "Novaglia",
        "name:ja": "ノヴァリャ",
        "name:la": "Navalia",
        "name:lt": "Novalia",
        "name:ru": "Новаля",
        "name:sr": "Новаља",
        "name:uk": "Новаля",
        "name:vec": "Novaglia",
        "name:zh-Hans": "诺瓦利亚",
        "name:zh-Hant": "諾瓦利亞",
        "old_name:de": "Navala",
        "place": "town",
        "population": "2415",
        "population:date": "2021-08-31",
        "source:population": "DZS 2021",
        "website": "https://www.novalja.hr/",
        "wikidata": "Q396613",
        "wikipedia": "hr:Novalja"
      },
      "geometry": {
        "type": "Point",
        "coordinates": [
          14.884472,
          44.5561174
        ]
      },
      "id": "node/253901428"
    },
    {
      "type": "Feature",
      "properties": {
        "@id": "node/253924853",
        "admin_level": "6",
        "alt_name:ba": "Осийка",
        "alt_name:de": "Esseg",
        "alt_name:it": "Òssero",
        "alt_name:la": "Mursia;Essecium;Essekinum",
        "capital": "6",
        "is_in:country": "Croatia",
        "is_in:country_code": "HR",
        "is_in:county": "Osječko-baranjska",
        "name": "Osijek",
        "name:ar": "أوسييك",
        "name:ba": "Осиек",
        "name:be": "Осіек",
        "name:bg": "Осиек",
        "name:ce": "Осиек",
        "name:ckb": "ئۆسیێک",
        "name:de": "Osijek",
        "name:el": "Όσιγιεκ",
        "name:en": "Osijek",
        "name:es": "Osijek",
        "name:fa": "اوسییک",
        "name:fr": "Osijek",
        "name:he": "אוסייק",
        "name:hr": "Osijek",
        "name:hu": "Eszék",
        "name:hy": "Օսյեկ",
        "name:it": "Osijek",
        "name:ja": "オシエク",
        "name:ka": "ოსიეკი",
        "name:ko": "오시예크",
        "name:la": "Mursa",
        "name:lt": "Osijekas",
        "name:lv": "Osijeka",
        "name:mk": "Осиек",
        "name:os": "Осиек",
        "name:ru": "Осиек",
        "name:sr": "Осијек",
        "name:sr-Latn": "Osijek",
        "name:th": "ออซิเยก",
        "name:tt": "Осиек",
        "name:uk": "Осієк",
        "name:ur": "اوسیئک",
        "name:wuu": "奥西耶克",
        "name:xmf": "ოსიეკი",
        "name:yue": "奧西耶克",
        "name:zh-Hans": "奥西耶克",
        "name:zh-Hant": "奧西耶克",
        "old_name:de": "Essegg",
        "old_name:tr": "Ösek",
        "place": "city",
        "population": "75535",
        "population:date": "2021-08-31",
        "postal_code": "31000",
        "source:population": "DZS 2021",
        "website": "https://www.osijek.hr",
        "wikidata": "Q1640",
        "wikipedia": "hr:Osijek"
      },
      "geometry": {
        "type": "Point",
        "coordinates": [
          18.6953685,
          45.5548793
        ]
      },
      "id": "node/253924853"
    },
    {
      "type": "Feature",
      "properties": {
        "@id": "node/255611715",
        "addr:postcode": "52420",
        "alt_name:la": "Pinguentum;Castrum Piquentum",
        "name": "Buzet",
        "name:ckb": "بوزێت",
        "name:fa": "بوزت",
        "name:hr": "Buzet",
        "name:hu": "Buzet",
        "name:hy": "Բուզետ",
        "name:it": "Pinguente",
        "name:ja": "ブゼト",
        "name:la": "Piquentum",
        "name:lt": "Buzetas",
        "name:ru": "Бузет",
        "name:sr": "Бузет",
        "name:uk": "Бузет",
        "name:vec": "Pinguente",
        "name:zh-Hans": "布泽特",
        "name:zh-Hant": "布澤特",
        "old_name:de": "Pinquent",
        "place": "town",
        "population": "2339",
        "population:date": "2021-08-31",
        "source:population": "DZS 2021",
        "website": "https://www.buzet.hr/",
        "wikidata": "Q695767",
        "wikipedia": "hr:Buzet"
      },
      "geometry": {
        "type": "Point",
        "coordinates": [
          13.9655905,
          45.4078767
        ]
      },
      "id": "node/255611715"
    },
    {
      "type": "Feature",
      "properties": {
        "@id": "node/270442378",
        "alt_name:la": "Sibenicum",
        "capital": "6",
        "name": "Šibenik",
        "name:ar": "شيبينيك",
        "name:az": "Şibenik",
        "name:be": "Шыбенік",
        "name:bg": "Шибеник",
        "name:ce": "Шибеник",
        "name:ckb": "شیبێنیک",
        "name:el": "Σίμπενικ",
        "name:fa": "شیبنیک",
        "name:he": "שיבניק",
        "name:hu": "Szebenikó",
        "name:hy": "Շիբենիկ",
        "name:it": "Sebenico",
        "name:ja": "シベニク",
        "name:ka": "შიბენიკი",
        "name:ko": "시베니크",
        "name:la": "Sebenicum",
        "name:lmo": "Sebenico",
        "name:lt": "Šibenikas",
        "name:lv": "Šibenika",
        "name:mk": "Шибеник",
        "name:os": "Шибеник",
        "name:pl": "Szybenik",
        "name:ru": "Шибеник",
        "name:sq": "Shibeniku",
        "name:sr": "Шибеник",
        "name:th": "ชิเบนีก",
        "name:tt": "Шибеник",
        "name:uk": "Шибеник",
        "name:ur": "شیبینک",
        "name:vec": "Sebenego",
        "name:wuu": "希贝尼克",
        "name:zh-Hans": "希贝尼克",
        "name:zh-Hant": "希貝尼克",
        "old_name:de": "Sibenning",
        "place": "city",
        "population": "31115",
        "population:date": "2021-08-31",
        "source:population": "DZS 2021",
        "website": "https://www.sibenik.hr/",
        "wikidata": "Q3549",
        "wikipedia": "hr:Šibenik"
      },
      "geometry": {
        "type": "Point",
        "coordinates": [
          15.8941361,
          43.7343845
        ]
      },
      "id": "node/270442378"
    },
    {
      "type": "Feature",
      "properties": {
        "@id": "node/270442392",
        "name": "Vodice",
        "name:ar": "فودايس",
        "name:bg": "Водице",
        "name:ckb": "ڤۆدیتسێ",
        "name:fa": "ودیتسه",
        "name:it": "Vodizze",
        "name:ja": "ヴォディツェ",
        "name:ko": "보디체",
        "name:la": "Arausa",
        "name:lt": "Vodicės",
        "name:ru": "Водице",
        "name:sr": "Водице",
        "name:uk": "Водиці",
        "name:vec": "Vodizze",
        "name:zh": "沃迪采",
        "place": "town",
        "population": "6592",
        "population:date": "2021-08-31",
        "source:population": "DZS 2021",
        "website": "https://www.vodice.hr/hr/home",
        "wikidata": "Q750427",
        "wikipedia": "hr:Vodice"
      },
      "geometry": {
        "type": "Point",
        "coordinates": [
          15.7788084,
          43.7602196
        ]
      },
      "id": "node/270442392"
    },
    {
      "type": "Feature",
      "properties": {
        "@id": "node/270674121",
        "name": "Komiža",
        "name:be": "Коміжа",
        "name:bg": "Комижа",
        "name:ckb": "کۆمیژا",
        "name:fa": "کمیژا",
        "name:it": "Comisa",
        "name:ja": "コミジャ",
        "name:la": "Comisa",
        "name:ru": "Комижа",
        "name:sr": "Комижа",
        "name:uk": "Комижа",
        "name:vec": "Comisa",
        "name:zh": "科米扎",
        "place": "town",
        "population": "1261",
        "population:date": "2021-08-31",
        "source:population": "DZS 2021",
        "wikidata": "Q396590",
        "wikipedia": "hr:Komiža"
      },
      "geometry": {
        "type": "Point",
        "coordinates": [
          16.090491,
          43.044573
        ]
      },
      "id": "node/270674121"
    },
    {
      "type": "Feature",
      "properties": {
        "@id": "node/279245687",
        "alt_name:hu": "Tengerfehérvár",
        "alt_name:la": "Alba;Alba Maritima;Belligradum;Blandona;Blanona;Iadera Vetus;Iader Vetus",
        "name": "Biograd na Moru",
        "name:bg": "Биоград на Мору",
        "name:ckb": "بیۆگراد نا مۆرو",
        "name:de": "Biograd na Moru",
        "name:fa": "بیوگراد نا مرو",
        "name:hy": "Բիոգրադ նա Մորու",
        "name:it": "Zaravecchia",
        "name:ja": "ビオグラード・ナ・モル",
        "name:ko": "비오그라드나모루",
        "name:la": "Alba Maris",
        "name:lt": "Pajūrio Biogradas",
        "name:mk": "Биоград на Море",
        "name:ru": "Биоград-на-Мору",
        "name:sr": "Биоград на Мору",
        "name:uk": "Біоград-на-Мору",
        "name:ur": "بیوگراد نا مورو",
        "name:vec": "Zaravecia",
        "name:zh-Hans": "比奥格勒纳莫鲁",
        "name:zh-Hant": "比奧格勒納莫魯",
        "old_name:de": "Weißenburg",
        "place": "town",
        "population": "5601",
        "population:date": "2021-08-31",
        "source:population": "DZS 2021",
        "website": "https://www.biogradnamoru.hr/hr/",
        "wikidata": "Q399139",
        "wikipedia": "hr:Biograd na Moru"
      },
      "geometry": {
        "type": "Point",
        "coordinates": [
          15.4477635,
          43.9377147
        ]
      },
      "id": "node/279245687"
    },
    {
      "type": "Feature",
      "properties": {
        "@id": "node/285925154",
        "alt_name:la": "Civitas Vetus Pharensis",
        "alt_name:ru": "Стариград",
        "loc_name": "Paiz",
        "name": "Stari Grad",
        "name:be": "Стары Град",
        "name:bg": "Стари Град",
        "name:ckb": "ستاری گراد",
        "name:fa": "ستاری گراد",
        "name:he": "סטארי גראד",
        "name:it": "Cittavecchia",
        "name:ja": "スタリー・グラード",
        "name:ko": "스타리그라드",
        "name:la": "Civitas Vetus",
        "name:mk": "Стари Град",
        "name:ru": "Стари-Град",
        "name:sl": "Stari Grad",
        "name:sr": "Стари Град",
        "name:uk": "Старий Град",
        "name:vec": "Cittavecchia",
        "name:zh": "斯塔里格勒",
        "old_name": "Faros",
        "place": "town",
        "population": "1921",
        "population:date": "2021-08-31",
        "source:population": "DZS 2021",
        "website": "https://www.stari-grad.hr/",
        "wikidata": "Q220383",
        "wikipedia": "hr:Stari Grad"
      },
      "geometry": {
        "type": "Point",
        "coordinates": [
          16.5990028,
          43.184144
        ]
      },
      "id": "node/285925154"
    },
    {
      "type": "Feature",
      "properties": {
        "@id": "node/287126294",
        "alt_name:la": "Vicus Federici",
        "name": "Nova Gradiška",
        "name:ar": "نوفا غراديسكا",
        "name:bg": "Нова Градишка",
        "name:ckb": "نۆڤا گرادیشکا",
        "name:fa": "نوا گرادیشکا",
        "name:he": "נובה גראדישקה",
        "name:hu": "Újgradiska",
        "name:ja": "ノヴァ・グラディシュカ",
        "name:ko": "노바그라디슈카",
        "name:la": "Gradisca Nova",
        "name:mk": "Нова Градишка",
        "name:ru": "Нова-Градишка",
        "name:sq": "Nova Gradishka",
        "name:sr": "Нова Градишка",
        "name:uk": "Нова Градишка",
        "name:zh": "新格拉迪什卡",
        "old_name:de": "Friedrichsdorf;Neu-Gradischka",
        "place": "town",
        "population": "9820",
        "population:date": "2021-08-31",
        "source:population": "DZS 2021",
        "website": "https://novagradiska.hr/",
        "wikidata": "Q58342",
        "wikipedia": "hr:Nova Gradiška"
      },
      "geometry": {
        "type": "Point",
        "coordinates": [
          17.3826861,
          45.2599175
        ]
      },
      "id": "node/287126294"
    },
    {
      "type": "Feature",
      "properties": {
        "@id": "node/290854348",
        "addr:postcode": "52220",
        "alt_name:la": "Alvona",
        "name": "Labin",
        "name:ar": "لابين",
        "name:be": "Лабін",
        "name:ckb": "لابین",
        "name:de": "Labin",
        "name:fa": "لابین",
        "name:hr": "Labin",
        "name:hy": "Լաբինա",
        "name:it": "Albona",
        "name:ko": "라빈",
        "name:la": "Albona",
        "name:ps": "لابين",
        "name:ru": "Лабин",
        "name:sr": "Лабин",
        "name:uk": "Лабин",
        "name:ur": "لابین",
        "name:vec": "Albona",
        "name:zh-Hans": "拉宾",
        "name:zh-Hant": "拉賓",
        "old_name:de": "Tüberg",
        "place": "town",
        "population": "5806",
        "population:date": "2021-08-31",
        "source:population": "DZS 2021",
        "website": "http://www.labin.hr/",
        "wikidata": "Q375582",
        "wikipedia": "hr:Labin"
      },
      "geometry": {
        "type": "Point",
        "coordinates": [
          14.1236014,
          45.0913954
        ]
      },
      "id": "node/290854348"
    },
    {
      "type": "Feature",
      "properties": {
        "@id": "node/307686225",
        "name": "Kutina",
        "name:ckb": "کوتینا",
        "name:fa": "کوتینا",
        "name:he": "קוטינה",
        "name:hu": "Kutenya",
        "name:ja": "クティナ",
        "name:ko": "쿠티나",
        "name:ps": "کوتينا",
        "name:ru": "Кутина",
        "name:sr": "Кутина",
        "name:uk": "Кутина",
        "name:zh-Hans": "库蒂纳",
        "name:zh-Hant": "庫蒂納",
        "place": "town",
        "population": "12012",
        "population:date": "2021-08-31",
        "source:population": "DZS 2021",
        "website": "https://www.kutina.hr/",
        "wikidata": "Q396536",
        "wikipedia": "hr:Kutina"
      },
      "geometry": {
        "type": "Point",
        "coordinates": [
          16.7755908,
          45.483097
        ]
      },
      "id": "node/307686225"
    },
    {
      "type": "Feature",
      "properties": {
        "@id": "node/311142091",
        "name": "Valpovo",
        "name:ar": "فالبوفو",
        "name:ckb": "والپۆڤۆ",
        "name:fa": "واپوو",
        "name:he": "ואלפובו",
        "name:hu": "Valpó",
        "name:hy": "Վալպովո",
        "name:ja": "ヴァルポヴォ",
        "name:mk": "Валпово",
        "name:ru": "Валпово",
        "name:sr": "Валпово",
        "name:uk": "Валпово",
        "name:zh-Hans": "瓦尔波沃",
        "name:zh-Hant": "瓦爾波沃",
        "old_name:de": "Walpach",
        "place": "town",
        "population": "6332",
        "population:date": "2021-08-31",
        "source:population": "DZS 2021",
        "website": "https://valpovo.hr/",
        "wikidata": "Q830300",
        "wikipedia": "hr:Valpovo"
      },
      "geometry": {
        "type": "Point",
        "coordinates": [
          18.4178848,
          45.659128
        ]
      },
      "id": "node/311142091"
    },
    {
      "type": "Feature",
      "properties": {
        "@id": "node/311142607",
        "name": "Belišće",
        "name:ckb": "بێلیشچێ",
        "name:fa": "بلیشچه",
        "name:hu": "Belistye",
        "name:hy": "Բելիշցե",
        "name:ko": "벨리슈체",
        "name:lt": "Beliščė",
        "name:mk": "Белишќе",
        "name:ps": "بلیشچه",
        "name:ru": "Белишче",
        "name:sr": "Белишће",
        "name:uk": "Белище",
        "name:zh-Hans": "贝利什切",
        "name:zh-Hant": "貝利什切",
        "place": "town",
        "population": "5354",
        "population:date": "2021-08-31",
        "source:population": "DZS 2021",
        "website": "https://belisce.hr/",
        "wikidata": "Q399038",
        "wikipedia": "hr:Belišće"
      },
      "geometry": {
        "type": "Point",
        "coordinates": [
          18.4063613,
          45.6830916
        ]
      },
      "id": "node/311142607"
    },
    {
      "type": "Feature",
      "properties": {
        "@id": "node/311143614",
        "name": "Donji Miholjac",
        "name:ckb": "دۆنیی میخۆلاتس",
        "name:fa": "دنیی میخولیاتس",
        "name:he": "דוני מיכוליאץ",
        "name:hu": "Alsómiholjác",
        "name:ja": "ドニ・ミホリャツ",
        "name:mk": "Долен Михољац",
        "name:ru": "Дони-Михоляц",
        "name:sq": "Donji Miholac",
        "name:sr": "Доњи Михољац",
        "name:uk": "Доній Михоляць",
        "name:zh-Hans": "下米霍利亚茨",
        "name:zh-Hant": "下米霍利亞茨",
        "old_name:de": "Unter-Miholtz",
        "old_name:hu": "Szentmihály",
        "place": "town",
        "population": "5330",
        "population:date": "2021-08-31",
        "source:population": "DZS 2021",
        "website": "https://www.donjimiholjac.hr/",
        "wikidata": "Q399261",
        "wikipedia": "hr:Donji Miholjac"
      },
      "geometry": {
        "type": "Point",
        "coordinates": [
          18.1652043,
          45.7607956
        ]
      },
      "id": "node/311143614"
    },
    {
      "type": "Feature",
      "properties": {
        "@id": "node/311292989",
        "alt_name:la": "Corcyra Nigra",
        "name": "Korčula",
        "name:ar": "كورتشولا",
        "name:az": "Kоrçulа",
        "name:be": "Корчула",
        "name:bg": "Корчула",
        "name:ckb": "کۆرچولا",
        "name:el": "Κόρτσουλα",
        "name:fa": "کرچولا",
        "name:grc": "Μαύρη Κέρκυρα",
        "name:hy": "Կորչուլա",
        "name:it": "Curzola",
        "name:ja": "コルチュラ",
        "name:ko": "코르출라",
        "name:la": "Cursola",
        "name:mk": "Корчула",
        "name:os": "Корчулæ",
        "name:ru": "Корчула",
        "name:sq": "Korçula",
        "name:sr": "Корчула",
        "name:uk": "Корчула",
        "name:vec": "Curzoła",
        "name:zh-Hans": "科尔丘拉",
        "name:zh-Hant": "科爾丘拉",
        "place": "town",
        "population": "2659",
        "population:date": "2021-08-31",
        "source:population": "DZS 2021",
        "website": "https://www.korcula.hr/",
        "wikidata": "Q13289",
        "wikipedia": "hr:Korčula (grad)"
      },
      "geometry": {
        "type": "Point",
        "coordinates": [
          17.135536,
          42.9606695
        ]
      },
      "id": "node/311292989"
    },
    {
      "type": "Feature",
      "properties": {
        "@id": "node/321587549",
        "name": "Našice",
        "name:az": "Nаşiçе",
        "name:bg": "Нашице",
        "name:ckb": "ناشیتسێ",
        "name:fa": "ناشیتسه",
        "name:he": "נאשיצה",
        "name:hu": "Nekcse",
        "name:ko": "나시체",
        "name:mk": "Нашице",
        "name:ru": "Нашице",
        "name:sq": "Nashice",
        "name:sr": "Нашице",
        "name:uk": "Нашиці",
        "name:zh-Hans": "纳希采",
        "name:zh-Hant": "納希采",
        "old_name:de": "Naschitz",
        "place": "town",
        "population": "7307",
        "population:date": "2021-08-31",
        "postal_code": "31500",
        "source:population": "DZS 2021",
        "website": "https://nasice.hr/",
        "wikidata": "Q397652",
        "wikipedia": "hr:Našice"
      },
      "geometry": {
        "type": "Point",
        "coordinates": [
          18.0938075,
          45.4907759
        ]
      },
      "id": "node/321587549"
    },
    {
      "type": "Feature",
      "properties": {
        "@id": "node/330369640",
        "name": "Velika Gorica",
        "name:ar": "فليكا غوريسا",
        "name:bg": "Велика Горица",
        "name:ckb": "ڤێلیکا گۆریتسا",
        "name:fa": "ولیکا گوریتسا",
        "name:hu": "Nagygorica",
        "name:hy": "Վելիկա Գորիցա",
        "name:ja": "ヴェリカ・ゴリツァ",
        "name:ko": "벨리카고리차",
        "name:mk": "Велика Горица",
        "name:ru": "Велика-Горица",
        "name:sr": "Велика Горица",
        "name:uk": "Велика Гориця",
        "name:ur": "ویلیکا گوریتسا",
        "name:zh": "大戈里察",
        "place": "town",
        "population": "30036",
        "population:date": "2021-08-31",
        "source:population": "DZS 2021",
        "wikidata": "Q331141",
        "wikipedia": "hr:Velika Gorica"
      },
      "geometry": {
        "type": "Point",
        "coordinates": [
          16.0717164,
          45.7155672
        ]
      },
      "id": "node/330369640"
    },
    {
      "type": "Feature",
      "properties": {
        "@id": "node/341465590",
        "alt_name:la": "Bibium;Carlostadium;Carolopolis;Romula",
        "capital": "6",
        "name": "Karlovac",
        "name:ar": "كارلوفاتش",
        "name:az": "Kаrlоvаç",
        "name:be": "Карлавац",
        "name:bg": "Карловац",
        "name:ce": "Карловац",
        "name:ckb": "کارلۆڤاتس",
        "name:de": "Karlovac",
        "name:el": "Κάρλοβατς",
        "name:fa": "کارلواتس",
        "name:he": "קרלובץ",
        "name:hu": "Károlyváros",
        "name:hy": "Կարլովաց",
        "name:it": "Carlovizza",
        "name:ja": "カルロヴァツ",
        "name:ka": "კარლოვაცი",
        "name:ko": "카를로바츠",
        "name:la": "Carolostadium",
        "name:lt": "Karlovacas",
        "name:lv": "Karlovaca",
        "name:mk": "Карловац",
        "name:os": "Карловац",
        "name:ru": "Карловац",
        "name:sk": "Karlovec",
        "name:sl": "Karlovec",
        "name:sr": "Карловац",
        "name:th": "การ์ลอวัตส์",
        "name:tt": "Карловац",
        "name:uk": "Карловаць",
        "name:ur": "کارلوواتس",
        "name:wuu": "卡尔洛瓦茨",
        "name:zh-Hans": "卡尔洛瓦茨",
        "name:zh-Hant": "卡爾洛瓦茨",
        "old_name:de": "Karlstadt",
        "place": "city",
        "population": "41869",
        "population:date": "2021-08-31",
        "source:population": "DZS 2021",
        "website": "https://www.karlovac.hr/",
        "wikidata": "Q3617",
        "wikipedia": "hr:Karlovac"
      },
      "geometry": {
        "type": "Point",
        "coordinates": [
          15.5486303,
          45.4892522
        ]
      },
      "id": "node/341465590"
    },
    {
      "type": "Feature",
      "properties": {
        "@id": "node/341466732",
        "name": "Duga Resa",
        "name:be": "Дуга-Рэса",
        "name:ckb": "دوگا ڕێسا",
        "name:fa": "دوگا رسا",
        "name:hu": "Duga Resa",
        "name:hy": "Դուգա Ռեսա",
        "name:ru": "Дуга-Реса",
        "name:sr": "Дуга Реса",
        "name:uk": "Дуга Реса",
        "name:zh-Hans": "杜加雷萨",
        "name:zh-Hant": "杜加雷薩",
        "place": "town",
        "population": "5380",
        "population:date": "2021-08-31",
        "source:population": "DZS 2021",
        "website": "https://dugaresa.hr/",
        "wikidata": "Q396482",
        "wikipedia": "hr:Duga Resa"
      },
      "geometry": {
        "type": "Point",
        "coordinates": [
          15.4976858,
          45.4478475
        ]
      },
      "id": "node/341466732"
    },
    {
      "type": "Feature",
      "properties": {
        "@id": "node/341469076",
        "addr:postcode": "10450",
        "name": "Jastrebarsko",
        "name:ckb": "یاسترێبارسکۆ",
        "name:fa": "یاستربارسکو",
        "name:hu": "Jasztrebarszka",
        "name:ru": "Ястребарско",
        "name:sr": "Јастребарско",
        "name:uk": "Ястребарсько",
        "name:ur": "جستربرسکو",
        "name:zh-Hans": "亚斯特雷巴斯科",
        "name:zh-Hant": "亞斯特雷巴斯科",
        "place": "town",
        "population": "5312",
        "population:date": "2021-08-31",
        "short_name": "Jaska",
        "source:population": "DZS 2021",
        "website": "https://www.jastrebarsko.hr/",
        "wikidata": "Q396491",
        "wikipedia": "hr:Jastrebarsko"
      },
      "geometry": {
        "type": "Point",
        "coordinates": [
          15.6503971,
          45.6716895
        ]
      },
      "id": "node/341469076"
    },
    {
      "type": "Feature",
      "properties": {
        "@id": "node/341477322",
        "name": "Senj",
        "name:be": "Сень",
        "name:bg": "Сен",
        "name:ckb": "سێنی",
        "name:de": "Senj",
        "name:fa": "سنی",
        "name:hu": "Zengg",
        "name:hy": "Սեն",
        "name:it": "Segna",
        "name:ja": "セニ",
        "name:ko": "센",
        "name:la": "Senia",
        "name:lt": "Senis",
        "name:ru": "Сень",
        "name:sr": "Сењ",
        "name:uk": "Сень",
        "name:ur": "سینی",
        "name:vec": "Segna",
        "name:zh": "塞尼",
        "old_name:de": "Zengg",
        "place": "town",
        "population": "4614",
        "population:date": "2021-08-31",
        "source:population": "DZS 2021",
        "website": "https://www.senj.hr/",
        "wikidata": "Q259466",
        "wikipedia": "hr:Senj"
      },
      "geometry": {
        "type": "Point",
        "coordinates": [
          14.9021159,
          44.9901533
        ]
      },
      "id": "node/341477322"
    },
    {
      "type": "Feature",
      "properties": {
        "@id": "node/343592046",
        "alt_name:de": "Wukowar",
        "alt_name:hu": "Valkóvár",
        "capital": "6",
        "name": "Vukovar",
        "name:ar": "فوكوفار",
        "name:az": "Vуkоvаr",
        "name:be": "Вукавар",
        "name:bg": "Вуковар",
        "name:bs": "Vukovar",
        "name:ce": "Вуковар",
        "name:ckb": "ڤوکۆڤار",
        "name:de": "Vukovar",
        "name:el": "Βούκοβαρ",
        "name:en": "Vukovar",
        "name:fa": "ووکوار",
        "name:he": "ווקובאר",
        "name:hr": "Vukovar",
        "name:hu": "Vukovár",
        "name:ja": "ヴコヴァル",
        "name:ka": "ვუკოვარი",
        "name:ko": "부코바르",
        "name:la": "Cornacum",
        "name:lt": "Vukovaras",
        "name:lv": "Vukovara",
        "name:mk": "Вуковар",
        "name:ps": "واکو وار",
        "name:ru": "Вуковар",
        "name:sr": "Вуковар",
        "name:sr-Latn": "Vukovar",
        "name:th": "วูกอวาร์",
        "name:uk": "Вуковар",
        "name:ur": "ووکووار",
        "name:wuu": "武科瓦尔",
        "name:zh-Hans": "武科瓦尔",
        "name:zh-Hant": "武科瓦爾",
        "old_name:de": "Wukowar",
        "place": "town",
        "population": "22255",
        "population:date": "2021-08-31",
        "source:population": "DZS 2021",
        "website": "https://www.vukovar.hr/",
        "wikidata": "Q5867",
        "wikipedia": "hr:Vukovar"
      },
      "geometry": {
        "type": "Point",
        "coordinates": [
          19.002376,
          45.3444094
        ]
      },
      "id": "node/343592046"
    },
    {
      "type": "Feature",
      "properties": {
        "@id": "node/343645893",
        "alt_name:la": "Aqua Viva;Opsara",
        "capital": "6",
        "name": "Varaždin",
        "name:ar": "فارازدين",
        "name:ba": "Вараждин",
        "name:be": "Вараждзін",
        "name:bg": "Вараждин",
        "name:ce": "Вараждин",
        "name:ckb": "ڤاراژدین",
        "name:cs": "Varaždín",
        "name:de": "Varaždin",
        "name:el": "Βάραζντιν",
        "name:fa": "واراژدین",
        "name:he": "ואראז'דין",
        "name:hu": "Varasd",
        "name:hy": "Վարաժդին",
        "name:it": "Varasdino",
        "name:ja": "ヴァラジュディン",
        "name:ka": "ვარაჟდინი",
        "name:ko": "바라주딘",
        "name:la": "Varasdinum",
        "name:lmo": "Varasdin",
        "name:lt": "Varaždinas",
        "name:lv": "Varaždina",
        "name:mdf": "Вараждин",
        "name:mk": "Вараждин",
        "name:nl": "Varaždin",
        "name:os": "Вараждин",
        "name:ru": "Вараждин",
        "name:sk": "Varaždín",
        "name:sq": "Varazhdin",
        "name:sr": "Вараждин",
        "name:tt": "Вараждин",
        "name:uk": "Вараждин",
        "name:ur": "واراژدن",
        "name:wuu": "瓦拉日丁",
        "name:zh": "瓦拉日丁",
        "old_name:de": "Warasdin",
        "place": "city",
        "population": "36187",
        "population:date": "2021-08-31",
        "source:population": "DZS 2021",
        "website": "https://www.varazdin.hr/",
        "wikidata": "Q5420",
        "wikipedia": "hr:Varaždin"
      },
      "geometry": {
        "type": "Point",
        "coordinates": [
          16.3378198,
          46.3079645
        ]
      },
      "id": "node/343645893"
    },
    {
      "type": "Feature",
      "properties": {
        "@id": "node/361131103",
        "alt_name:it": "Metcovich",
        "alt_name:la": "Metchovich;Portus Narentinus;Portus Narentanus",
        "name": "Metković",
        "name:ar": "ميتكوفيتش",
        "name:az": "Mеtkоviç",
        "name:be": "Меткавіч",
        "name:bg": "Меткович",
        "name:bs": "Metković",
        "name:ckb": "مێتکۆڤیچ",
        "name:el": "Μέτκοβιτς",
        "name:fa": "متکویچ",
        "name:hr": "Metković",
        "name:hy": "Մետկովիչ",
        "name:it": "Metković",
        "name:ja": "メトコヴィチ",
        "name:ko": "메트코비치",
        "name:la": "Portus Narentae",
        "name:lt": "Metkovičius",
        "name:mk": "Метковиќ",
        "name:ru": "Меткович",
        "name:sr": "Метковић",
        "name:uk": "Меткович",
        "name:ur": "میتکوویچ",
        "name:zh-Hans": "梅特科维奇",
        "name:zh-Hant": "梅特科維奇",
        "old_name:it": "Porto Narenta",
        "place": "town",
        "population": "13971",
        "population:date": "2021-08-31",
        "source:population": "DZS 2021",
        "website": "https://www.metkovic.hr/",
        "wikidata": "Q390588",
        "wikipedia": "hr:Metković"
      },
      "geometry": {
        "type": "Point",
        "coordinates": [
          17.6499111,
          43.0535329
        ]
      },
      "id": "node/361131103"
    },
    {
      "type": "Feature",
      "properties": {
        "@id": "node/378034649",
        "alt_name:la": "Tininium;Tinum;Kninia;Ninia;Ticinium;Tinia;Tinien;Arbuda",
        "name": "Knin",
        "name:ar": "كنين",
        "name:be": "Кнін",
        "name:bg": "Книн",
        "name:ckb": "کنین",
        "name:fa": "کنین",
        "name:hy": "Կնին",
        "name:it": "Tenin",
        "name:ja": "クニン",
        "name:ko": "크닌",
        "name:la": "Tininum",
        "name:mk": "Книн",
        "name:mr": "क्निन",
        "name:os": "Книн",
        "name:ru": "Книн",
        "name:sr": "Книн",
        "name:th": "กนีน",
        "name:uk": "Книн",
        "name:ur": "کنین",
        "name:vec": "Tenin",
        "name:zh-Hans": "克宁",
        "name:zh-Hant": "克寧",
        "old_name:it": "Tennignana",
        "place": "town",
        "population": "10633",
        "population:date": "2011-03-31",
        "source:population": "DZS 2011",
        "wikidata": "Q208514",
        "wikipedia": "hr:Knin"
      },
      "geometry": {
        "type": "Point",
        "coordinates": [
          16.199433,
          44.04085
        ]
      },
      "id": "node/378034649"
    },
    {
      "type": "Feature",
      "properties": {
        "@id": "node/380412879",
        "name": "Čabar",
        "name:be": "Чабар",
        "name:ckb": "چابار",
        "name:fa": "چابار",
        "name:hu": "Čabar",
        "name:hy": "Չաբար",
        "name:ru": "Чабар",
        "name:sr": "Чабар",
        "name:uk": "Чабар",
        "name:zh-Hans": "查巴尔",
        "name:zh-Hant": "查巴爾",
        "old_name:it": "Concanera",
        "place": "town",
        "population": "325",
        "population:date": "2021-08-31",
        "source:population": "DZS 2021",
        "website": "https://www.cabar.hr/",
        "wikidata": "Q337394",
        "wikipedia": "hr:Čabar"
      },
      "geometry": {
        "type": "Point",
        "coordinates": [
          14.6464518,
          45.5962478
        ]
      },
      "id": "node/380412879"
    },
    {
      "type": "Feature",
      "properties": {
        "@id": "node/380538884",
        "name": "Novi Marof",
        "name:ar": "نوفي ماروف",
        "name:ckb": "نۆڤی مارۆف",
        "name:fa": "نوی مارف",
        "name:mk": "Нов Мароф",
        "name:ru": "Нови-Мароф",
        "name:sr": "Нови Мароф",
        "name:uk": "Новий Мароф",
        "name:zh-Hans": "新马罗夫",
        "name:zh-Hant": "新馬羅夫",
        "place": "town",
        "population": "1810",
        "population:date": "2021-08-31",
        "source:population": "DZS 2021",
        "website": "https://www.novi-marof.hr/",
        "wikidata": "Q741239",
        "wikipedia": "hr:Novi Marof"
      },
      "geometry": {
        "type": "Point",
        "coordinates": [
          16.3348602,
          46.1643817
        ]
      },
      "id": "node/380538884"
    },
    {
      "type": "Feature",
      "properties": {
        "@id": "node/392293867",
        "alt_name:la": "Verucia;Carrodunum",
        "capital": "6",
        "name": "Virovitica",
        "name:ar": "فيروفيتيكا",
        "name:az": "Virоvitiçа",
        "name:bg": "Вировитица",
        "name:ce": "Вировитица",
        "name:ckb": "ڤیرۆڤیتیتسا",
        "name:fa": "ویرویتیتسا",
        "name:he": "וירוביטיצה",
        "name:hu": "Verőce",
        "name:it": "Virovitica",
        "name:ja": "ヴィロヴィティツァ",
        "name:ka": "ვიროვიტიცა",
        "name:ko": "비로비티차",
        "name:la": "Viroviticza",
        "name:lt": "Virovitica",
        "name:mk": "Вировитица",
        "name:ru": "Вировитица",
        "name:sr": "Вировитица",
        "name:uk": "Вировитиця",
        "name:ur": "ویروسیتیتسا",
        "name:zh-Hans": "维罗维蒂察",
        "name:zh-Hant": "維羅維蒂察",
        "old_name:de": "Weretz",
        "place": "town",
        "population": "13486",
        "population:date": "2021-08-31",
        "postal_code": "33000",
        "source:population": "DZS 2021",
        "website": "https://www.virovitica.hr/",
        "wikidata": "Q266168",
        "wikipedia": "hr:Virovitica"
      },
      "geometry": {
        "type": "Point",
        "coordinates": [
          17.3853058,
          45.8331834
        ]
      },
      "id": "node/392293867"
    },
    {
      "type": "Feature",
      "properties": {
        "@id": "node/392314152",
        "name": "Orahovica",
        "name:ckb": "ئۆراخۆڤیتسا",
        "name:fa": "اراخویتسا",
        "name:hu": "Raholca",
        "name:mk": "Ораховица",
        "name:ru": "Ораховица",
        "name:sr": "Ораховица",
        "name:tr": "Rahoviçe",
        "name:uk": "Ораховиця",
        "name:zh-Hans": "奥拉霍维察",
        "name:zh-Hant": "奧拉霍維察",
        "place": "town",
        "population": "3384",
        "population:date": "2021-08-31",
        "source:population": "DZS 2021",
        "website": "https://www.orahovica.hr/",
        "wikidata": "Q397692",
        "wikipedia": "hr:Orahovica"
      },
      "geometry": {
        "type": "Point",
        "coordinates": [
          17.8795357,
          45.5294335
        ]
      },
      "id": "node/392314152"
    },
    {
      "type": "Feature",
      "properties": {
        "@id": "node/392314268",
        "name": "Kutjevo",
        "name:ckb": "کوتیێڤۆ",
        "name:fa": "کوتیوو",
        "name:mk": "Кутјево",
        "name:ru": "Кутьево",
        "name:sr": "Кутјево",
        "name:uk": "Кутєво",
        "name:zh-Hans": "库特耶沃",
        "name:zh-Hant": "庫特耶沃",
        "old_name:hu": "Gotó",
        "place": "town",
        "population": "1941",
        "population:date": "2021-08-31",
        "source:population": "DZS 2021",
        "website": "https://www.kutjevo.hr/",
        "wikidata": "Q398139",
        "wikipedia": "hr:Kutjevo"
      },
      "geometry": {
        "type": "Point",
        "coordinates": [
          17.8814373,
          45.4225074
        ]
      },
      "id": "node/392314268"
    },
    {
      "type": "Feature",
      "properties": {
        "@id": "node/408910962",
        "alt_name:la": "Silacum;Sissekum",
        "capital": "6",
        "name": "Sisak",
        "name:ar": "سيساك",
        "name:ba": "Сисак",
        "name:be": "Сісак",
        "name:bg": "Сисак",
        "name:ce": "Сисак",
        "name:ckb": "سیساک",
        "name:el": "Σίσακ",
        "name:fa": "سیساک",
        "name:he": "סיסאק",
        "name:hu": "Sziszek",
        "name:hy": "Սիսակ",
        "name:ja": "シサク",
        "name:ka": "სისაკი",
        "name:ko": "시사크",
        "name:la": "Siscia",
        "name:lt": "Sisakas",
        "name:mk": "Сисак",
        "name:pnb": "سیساک",
        "name:ru": "Сисак",
        "name:sl": "Sisek",
        "name:sr": "Сисак",
        "name:tr": "Siska",
        "name:uk": "Сисак",
        "name:ur": "سیساک",
        "name:zh-Hans": "锡萨克",
        "name:zh-Hant": "錫薩克",
        "old_name:de": "Sissek",
        "place": "city",
        "population": "27859",
        "population:date": "2021-08-31",
        "source:population": "DZS 2021",
        "website": "https://sisak.hr/",
        "wikidata": "Q192119",
        "wikipedia": "hr:Sisak"
      },
      "geometry": {
        "type": "Point",
        "coordinates": [
          16.374592,
          45.4891806
        ]
      },
      "id": "node/408910962"
    },
    {
      "type": "Feature",
      "properties": {
        "@id": "node/417180566",
        "alt_name:la": "Crisia",
        "name": "Križevci",
        "name:az": "Krijеvtsi",
        "name:bg": "Крижевци",
        "name:he": "קריז'בצי",
        "name:hu": "Kőrös",
        "name:hy": "Կրիժևցի",
        "name:ko": "크리제브치",
        "name:la": "Crisium",
        "name:mk": "Крижевци",
        "name:ru": "Крижевци",
        "name:rue": "Крижевци",
        "name:sq": "Krizhevci",
        "name:sr": "Крижевци",
        "name:uk": "Крижевці",
        "name:ur": "کریزیوتسی",
        "name:zh-Hans": "克里热夫齐",
        "name:zh-Hant": "克里熱夫齊",
        "old_name:de": "Kreutz",
        "place": "town",
        "population": "10522",
        "population:date": "2021-08-31",
        "source:population": "DZS 2021",
        "website": "https://krizevci.hr/",
        "wikidata": "Q5718",
        "wikipedia": "hr:Križevci"
      },
      "geometry": {
        "type": "Point",
        "coordinates": [
          16.5457794,
          46.0247391
        ]
      },
      "id": "node/417180566"
    },
    {
      "type": "Feature",
      "properties": {
        "@id": "node/418152207",
        "capital": "6",
        "name": "Koprivnica",
        "name:ar": "كوبريفنيتسا",
        "name:az": "Kоprivnitsа",
        "name:be": "Капрыўніца",
        "name:bg": "Копривница",
        "name:ce": "Копривница",
        "name:ckb": "کۆپریڤنیتسا",
        "name:fa": "کپریونیتسا",
        "name:he": "קופריבניצה",
        "name:hu": "Kapronca",
        "name:hy": "Կոպրիվնիցա",
        "name:ja": "コプリヴニツァ",
        "name:ka": "კოპრივნიცა",
        "name:ko": "코프리브니차",
        "name:la": "Copriunisa",
        "name:mk": "Копривница",
        "name:ru": "Копривница",
        "name:rue": "Копрівніця",
        "name:sr": "Копривница",
        "name:uk": "Копривниця",
        "name:ur": "کوپریونیتسا",
        "name:vep": "Koprivnic",
        "name:zh": "科普里夫尼察",
        "place": "town",
        "population": "22262",
        "population:date": "2021-08-31",
        "source:population": "DZS 2021",
        "website": "https://koprivnica.hr/",
        "wikidata": "Q5640",
        "wikipedia": "hr:Koprivnica"
      },
      "geometry": {
        "type": "Point",
        "coordinates": [
          16.8307893,
          46.1623512
        ]
      },
      "id": "node/418152207"
    },
    {
      "type": "Feature",
      "properties": {
        "@id": "node/418154802",
        "alt_name:la": "Fanum Sancti Georgii",
        "loc_name": "Đurđevec",
        "name": "Đurđevac",
        "name:ar": "دورديفاتش",
        "name:ckb": "دوردێڤاتس",
        "name:fa": "جوردواتس",
        "name:hr": "Đurđevac",
        "name:hu": "Szentgyörgyvár",
        "name:la": "Durdevacum",
        "name:lt": "Džurdževacas",
        "name:mk": "Ѓурѓевац",
        "name:ru": "Джюрджевац",
        "name:sq": "Gjurgjevac",
        "name:sr": "Ђурђевац",
        "name:uk": "Джурджеваць",
        "name:ur": "جورجیواتس",
        "name:zh-Hans": "久尔杰瓦茨",
        "name:zh-Hant": "久爾傑瓦茨",
        "old_name:de": "Sankt Georgwar",
        "place": "town",
        "population": "5834",
        "population:date": "2011-03-31",
        "source:population": "DZS 2011",
        "website": "https://djurdjevac.hr/",
        "wikidata": "Q342186",
        "wikipedia": "hr:Đurđevac"
      },
      "geometry": {
        "type": "Point",
        "coordinates": [
          17.0678562,
          46.0410468
        ]
      },
      "id": "node/418154802"
    },
    {
      "type": "Feature",
      "properties": {
        "@id": "node/419259175",
        "name": "Beli Manastir",
        "name:ckb": "بێلی ماناستیر",
        "name:de": "Beli Manastir",
        "name:fa": "بلی ماناستیر",
        "name:hu": "Pélmonostor",
        "name:hy": "Բելի Մանաստիր",
        "name:mk": "Бели Манастир",
        "name:ru": "Бели-Манастир",
        "name:sr": "Бели Манастир",
        "name:sr-Latn": "Beli Manastir",
        "name:uk": "Білий Манастир",
        "name:zh-Hans": "贝利马纳斯蒂尔",
        "name:zh-Hant": "貝利馬納斯蒂爾",
        "old_name:hu": "Baranyamonostor",
        "place": "town",
        "population": "6327",
        "population:date": "2021-08-31",
        "source:population": "DZS 2021",
        "website": "https://www.beli-manastir.hr/",
        "wikidata": "Q397645",
        "wikipedia": "hr:Beli Manastir"
      },
      "geometry": {
        "type": "Point",
        "coordinates": [
          18.6058278,
          45.7697026
        ]
      },
      "id": "node/419259175"
    },
    {
      "type": "Feature",
      "properties": {
        "@id": "node/427943443",
        "alt_name:it": "Forte Opuseo",
        "name": "Opuzen",
        "name:ar": "أوبزن",
        "name:ckb": "ئۆپوزێن",
        "name:de": "Opuzen",
        "name:fa": "اپوزن",
        "name:hr": "Opuzen",
        "name:hy": "Օպուզեն",
        "name:it": "Fort'Opus",
        "name:ja": "オプゼン",
        "name:la": "Castrum Opuseum",
        "name:lt": "Opuzenas",
        "name:ru": "Опузен",
        "name:sr": "Опузен",
        "name:uk": "Опузен",
        "name:vec": "Fort'Opus",
        "name:zh-Hans": "奥普曾",
        "name:zh-Hant": "奧普曾",
        "place": "town",
        "population": "2355",
        "population:date": "2021-08-31",
        "source:population": "DZS 2021",
        "website": "https://www.opuzen.hr/grad/",
        "wikidata": "Q396465",
        "wikipedia": "hr:Opuzen"
      },
      "geometry": {
        "type": "Point",
        "coordinates": [
          17.5635735,
          43.0170453
        ]
      },
      "id": "node/427943443"
    },
    {
      "type": "Feature",
      "properties": {
        "@id": "node/455570662",
        "alt_name:la": "Nona;Aenana;Aemona",
        "name": "Nin",
        "name:ar": "نين",
        "name:be": "Нін",
        "name:bg": "Нин",
        "name:ckb": "نین",
        "name:fa": "نین",
        "name:hy": "Նին",
        "name:it": "Nona",
        "name:ja": "ニン",
        "name:ko": "닌",
        "name:la": "Aenona",
        "name:mk": "Нин",
        "name:ru": "Нин",
        "name:sr": "Нин",
        "name:uk": "Нин",
        "name:ur": "نین",
        "name:vec": "Nona",
        "name:zh": "尼恩",
        "old_name:de": "Fleissenburg",
        "place": "town",
        "population": "1101",
        "population:date": "2021-08-31",
        "source:population": "DZS 2021",
        "website": "https://www.nin.hr/",
        "wikidata": "Q396372",
        "wikipedia": "hr:Nin"
      },
      "geometry": {
        "type": "Point",
        "coordinates": [
          15.1840255,
          44.2430736
        ]
      },
      "id": "node/455570662"
    },
    {
      "type": "Feature",
      "properties": {
        "@id": "node/457271122",
        "loc_name": "Prilok",
        "name": "Prelog",
        "name:ckb": "پرێلۆگ",
        "name:el": "Πρέλογκ",
        "name:fa": "پرلگ",
        "name:hu": "Perlak",
        "name:hy": "Պրելոգ",
        "name:la": "Perlacum",
        "name:mk": "Прелог",
        "name:ru": "Прелог",
        "name:sr": "Прелог",
        "name:uk": "Прелог",
        "name:zh": "普雷洛格",
        "place": "town",
        "population": "4042",
        "population:date": "2021-08-31",
        "source:population": "DZS 2021",
        "website": "https://www.prelog.hr/",
        "wikidata": "Q839783",
        "wikipedia": "hr:Prelog"
      },
      "geometry": {
        "type": "Point",
        "coordinates": [
          16.614794,
          46.3366064
        ]
      },
      "id": "node/457271122"
    },
    {
      "type": "Feature",
      "properties": {
        "@id": "node/463204318",
        "alt_name:cs": "Bělovár",
        "capital": "6",
        "name": "Bjelovar",
        "name:ar": "بيلوفار",
        "name:az": "Bеlоvаr",
        "name:be": "Б’елавар",
        "name:bg": "Беловар",
        "name:ce": "Беловар",
        "name:ckb": "بیێلۆڤار",
        "name:cs": "Bělovar",
        "name:de": "Bjelovar",
        "name:el": "Μπιέλοβαρ",
        "name:fa": "بیلوار",
        "name:he": "ביילובאר",
        "name:hu": "Belovár",
        "name:hy": "Բելովար",
        "name:ja": "ビェロヴァル",
        "name:ka": "ბელოვარი",
        "name:ko": "벨로바르",
        "name:la": "Bellovarium",
        "name:lt": "Bjelovaras",
        "name:lv": "Bjelovara",
        "name:mk": "Бјеловар",
        "name:ru": "Бьеловар",
        "name:sr": "Бјеловар",
        "name:uk": "Б'єловар",
        "name:ur": "بیئلووار",
        "name:wuu": "别洛瓦尔",
        "name:zh-Hans": "别洛瓦尔",
        "name:zh-Hant": "別洛瓦爾",
        "old_name:de": "Bellowar",
        "place": "city",
        "population": "24392",
        "population:date": "2021-08-31",
        "source:population": "DZS 2021",
        "website": "https://www.bjelovar.hr/",
        "wikidata": "Q5707",
        "wikipedia": "hr:Bjelovar"
      },
      "geometry": {
        "type": "Point",
        "coordinates": [
          16.8421977,
          45.8986869
        ]
      },
      "id": "node/463204318"
    },
    {
      "type": "Feature",
      "properties": {
        "@id": "node/466220873",
        "alt_name:hu": "Szlatina",
        "name": "Slatina",
        "name:ar": "سلاتينا",
        "name:ckb": "سلاتینا",
        "name:fa": "سلاتینا",
        "name:he": "סלאטינה",
        "name:hu": "Szalatnok",
        "name:mk": "Слатина",
        "name:ru": "Слатина",
        "name:sr": "Слатина",
        "name:uk": "Слатина",
        "name:zh-Hans": "斯拉蒂纳",
        "name:zh-Hant": "斯拉蒂納",
        "place": "town",
        "population": "8722",
        "population:date": "2021-08-31",
        "postal_code": "33520",
        "source:population": "DZS 2021",
        "website": "https://www.slatina.hr/portal/",
        "wikidata": "Q991263",
        "wikipedia": "hr:Slatina"
      },
      "geometry": {
        "type": "Point",
        "coordinates": [
          17.7016641,
          45.7014436
        ]
      },
      "id": "node/466220873"
    },
    {
      "type": "Feature",
      "properties": {
        "@id": "node/466257688",
        "name": "Županja",
        "name:bg": "Жупаня",
        "name:ckb": "ژوپانیا",
        "name:fa": "ژوپانیا",
        "name:hr": "Županja",
        "name:hu": "Zsupanya",
        "name:ja": "ジュパニャ",
        "name:ko": "주파나",
        "name:lt": "Župania",
        "name:mk": "Жупања",
        "name:ru": "Жупаня",
        "name:sq": "Zhupanja",
        "name:sr": "Жупања",
        "name:uk": "Жупаня",
        "name:zh-Hans": "茹帕尼亚",
        "name:zh-Hant": "茹帕尼亞",
        "place": "town",
        "population": "9153",
        "population:date": "2021-08-31",
        "source:population": "DZS 2021",
        "website": "https://zupanja.hr/",
        "wikidata": "Q394310",
        "wikipedia": "hr:Županja"
      },
      "geometry": {
        "type": "Point",
        "coordinates": [
          18.694355,
          45.0723677
        ]
      },
      "id": "node/466257688"
    },
    {
      "type": "Feature",
      "properties": {
        "@id": "node/467096090",
        "alt_name:it": "Verbosco",
        "name": "Vrbovsko",
        "name:ckb": "ڤربۆڤسکۆ",
        "name:cs": "Vrbovsko",
        "name:fa": "وربوسکو",
        "name:it": "Vrbovsko",
        "name:ja": "ヴルボヴスコ",
        "name:ko": "브르보브스코",
        "name:lt": "Vrbovskas",
        "name:mk": "Врбовско",
        "name:ru": "Врбовско",
        "name:sr": "Врбовско",
        "name:uk": "Врбовско",
        "name:zh-Hans": "弗尔博夫斯科",
        "name:zh-Hant": "弗爾博夫斯科",
        "place": "town",
        "population": "1257",
        "population:date": "2021-08-31",
        "source:population": "DZS 2021",
        "website": "https://www.vrbovsko.hr/",
        "wikidata": "Q396637",
        "wikipedia": "hr:Vrbovsko"
      },
      "geometry": {
        "type": "Point",
        "coordinates": [
          15.0781121,
          45.3740037
        ]
      },
      "id": "node/467096090"
    },
    {
      "type": "Feature",
      "properties": {
        "@id": "node/470922368",
        "name": "Ilok",
        "name:be": "Ілак",
        "name:ckb": "ئیلۆک",
        "name:fa": "ایلک",
        "name:he": "אילוק",
        "name:hu": "Újlak",
        "name:ja": "イロク",
        "name:mk": "Илок",
        "name:ru": "Илок",
        "name:sq": "Illok",
        "name:sr": "Илок",
        "name:tr": "Uyluk",
        "name:uk": "Ілок",
        "name:ur": "ایلوک",
        "name:zh": "伊洛克",
        "old_name:de": "Illok",
        "place": "town",
        "population": "3842",
        "population:date": "2021-08-31",
        "source:population": "DZS 2021",
        "website": "https://www.ilok.hr/",
        "wikidata": "Q5882",
        "wikipedia": "hr:Ilok"
      },
      "geometry": {
        "type": "Point",
        "coordinates": [
          19.3754013,
          45.2215817
        ]
      },
      "id": "node/470922368"
    },
    {
      "type": "Feature",
      "properties": {
        "@id": "node/480340577",
        "name": "Sveti Ivan Zelina",
        "name:ckb": "سڤێتی ایڤان زێلینا",
        "name:fa": "سوتی ایوان زلینا",
        "name:hu": "Szentivánzelina",
        "name:mk": "Свети Иван Зелина",
        "name:ru": "Свети-Иван-Зелина",
        "name:sr": "Свети Иван Зелина",
        "name:uk": "Светий Іван-Зелина",
        "name:zh-Hans": "圣伊万泽利纳",
        "name:zh-Hant": "聖伊萬澤利納",
        "place": "town",
        "population": "2583",
        "population:date": "2021-08-31",
        "source:population": "DZS 2021",
        "website": "https://www.zelina.hr/portal/",
        "wikidata": "Q253435",
        "wikipedia": "hr:Sveti Ivan Zelina"
      },
      "geometry": {
        "type": "Point",
        "coordinates": [
          16.2430907,
          45.9597876
        ]
      },
      "id": "node/480340577"
    },
    {
      "type": "Feature",
      "properties": {
        "@id": "node/481325259",
        "name": "Pleternica",
        "name:ckb": "پلێتێرنیتسا",
        "name:fa": "پلترنیتسا",
        "name:hu": "Pleterniceszentmiklós",
        "name:ja": "プレテルニツァ",
        "name:mk": "Плетерница",
        "name:ru": "Плетерница",
        "name:sq": "Plleternica",
        "name:sr": "Плетерница",
        "name:uk": "Плетерниця",
        "name:zh-Hans": "普莱泰尔尼察",
        "name:zh-Hant": "普萊泰爾尼察",
        "place": "town",
        "population": "2895",
        "population:date": "2021-08-31",
        "source:population": "DZS 2021",
        "website": "https://pleternica.hr/",
        "wikidata": "Q397633",
        "wikipedia": "hr:Pleternica"
      },
      "geometry": {
        "type": "Point",
        "coordinates": [
          17.8015103,
          45.2862978
        ]
      },
      "id": "node/481325259"
    },
    {
      "type": "Feature",
      "properties": {
        "@id": "node/491128983",
        "alt_name:hu": "Sziny",
        "alt_name:la": "Sinotium;Setovium;Soetovium;Setovia;Signum;Signa",
        "name": "Sinj",
        "name:bg": "Син",
        "name:ckb": "سینی",
        "name:fa": "سینی",
        "name:he": "סין",
        "name:hy": "Սին",
        "name:it": "Signo",
        "name:ja": "シニ",
        "name:ko": "신",
        "name:la": "Osinium",
        "name:mk": "Сињ",
        "name:ru": "Синь",
        "name:sr": "Сињ",
        "name:uk": "Синь",
        "name:vec": "Signo",
        "name:zh-Hans": "锡尼",
        "name:zh-Hant": "錫尼",
        "old_name:de": "Zein",
        "place": "town",
        "population": "10771",
        "population:date": "2021-08-31",
        "source:population": "DZS 2021",
        "website": "https://www.sinj.hr/",
        "wikidata": "Q216978",
        "wikipedia": "hr:Sinj"
      },
      "geometry": {
        "type": "Point",
        "coordinates": [
          16.6373401,
          43.7017312
        ]
      },
      "id": "node/491128983"
    },
    {
      "type": "Feature",
      "properties": {
        "@id": "node/496196527",
        "name": "Varaždinske Toplice",
        "name:ba": "Вараждинске-Топлице",
        "name:ckb": "ڤاراژدینسکێ تۆپلیتسێ",
        "name:fa": "واراژدینسکه تپلیتسه",
        "name:hu": "Varasdfürdő",
        "name:la": "Aquae Iasae",
        "name:mk": "Вараждинске Топлице",
        "name:ru": "Вараждинске-Топлице",
        "name:sr": "Вараждинске Топлице",
        "name:uk": "Вараждинське Топлиці",
        "name:zh": "瓦拉日丁托普利采",
        "old_name:de": "Warasdin-Töplitz",
        "place": "town",
        "population": "1606",
        "population:date": "2021-08-31",
        "source:population": "DZS 2021",
        "website": "http://www.varazdinske-toplice.hr/",
        "wikidata": "Q326962",
        "wikipedia": "hr:Varaždinske Toplice"
      },
      "geometry": {
        "type": "Point",
        "coordinates": [
          16.4211576,
          46.2092637
        ]
      },
      "id": "node/496196527"
    },
    {
      "type": "Feature",
      "properties": {
        "@id": "node/496932869",
        "name": "Popovača",
        "name:ru": "Поповача",
        "name:sq": "Popovaça",
        "name:sr": "Поповача",
        "name:uk": "Поповача",
        "place": "town",
        "population": "3633",
        "population:date": "2021-08-31",
        "postal_code": "44317",
        "source:population": "DZS 2021",
        "website": "https://www.popovaca.hr/",
        "wikidata": "Q2056085",
        "wikipedia": "hr:Popovača"
      },
      "geometry": {
        "type": "Point",
        "coordinates": [
          16.6271435,
          45.5710472
        ]
      },
      "id": "node/496932869"
    },
    {
      "type": "Feature",
      "properties": {
        "@id": "node/529132234",
        "alt_name:hu": "Szentnedele",
        "name": "Sveta Nedelja",
        "name:ckb": "سڤێتا نێدێلا",
        "name:fa": "سوتا ندلیا",
        "name:mk": "Света Недела",
        "name:ru": "Света-Неделя",
        "name:sr": "Света Недеља",
        "name:uk": "Света Неделя",
        "name:zh-Hans": "圣内德利亚",
        "name:zh-Hant": "聖內德利亞",
        "old_name": "Sveta Nedjelja",
        "old_name:sr": "Света Недјеља",
        "place": "town",
        "population": "1363",
        "population:date": "2021-08-31",
        "source:population": "DZS 2021",
        "website": "https://grad-svetanedelja.hr/",
        "wikidata": "Q856385",
        "wikipedia": "hr:Sveta Nedelja (Zagrebačka županija)"
      },
      "geometry": {
        "type": "Point",
        "coordinates": [
          15.776914,
          45.7968126
        ]
      },
      "id": "node/529132234"
    },
    {
      "type": "Feature",
      "properties": {
        "@id": "node/549267536",
        "alt_name:it": "Gospici",
        "alt_name:la": "Gospitsum",
        "capital": "6",
        "name": "Gospić",
        "name:ar": "غوسبيتش",
        "name:az": "Qospiç",
        "name:be": "Госпіч",
        "name:bg": "Госпич",
        "name:ce": "Госпич",
        "name:ckb": "گۆسپیچ",
        "name:de": "Gospitsch",
        "name:fa": "گسپیچ",
        "name:hu": "Goszpics",
        "name:hy": "Գոսպիչ",
        "name:ja": "ゴスピッチ",
        "name:ka": "გოსპიჩი",
        "name:ko": "고스피치",
        "name:la": "Gospicium",
        "name:lt": "Gospičius",
        "name:mk": "Госпиќ",
        "name:ru": "Госпич",
        "name:sq": "Gospiq",
        "name:sr": "Госпић",
        "name:uk": "Госпич",
        "name:ur": "گوسپیچ",
        "name:zh": "戈斯皮奇",
        "place": "town",
        "population": "6362",
        "population:date": "2021-08-31",
        "source:population": "DZS 2021",
        "website": "https://gospic.hr/",
        "wikidata": "Q319276",
        "wikipedia": "hr:Gospić"
      },
      "geometry": {
        "type": "Point",
        "coordinates": [
          15.375421,
          44.5464046
        ]
      },
      "id": "node/549267536"
    },
    {
      "type": "Feature",
      "properties": {
        "@id": "node/556601878",
        "name": "Lipik",
        "name:ckb": "لیپیک",
        "name:fa": "لیپیک",
        "name:ja": "リピク",
        "name:mk": "Липик",
        "name:ru": "Липик",
        "name:sq": "Llipik",
        "name:sr": "Липик",
        "name:uk": "Липик",
        "name:zh": "利皮克",
        "old_name:de": "Libegg",
        "place": "town",
        "population": "1967",
        "population:date": "2021-08-31",
        "source:population": "DZS 2021",
        "website": "https://lipik.hr/",
        "wikidata": "Q396595",
        "wikipedia": "hr:Lipik"
      },
      "geometry": {
        "type": "Point",
        "coordinates": [
          17.1634285,
          45.4134223
        ]
      },
      "id": "node/556601878"
    },
    {
      "type": "Feature",
      "properties": {
        "@id": "node/556603326",
        "name": "Pakrac",
        "name:ar": "باكراتش",
        "name:az": "Pаkrаç",
        "name:ckb": "پاکراتس",
        "name:fa": "پاکراتس",
        "name:he": "פאקראץ",
        "name:hu": "Pakrác",
        "name:mk": "Пакрац",
        "name:ru": "Пакрац",
        "name:sr": "Пакрац",
        "name:uk": "Пакрац",
        "name:zh": "帕克拉茨",
        "old_name:de": "Pakratz",
        "place": "town",
        "population": "4151",
        "population:date": "2021-08-31",
        "source:population": "DZS 2021",
        "website": "https://pakrac.hr/",
        "wikidata": "Q398115",
        "wikipedia": "hr:Pakrac"
      },
      "geometry": {
        "type": "Point",
        "coordinates": [
          17.1933337,
          45.4361625
        ]
      },
      "id": "node/556603326"
    },
    {
      "type": "Feature",
      "properties": {
        "@id": "node/556605013",
        "name": "Novska",
        "name:ar": "نوفسكا",
        "name:ckb": "نۆڤسکا",
        "name:fa": "نوسکا",
        "name:hu": "Novszka",
        "name:hy": "Նովսկա",
        "name:ru": "Новска",
        "name:sr": "Новска",
        "name:uk": "Новска",
        "name:zh-Hans": "诺夫斯卡",
        "name:zh-Hant": "諾夫斯卡",
        "place": "town",
        "population": "5922",
        "population:date": "2021-08-31",
        "postal_code": "44330",
        "source:population": "DZS 2021",
        "website": "https://novska.hr/",
        "wikidata": "Q397639",
        "wikipedia": "hr:Novska"
      },
      "geometry": {
        "type": "Point",
        "coordinates": [
          16.9770868,
          45.3415443
        ]
      },
      "id": "node/556605013"
    },
    {
      "type": "Feature",
      "properties": {
        "@id": "node/556608689",
        "name": "Garešnica",
        "name:ckb": "گارێشنیتسا",
        "name:fa": "گارشنیتسا",
        "name:hu": "Gerzence",
        "name:ja": "ガレシュニツァ",
        "name:la": "Garesnitia",
        "name:ru": "Гарешница",
        "name:sq": "Gareshnica",
        "name:sr": "Гарешница",
        "name:uk": "Гарешниця",
        "name:zh": "加雷什尼察",
        "place": "town",
        "population": "3294",
        "population:date": "2021-08-31",
        "source:population": "DZS 2021",
        "website": "https://garesnica.eu/",
        "wikidata": "Q399127",
        "wikipedia": "hr:Garešnica"
      },
      "geometry": {
        "type": "Point",
        "coordinates": [
          16.9418013,
          45.5751322
        ]
      },
      "id": "node/556608689"
    },
    {
      "type": "Feature",
      "properties": {
        "@id": "node/556616213",
        "name": "Donja Stubica",
        "name:ckb": "دۆنیا ستوبیتسا",
        "name:fa": "دنیا ستوبیتسا",
        "name:hu": "Donja Stubica",
        "name:ru": "Доня-Стубица",
        "name:sr": "Доња Стубица",
        "name:uk": "Доня Стубиця",
        "name:zh-Hans": "下斯图比察",
        "name:zh-Hant": "下斯圖比察",
        "place": "town",
        "population": "2121",
        "population:date": "2021-08-31",
        "source:population": "DZS 2021",
        "website": "https://www.donjastubica.hr/",
        "wikidata": "Q745088",
        "wikipedia": "hr:Donja Stubica"
      },
      "geometry": {
        "type": "Point",
        "coordinates": [
          15.9722428,
          45.9801727
        ]
      },
      "id": "node/556616213"
    },
    {
      "type": "Feature",
      "properties": {
        "@id": "node/556713826",
        "name": "Drniš",
        "name:be": "Дрніш",
        "name:bg": "Дърниш",
        "name:ckb": "درنیش",
        "name:fa": "درنیش",
        "name:hu": "Drniš",
        "name:it": "Dernis",
        "name:la": "Dernisium",
        "name:ru": "Дрниш",
        "name:sq": "Drnish",
        "name:sr": "Дрниш",
        "name:uk": "Дрниш",
        "name:vec": "Dernis",
        "name:zh-Hans": "德尔尼什",
        "name:zh-Hant": "德爾尼什",
        "place": "town",
        "population": "2752",
        "population:date": "2021-08-31",
        "source:population": "DZS 2021",
        "wikidata": "Q398131",
        "wikipedia": "hr:Drniš"
      },
      "geometry": {
        "type": "Point",
        "coordinates": [
          16.1557855,
          43.8602746
        ]
      },
      "id": "node/556713826"
    },
    {
      "type": "Feature",
      "properties": {
        "@id": "node/556713829",
        "alt_name:it": "Delnizze",
        "name": "Delnice",
        "name:ckb": "دێلنیتسێ",
        "name:fa": "دلنیتسه",
        "name:hu": "Delnice",
        "name:hy": "Դելնիցե",
        "name:lt": "Delnice",
        "name:ru": "Делнице",
        "name:sr": "Делнице",
        "name:uk": "Делниці",
        "name:zh-Hans": "代尔尼采",
        "name:zh-Hant": "代爾尼采",
        "place": "town",
        "population": "3861",
        "population:date": "2021-08-31",
        "source:population": "DZS 2021",
        "website": "https://delnice.hr/",
        "wikidata": "Q397508",
        "wikipedia": "hr:Delnice"
      },
      "geometry": {
        "type": "Point",
        "coordinates": [
          14.8009293,
          45.3981089
        ]
      },
      "id": "node/556713829"
    },
    {
      "type": "Feature",
      "properties": {
        "@id": "node/556713833",
        "alt_name:hu": "Csezmice",
        "name": "Čazma",
        "name:ar": "تشازما",
        "name:az": "Çаzmа",
        "name:be": "Чазма",
        "name:ckb": "چازما",
        "name:fa": "چازما",
        "name:hu": "Csázma",
        "name:hy": "Չազմա",
        "name:ja": "チャズマ",
        "name:la": "Chasma",
        "name:mk": "Чазма",
        "name:myv": "Чазма",
        "name:ru": "Чазма",
        "name:sq": "Çazma",
        "name:sr": "Чазма",
        "name:tr": "Çazma",
        "name:uk": "Чазма",
        "name:zh-Hans": "察兹马",
        "name:zh-Hant": "察茲馬",
        "place": "town",
        "population": "2417",
        "population:date": "2021-08-31",
        "source:population": "DZS 2021",
        "website": "https://www.cazma.hr/",
        "wikidata": "Q337888",
        "wikipedia": "hr:Čazma"
      },
      "geometry": {
        "type": "Point",
        "coordinates": [
          16.6131643,
          45.7484872
        ]
      },
      "id": "node/556713833"
    },
    {
      "type": "Feature",
      "properties": {
        "@id": "node/556737745",
        "name": "Ivanec",
        "name:ar": "إيفانيتش",
        "name:ckb": "ئیڤانێتس",
        "name:fa": "ایوانتس",
        "name:hu": "Ivánc",
        "name:mk": "Иванец",
        "name:ru": "Иванец",
        "name:sr": "Иванец",
        "name:uk": "Іванець",
        "name:zh-Hans": "伊万内茨",
        "name:zh-Hant": "伊萬內茨",
        "place": "town",
        "population": "4997",
        "population:date": "2021-08-31",
        "source:population": "DZS 2021",
        "website": "https://www.ivanec.hr/",
        "wikidata": "Q326970",
        "wikipedia": "hr:Ivanec"
      },
      "geometry": {
        "type": "Point",
        "coordinates": [
          16.1244407,
          46.2239676
        ]
      },
      "id": "node/556737745"
    },
    {
      "type": "Feature",
      "properties": {
        "@id": "node/556739325",
        "name": "Ivanić-Grad",
        "name:ckb": "ئیڤانیچ-گراد",
        "name:fa": "ایوانیچ-گراد",
        "name:hu": "Ivanicsvár",
        "name:mk": "Иваниќ-Град",
        "name:ru": "Иванич-Град",
        "name:sq": "Ivaniq-Grad",
        "name:sr": "Иванић-Град",
        "name:uk": "Іванич-Град",
        "name:zh-Hans": "伊万尼奇格勒",
        "name:zh-Hant": "伊萬尼奇格勒",
        "old_name:de": "Ivanich-Festung",
        "place": "town",
        "population": "8452",
        "population:date": "2021-08-31",
        "postal_code": "10310",
        "source:population": "DZS 2021",
        "website": "https://www.ivanic-grad.hr/naslovna/",
        "wikidata": "Q385706",
        "wikipedia": "hr:Ivanić-Grad"
      },
      "geometry": {
        "type": "Point",
        "coordinates": [
          16.3920092,
          45.7056756
        ]
      },
      "id": "node/556739325"
    },
    {
      "type": "Feature",
      "properties": {
        "@id": "node/556741405",
        "alt_name:it": "Costainizza",
        "alt_name:la": "Castanovicium;Castanovicum;Castanovitium",
        "name": "Hrvatska Kostajnica",
        "name:ckb": "خرڤاتسکا کۆستاینیتسا",
        "name:fa": "خرواتسکا کستاینیتسا",
        "name:hy": "Խրվաթսկա Կոստայնիցա",
        "name:ja": "フルヴァツカ・コスタイニツァ",
        "name:la": "Castanopolis",
        "name:ru": "Хрватска-Костайница",
        "name:sr": "Хрватска Костајница",
        "name:uk": "Хорватська Костайниця",
        "name:zh": "科斯塔伊尼察",
        "old_name:de": "Castanowitz",
        "place": "town",
        "population": "1439",
        "population:date": "2021-08-31",
        "source:population": "DZS 2021",
        "website": "https://hrvatska-kostajnica.hr/",
        "wikidata": "Q396575",
        "wikipedia": "hr:Hrvatska Kostajnica"
      },
      "geometry": {
        "type": "Point",
        "coordinates": [
          16.5491384,
          45.2228815
        ]
      },
      "id": "node/556741405"
    },
    {
      "type": "Feature",
      "properties": {
        "@id": "node/556741409",
        "name": "Grubišno Polje",
        "name:ckb": "گروبیشنۆ پۆلێ",
        "name:cs": "Hrubečné Pole",
        "name:fa": "گروبیشنو پلیه",
        "name:hu": "Grobosinc",
        "name:ru": "Грубишно-Поле",
        "name:sq": "Grubishno Pole",
        "name:sr": "Грубишно Поље",
        "name:uk": "Грубишно-Полє",
        "name:zh-Hans": "格鲁比什诺波列",
        "name:zh-Hant": "格魯比什諾波列",
        "old_name:de": "Poglack",
        "place": "town",
        "population": "2588",
        "population:date": "2021-08-31",
        "source:population": "DZS 2021",
        "website": "https://grubisnopolje.hr/",
        "wikidata": "Q679801",
        "wikipedia": "hr:Grubišno Polje"
      },
      "geometry": {
        "type": "Point",
        "coordinates": [
          17.1722552,
          45.7020287
        ]
      },
      "id": "node/556741409"
    },
    {
      "type": "Feature",
      "properties": {
        "@id": "node/556746325",
        "name": "Klanjec",
        "name:ckb": "کلانیێتس",
        "name:fa": "کلانیتس",
        "name:hy": "Կլանյեց",
        "name:mk": "Клањец",
        "name:ru": "Кланец",
        "name:sr": "Клањец",
        "name:uk": "Кланець",
        "name:zh": "克拉涅茨",
        "place": "town",
        "population": "506",
        "population:date": "2021-08-31",
        "source:population": "DZS 2021",
        "website": "https://www.klanjec.hr/",
        "wikidata": "Q769880",
        "wikipedia": "hr:Klanjec"
      },
      "geometry": {
        "type": "Point",
        "coordinates": [
          15.7414518,
          46.0503257
        ]
      },
      "id": "node/556746325"
    },
    {
      "type": "Feature",
      "properties": {
        "@id": "node/556751557",
        "alt_name:bg": "Порто Ре",
        "alt_name:it": "Porto Regio",
        "alt_name:ru": "Порто-Ре",
        "name": "Kraljevica",
        "name:bg": "Кралевица",
        "name:ckb": "کرالێڤیتسا",
        "name:fa": "کرالیویتسا",
        "name:hu": "Portoré",
        "name:it": "Porto Re",
        "name:ru": "Кралевица",
        "name:sr": "Краљевица",
        "name:uk": "Кралєвиця",
        "name:vec": "Porto Re",
        "name:zh-Hans": "克拉列维察",
        "name:zh-Hant": "克拉列維察",
        "place": "town",
        "population": "2415",
        "population:date": "2021-08-31",
        "source:population": "DZS 2021",
        "website": "https://www.kraljevica.hr/",
        "wikidata": "Q396555",
        "wikipedia": "hr:Kraljevica"
      },
      "geometry": {
        "type": "Point",
        "coordinates": [
          14.5688736,
          45.2741319
        ]
      },
      "id": "node/556751557"
    },
    {
      "type": "Feature",
      "properties": {
        "@id": "node/556766636",
        "name": "Lepoglava",
        "name:ckb": "لێپۆگلاڤا",
        "name:fa": "لپگلاوا",
        "name:mk": "Лепоглава",
        "name:ru": "Лепоглава",
        "name:sr": "Лепоглава",
        "name:uk": "Лепоглава",
        "name:zh-Hans": "莱波格拉瓦",
        "name:zh-Hant": "萊波格拉瓦",
        "old_name:de": "Schönhaupt",
        "place": "town",
        "population": "3400",
        "population:date": "2021-08-31",
        "source:population": "DZS 2021",
        "website": "https://www.lepoglava.hr/",
        "wikidata": "Q326949",
        "wikipedia": "hr:Lepoglava"
      },
      "geometry": {
        "type": "Point",
        "coordinates": [
          16.0441744,
          46.2075318
        ]
      },
      "id": "node/556766636"
    },
    {
      "type": "Feature",
      "properties": {
        "@id": "node/556786962",
        "name": "Obrovac",
        "name:bg": "Обровац",
        "name:ckb": "ئۆبرۆڤاتس",
        "name:fa": "ابرواتس",
        "name:it": "Obrovazzo",
        "name:ru": "Обровац",
        "name:sr": "Обровац",
        "name:uk": "Оброваць",
        "name:vec": "Obrovazzo",
        "name:zh-Hans": "奥布罗瓦茨",
        "name:zh-Hant": "奧布羅瓦茨",
        "old_name:it": "Obbrovazzo",
        "place": "town",
        "population": "793",
        "population:date": "2021-08-31",
        "source:population": "DZS 2021",
        "website": "https://www.obrovac.hr/",
        "wikidata": "Q988388",
        "wikipedia": "hr:Obrovac"
      },
      "geometry": {
        "type": "Point",
        "coordinates": [
          15.6820999,
          44.2009765
        ]
      },
      "id": "node/556786962"
    },
    {
      "type": "Feature",
      "properties": {
        "@id": "node/556791080",
        "name": "Otočac",
        "name:ckb": "ئۆتۆچاتس",
        "name:de": "Otočac",
        "name:fa": "اتچاتس",
        "name:hu": "Otocsán",
        "name:la": "Ottocium",
        "name:ru": "Оточац",
        "name:sq": "Otoçac",
        "name:sr": "Оточац",
        "name:uk": "Оточаць",
        "name:zh-Hans": "奥托查茨",
        "name:zh-Hant": "奧托查茨",
        "old_name:de": "Ottocan",
        "old_name:it": "Ottocio",
        "place": "town",
        "population": "3852",
        "population:date": "2021-08-31",
        "source:population": "DZS 2021",
        "website": "https://www.otocac.hr/",
        "wikidata": "Q399109",
        "wikipedia": "hr:Otočac"
      },
      "geometry": {
        "type": "Point",
        "coordinates": [
          15.2358684,
          44.8687963
        ]
      },
      "id": "node/556791080"
    },
    {
      "type": "Feature",
      "properties": {
        "@id": "node/556791083",
        "name": "Otok",
        "name:ckb": "ئۆتۆک",
        "name:en": "Otok",
        "name:fa": "اتک",
        "name:hu": "Atak",
        "name:lt": "Otokas",
        "name:mk": "Оток",
        "name:ru": "Оток",
        "name:sr": "Оток",
        "name:uk": "Оток",
        "name:zh-Hans": "奥托克",
        "name:zh-Hant": "奧托克",
        "place": "town",
        "population": "3571",
        "population:date": "2021-08-31",
        "source:population": "DZS 2021",
        "website": "https://www.otok.hr/hr",
        "wikidata": "Q994223",
        "wikipedia": "hr:Otok (Vukovarsko-srijemska županija)"
      },
      "geometry": {
        "type": "Point",
        "coordinates": [
          18.8839778,
          45.1465676
        ]
      },
      "id": "node/556791083"
    },
    {
      "type": "Feature",
      "properties": {
        "@id": "node/556793111",
        "name": "Ozalj",
        "name:ckb": "ئۆزالی",
        "name:fa": "ازالی",
        "name:hu": "Ozaly",
        "name:hy": "Օզալ",
        "name:ja": "オザリ",
        "name:ru": "Озаль",
        "name:sr": "Озаљ",
        "name:uk": "Озаль",
        "name:zh-Hans": "奥扎利",
        "name:zh-Hant": "奧扎利",
        "old_name:de": "Osail",
        "place": "town",
        "population": "1053",
        "population:date": "2021-08-31",
        "source:population": "DZS 2021",
        "website": "https://ozalj.hr/grad/",
        "wikidata": "Q396518",
        "wikipedia": "hr:Ozalj"
      },
      "geometry": {
        "type": "Point",
        "coordinates": [
          15.477888,
          45.6126311
        ]
      },
      "id": "node/556793111"
    },
    {
      "type": "Feature",
      "properties": {
        "@id": "node/556805706",
        "name": "Pregrada",
        "name:ckb": "پرێگرادا",
        "name:fa": "پرگرادا",
        "name:ru": "Преграда",
        "name:sr": "Преграда",
        "name:uk": "Преграда",
        "name:zh-Hans": "普雷格拉达",
        "name:zh-Hant": "普雷格拉達",
        "place": "town",
        "population": "1870",
        "population:date": "2021-08-31",
        "source:population": "DZS 2021",
        "website": "https://www.pregrada.hr/",
        "wikidata": "Q844312",
        "wikipedia": "hr:Pregrada"
      },
      "geometry": {
        "type": "Point",
        "coordinates": [
          15.7523888,
          46.1627282
        ]
      },
      "id": "node/556805706"
    },
    {
      "type": "Feature",
      "properties": {
        "@id": "node/557022588",
        "alt_name:la": "Vercherica;Castrum Werhlychky;Verleca;Vrilica",
        "name": "Vrlika",
        "name:ar": "فرليكا",
        "name:ckb": "ڤرلیکا",
        "name:fa": "ورلیکا",
        "name:it": "Verlicca",
        "name:la": "Verchrecha",
        "name:ru": "Врлика",
        "name:sr": "Врлика",
        "name:uk": "Врлика",
        "name:ur": "ورلیکا",
        "name:vec": "Verlicca",
        "name:zh-Hans": "弗尔利卡",
        "name:zh-Hant": "弗爾利卡",
        "place": "town",
        "population": "718",
        "population:date": "2021-08-31",
        "source:population": "DZS 2021",
        "website": "https://www.vrlika.hr/",
        "wikidata": "Q396545",
        "wikipedia": "hr:Vrlika"
      },
      "geometry": {
        "type": "Point",
        "coordinates": [
          16.3977809,
          43.9096687
        ]
      },
      "id": "node/557022588"
    },
    {
      "type": "Feature",
      "properties": {
        "@id": "node/558878143",
        "alt_name:la": "Castella;Sinus Castrorum;Septem Castra",
        "name": "Kaštela",
        "name:ar": "قشتيلا",
        "name:bg": "Кащела",
        "name:ckb": "کاشتێلا",
        "name:fa": "کاشتلا",
        "name:hu": "Kaštela",
        "name:hy": "Կաշտելա",
        "name:it": "Castelli",
        "name:ja": "カシュテラ",
        "name:ko": "카슈텔라",
        "name:la": "Castra",
        "name:ru": "Каштела",
        "name:sr": "Каштела",
        "name:uk": "Каштела",
        "name:vec": "Castelli",
        "name:zh": "卡什泰拉",
        "place": "town",
        "population": "37794",
        "population:date": "2021-08-31",
        "source:population": "DZS 2021",
        "website": "https://www.kastela.hr/",
        "wikidata": "Q396579",
        "wikipedia": "hr:Kaštela"
      },
      "geometry": {
        "type": "Point",
        "coordinates": [
          16.3646048,
          43.5561377
        ]
      },
      "id": "node/558878143"
    },
    {
      "type": "Feature",
      "properties": {
        "@id": "node/568674747",
        "alt_name:de": "Tschakathurn",
        "alt_name:la": "Halicanum",
        "name": "Čakovec",
        "name:ar": "تشاكوفيتش",
        "name:az": "Çakovets",
        "name:be": "Чакавец",
        "name:bg": "Чаковец",
        "name:ce": "Чаковец",
        "name:ckb": "چاکۆڤێتس",
        "name:de": "Čakovec",
        "name:fa": "چاکوتس",
        "name:he": "צ'אקובץ",
        "name:hu": "Csáktornya",
        "name:hy": "Չակովեց",
        "name:ja": "チャコヴェツ",
        "name:ka": "ჩაკოვეცი",
        "name:ko": "차코베츠",
        "name:la": "Aquama",
        "name:lt": "Čakovecas",
        "name:mk": "Чаковец",
        "name:ru": "Чаковец",
        "name:rue": "Чаковец",
        "name:sq": "Çakovec",
        "name:sr": "Чаковец",
        "name:uk": "Чаковець",
        "name:ur": "چاکووتس",
        "name:zh-Hans": "查科韦茨",
        "name:zh-Hant": "查科韋茨",
        "place": "town",
        "population": "15078",
        "population:date": "2021-08-31",
        "source:population": "DZS 2021",
        "website": "https://www.cakovec.hr/web/",
        "wikidata": "Q167839",
        "wikipedia": "hr:Čakovec"
      },
      "geometry": {
        "type": "Point",
        "coordinates": [
          16.4368593,
          46.3892305
        ]
      },
      "id": "node/568674747"
    },
    {
      "type": "Feature",
      "properties": {
        "@id": "node/614617920",
        "name": "Dugo Selo",
        "name:ckb": "دوگۆ سێلۆ",
        "name:en": "Dugo Selo",
        "name:fa": "دوگو سلو",
        "name:hu": "Dugoszelo",
        "name:mk": "Дуго Село",
        "name:ps": "دوګو سېلو",
        "name:ru": "Дуго-Село",
        "name:sr": "Дуго Село",
        "name:uk": "Дуго Село",
        "name:zh": "杜戈村",
        "place": "town",
        "population": "11097",
        "population:date": "2021-08-31",
        "source:population": "DZS 2021",
        "website": "https://dugoselo.hr/",
        "wikidata": "Q400041",
        "wikipedia": "hr:Dugo Selo"
      },
      "geometry": {
        "type": "Point",
        "coordinates": [
          16.237771,
          45.8060388
        ]
      },
      "id": "node/614617920"
    },
    {
      "type": "Feature",
      "properties": {
        "@id": "node/1145370586",
        "alt_name:ba": "Лисса",
        "alt_name:bg": "Лиса",
        "alt_name:la": "Lissa",
        "name": "Vis",
        "name:ar": "فيس",
        "name:ba": "Вис",
        "name:be": "Віс",
        "name:bg": "Вис",
        "name:ckb": "ڤیس",
        "name:el": "Βις",
        "name:fa": "ویس",
        "name:grc": "Ίσσα",
        "name:hy": "Վիս",
        "name:it": "Lissa",
        "name:ja": "ヴィス",
        "name:ko": "비스",
        "name:la": "Issa",
        "name:lmo": "Lissa",
        "name:mk": "Вис",
        "name:ru": "Вис",
        "name:sq": "Visi",
        "name:sr": "Вис",
        "name:uk": "Вис",
        "name:vec": "Lissa",
        "name:zh-Hans": "维斯",
        "name:zh-Hant": "維斯",
        "place": "town",
        "population": "1582",
        "population:date": "2011-03-31",
        "source:population": "DZS 2011",
        "website": "https://www.gradvis.hr/",
        "wikidata": "Q924442",
        "wikipedia": "hr:Vis (grad)"
      },
      "geometry": {
        "type": "Point",
        "coordinates": [
          16.1860931,
          43.0593989
        ]
      },
      "id": "node/1145370586"
    },
    {
      "type": "Feature",
      "properties": {
        "@id": "node/1207922933",
        "name": "Mursko Središće",
        "name:ckb": "مورسکۆ سرێدیشچێ",
        "name:fa": "مورسکو سردیشچه",
        "name:hu": "Muraszerdahely",
        "name:mk": "Мурско Средишќе",
        "name:ru": "Мурско-Средишче",
        "name:sl": "Mursko Središče",
        "name:sq": "Mursko Sredishqe",
        "name:sr": "Мурско Средишће",
        "name:uk": "Мурско Средіще",
        "name:zh-Hans": "穆尔斯科斯雷迪什切",
        "name:zh-Hant": "穆爾斯科斯雷迪什切",
        "place": "town",
        "population": "3321",
        "population:date": "2021-08-31",
        "source:population": "DZS 2021",
        "website": "https://mursko-sredisce.hr/",
        "wikidata": "Q326952",
        "wikipedia": "hr:Mursko Središće"
      },
      "geometry": {
        "type": "Point",
        "coordinates": [
          16.438546,
          46.5123914
        ]
      },
      "id": "node/1207922933"
    },
    {
      "type": "Feature",
      "properties": {
        "@id": "node/1394661865",
        "alt_name:la": "Castrum Ludbreg",
        "name": "Ludbreg",
        "name:bg": "Лудбрег",
        "name:ckb": "لودبرێگ",
        "name:fa": "لودبرگ",
        "name:he": "לודברג",
        "name:hy": "Լուդբրեգ",
        "name:ja": "ルドブレグ",
        "name:la": "Iovia",
        "name:mk": "Лудбрег",
        "name:ru": "Лудбрег",
        "name:sr": "Лудбрег",
        "name:uk": "Лудбрег",
        "name:zh-Hans": "卢德布雷格",
        "name:zh-Hant": "盧德布雷格",
        "old_name:de": "Lubring",
        "place": "town",
        "population": "3464",
        "population:date": "2021-08-31",
        "source:population": "DZS 2021",
        "website": "https://ludbreg.hr/",
        "wikidata": "Q396474",
        "wikipedia": "hr:Ludbreg"
      },
      "geometry": {
        "type": "Point",
        "coordinates": [
          16.6180913,
          46.2495239
        ]
      },
      "id": "node/1394661865"
    },
    {
      "type": "Feature",
      "properties": {
        "@id": "node/1467604275",
        "admin_level": "6",
        "alt_name:hu": "Spalató",
        "alt_name:la": "Aspalatus;Palatium Diocletiani;Salona Nova;Spalatium;Spalatrum",
        "capital": "6",
        "is_in:country": "Croatia",
        "is_in:country_code": "HR",
        "name": "Split",
        "name:ar": "سبليت",
        "name:be": "Спліт",
        "name:bg": "Сплит",
        "name:bn": "স্প্লিত",
        "name:ce": "Сплит",
        "name:cv": "Сплит",
        "name:de": "Split",
        "name:el": "Σπλιτ",
        "name:en": "Split",
        "name:es": "Split",
        "name:fa": "اسپلیت",
        "name:fr": "Split",
        "name:grc": "Ασπάλαθος",
        "name:he": "ספליט",
        "name:hr": "Split",
        "name:hu": "Split",
        "name:hy": "Սպլիտ",
        "name:it": "Spalato",
        "name:ja": "スプリト",
        "name:ka": "სპლიტი",
        "name:ko": "스플리트",
        "name:la": "Spalatum",
        "name:lt": "Splitas",
        "name:lv": "Splita",
        "name:mk": "Сплит",
        "name:mr": "स्प्लिट",
        "name:os": "Сплит",
        "name:ru": "Сплит",
        "name:sr": "Сплит",
        "name:sr-Latn": "Split",
        "name:th": "สปลิต",
        "name:uk": "Спліт",
        "name:ur": "سپلیت",
        "name:vec": "Spàlato",
        "name:wuu": "色波特",
        "name:xmf": "სპლიტი",
        "name:yue": "施普利特",
        "name:zh-Hans": "斯普利特",
        "name:zh-Hant": "史普利特",
        "place": "city",
        "population": "149830",
        "population:date": "2021-08-31",
        "postal_code": "21000",
        "ref:LOCODE": "HRSPU",
        "source:population": "DZS 2021",
        "website": "https://split.hr/",
        "wikidata": "Q1663",
        "wikipedia": "hr:Split"
      },
      "geometry": {
        "type": "Point",
        "coordinates": [
          16.4399659,
          43.5116383
        ]
      },
      "id": "node/1467604275"
    },
    {
      "type": "Feature",
      "properties": {
        "@id": "node/1551865419",
        "admin_level": "2",
        "alt_name:la": "Agranum;Andautonia Classica;Sabbaria;Zagravia;Zagrabria;Zagabria",
        "capital": "yes",
        "capital_ISO3166-1": "yes",
        "ele": "158",
        "int_name": "Zagreb",
        "name": "Zagreb",
        "name:af": "Zagreb",
        "name:am": "ዛግሬብ",
        "name:an": "Zagreb",
        "name:ang": "Agram",
        "name:ar": "زغرب",
        "name:ast": "Zagreb",
        "name:av": "Загреб",
        "name:az": "Zaqreb",
        "name:ba": "Загреб",
        "name:ban": "Zagreb",
        "name:bar": "Zagreb",
        "name:bat-smg": "Zagrėbs",
        "name:bcl": "Zagreb",
        "name:be": "Заграб",
        "name:be-tarask": "Загрэб",
        "name:bg": "Загреб",
        "name:bn": "জাগরেব",
        "name:bo": "ཛག་རེབ།",
        "name:br": "Zagreb",
        "name:bs": "Zagreb",
        "name:ca": "Zagreb",
        "name:cdo": "Zagreb",
        "name:ce": "Загреб",
        "name:ceb": "Zagreb",
        "name:ckb": "زاگرێب",
        "name:co": "Zagabria",
        "name:crh": "Zagreb",
        "name:cs": "Záhřeb",
        "name:cu": "Ꙁагрєбъ",
        "name:cv": "Загреб",
        "name:cy": "Zagreb",
        "name:da": "Zagreb",
        "name:dsb": "Zagreb",
        "name:el": "Ζάγκρεμπ",
        "name:en": "Zagreb",
        "name:eo": "Zagrebo",
        "name:es": "Zagreb",
        "name:et": "Zagreb",
        "name:eu": "Zagreb",
        "name:fa": "زاگرب",
        "name:fi": "Zagreb",
        "name:fil": "Zagreb",
        "name:fj": "Zagreb",
        "name:fo": "Zagreb",
        "name:fr": "Zagreb",
        "name:frp": "Zagrèbe",
        "name:frr": "Zagreb",
        "name:fy": "Zagreb",
        "name:ga": "Ságrab",
        "name:gag": "Zagreb",
        "name:gd": "Zagreb",
        "name:gl": "Zagreb",
        "name:gsw": "Zagreb",
        "name:gv": "Zagreb",
        "name:ha": "Zagreb",
        "name:hak": "Zagreb",
        "name:he": "זגרב",
        "name:hi": "ज़ाग्रेब",
        "name:hif": "Zagreb",
        "name:hr": "Zagreb",
        "name:hsb": "Zahrjeb",
        "name:ht": "Zagreb",
        "name:hu": "Zágráb",
        "name:hy": "Զագրեբ",
        "name:id": "Zagreb",
        "name:ilo": "Zagreb",
        "name:is": "Zagreb",
        "name:it": "Zagabria",
        "name:ja": "ザグレブ",
        "name:jv": "Zagreb",
        "name:ka": "ზაგრები",
        "name:kaa": "Zagreb",
        "name:kab": "Zagreb",
        "name:kk": "Загреб",
        "name:kn": "ಝಾಗ್ರೆಬ್",
        "name:ko": "자그레브",
        "name:ku": "Zagreb",
        "name:kv": "Загреб",
        "name:kw": "Zagreb",
        "name:ky": "Загреб",
        "name:la": "Zagrabia",
        "name:lb": "Zagreb",
        "name:li": "Zaagreb",
        "name:lij": "Zagabbria",
        "name:lmo": "Zagabria",
        "name:ln": "Zagreb",
        "name:lo": "ຊາເກຣບ",
        "name:lt": "Zagrebas",
        "name:lv": "Zagreba",
        "name:mdf": "Загрэб",
        "name:mg": "Zagreb",
        "name:mhr": "Загреб",
        "name:mi": "Zagreb",
        "name:mk": "Загреб",
        "name:ml": "സാഗ്രെബ്",
        "name:mn": "Загреб",
        "name:mr": "झाग्रेब",
        "name:ms": "Zagreb",
        "name:mt": "Żagreb",
        "name:na": "Zagrev",
        "name:nah": "Zagreb",
        "name:nan": "Zagreb",
        "name:nds": "Zagreb",
        "name:ne": "जाग्रेब",
        "name:nl": "Zagreb",
        "name:no": "Zagreb",
        "name:nv": "Shashdziil Bitsį́į́ʼí",
        "name:ny": "Zagreb",
        "name:oc": "Zagrèb",
        "name:os": "Загреб",
        "name:pa": "ਜ਼ਾਗਰਬ",
        "name:pap": "Zagreb",
        "name:pdc": "Zagreb",
        "name:pih": "Sakreb",
        "name:pl": "Zagrzeb",
        "name:pms": "Zagabria",
        "name:pnb": "زغریب",
        "name:pt": "Zagreb",
        "name:pt-BR": "Zagreb",
        "name:rm": "Zagreb",
        "name:ro": "Zagreb",
        "name:ru": "Загреб",
        "name:rue": "Заґреб",
        "name:rw": "Zagreb",
        "name:sah": "Загреб",
        "name:sc": "Zagàbria",
        "name:scn": "Zagabria",
        "name:sco": "Zagreb",
        "name:sd": "زغرب",
        "name:se": "Zagreb",
        "name:sgs": "Zagrėbs",
        "name:sh": "Zagreb",
        "name:sk": "Záhreb",
        "name:sl": "Zagreb",
        "name:smn": "Zagreb",
        "name:sn": "Zagreb",
        "name:sq": "Zagrebi",
        "name:sr": "Загреб",
        "name:sr-Latn": "Zagreb",
        "name:st": "Zagreb",
        "name:stq": "Zagreb",
        "name:sv": "Zagreb",
        "name:sw": "Zagreb",
        "name:szl": "Zagrzeb",
        "name:ta": "சாகிரேப்",
        "name:tg": "Загреб",
        "name:th": "ซาเกร็บ",
        "name:tk": "Zagreb",
        "name:tl": "Zagreb",
        "name:tr": "Zagreb",
        "name:tt": "Загреб",
        "name:tw": "Zagreb",
        "name:udm": "Загреб",
        "name:ug": "Zagréb",
        "name:uk": "Загреб",
        "name:ur": "زغرب",
        "name:uz": "Zagreb",
        "name:vec": "Zagavria",
        "name:vep": "Zagreb",
        "name:vi": "Zagreb",
        "name:wa": "Zagreb",
        "name:war": "Zagreb",
        "name:wo": "Sagreb",
        "name:xmf": "ზაგრები",
        "name:yi": "זאגרעב",
        "name:yo": "Zagreb",
        "name:yue": "薩格勒布",
        "name:za": "Zagreb",
        "name:zh": "薩格勒布",
        "name:zh-Hans": "萨格勒布",
        "name:zh-Hant": "薩格勒布",
        "name:zza": "Zagreb",
        "old_name:de": "Agram",
        "place": "city",
        "population": "663592",
        "population:date": "2021-08-31",
        "source:name:br": "ofis publik ar brezhoneg",
        "source:population": "DZS 2021",
        "website": "https://www.zagreb.hr",
        "wikidata": "Q1435",
        "wikipedia": "hr:Zagreb"
      },
      "geometry": {
        "type": "Point",
        "coordinates": [
          15.9772795,
          45.8130967
        ]
      },
      "id": "node/1551865419"
    },
    {
      "type": "Feature",
      "properties": {
        "@id": "node/1556178404",
        "alt_name:la": "Pons Tilurii;Tilurium",
        "name": "Trilj",
        "name:ckb": "تریل",
        "name:fa": "تریلی",
        "name:it": "Treglia",
        "name:la": "Pons Tiluri",
        "name:ru": "Триль",
        "name:sr": "Триљ",
        "name:uk": "Триль",
        "name:vec": "Treglia",
        "name:zh": "特里利",
        "place": "town",
        "population": "1906",
        "population:date": "2021-08-31",
        "source:population": "DZS 2021",
        "website": "https://trilj.hr/",
        "wikidata": "Q396526",
        "wikipedia": "hr:Trilj"
      },
      "geometry": {
        "type": "Point",
        "coordinates": [
          16.7289641,
          43.6174314
        ]
      },
      "id": "node/1556178404"
    },
    {
      "type": "Feature",
      "properties": {
        "@id": "node/1567235911",
        "name": "Oroslavje",
        "name:ckb": "ئۆرۆسلاڤیێ",
        "name:fa": "ارسلاویه",
        "name:ru": "Орославье",
        "name:sr": "Орославје",
        "name:uk": "Орослав'є",
        "name:zh-Hans": "奥罗斯拉维",
        "name:zh-Hant": "奧羅斯拉維",
        "place": "town",
        "population": "3253",
        "population:date": "2021-08-31",
        "source:population": "DZS 2021",
        "website": "https://oroslavje.hr/",
        "wikidata": "Q126365",
        "wikipedia": "hr:Oroslavje"
      },
      "geometry": {
        "type": "Point",
        "coordinates": [
          15.9144491,
          45.9962496
        ]
      },
      "id": "node/1567235911"
    },
    {
      "type": "Feature",
      "properties": {
        "@id": "node/1567862743",
        "name": "Daruvar",
        "name:ar": "داروفار",
        "name:be": "Дарувар",
        "name:ckb": "داروڤار",
        "name:fa": "دارووار",
        "name:he": "דארובאר",
        "name:hu": "Daruvár",
        "name:hy": "Դարուվար",
        "name:la": "Aqua Balissae",
        "name:mk": "Дарувар",
        "name:ru": "Дарувар",
        "name:sr": "Дарувар",
        "name:uk": "Дарувар",
        "name:zh-Hans": "达鲁瓦尔",
        "name:zh-Hant": "達魯瓦爾",
        "old_name": "Podborje",
        "old_name:de": "Daruwar",
        "place": "town",
        "population": "7440",
        "population:date": "2021-08-31",
        "source:population": "DZS 2021",
        "website": "https://daruvar.hr/",
        "wikidata": "Q399430",
        "wikipedia": "hr:Daruvar"
      },
      "geometry": {
        "type": "Point",
        "coordinates": [
          17.2237617,
          45.5928272
        ]
      },
      "id": "node/1567862743"
    },
    {
      "type": "Feature",
      "properties": {
        "@id": "node/1568096743",
        "addr:postcode": "10340",
        "name": "Vrbovec",
        "name:bg": "Върбовец",
        "name:ckb": "ڤربۆڤێتس",
        "name:fa": "وربوتس",
        "name:hu": "Verbovecz",
        "name:ja": "ヴルボヴェツ",
        "name:ko": "브르보베츠",
        "name:mk": "Врбовец",
        "name:ru": "Врбовец",
        "name:sr": "Врбовец",
        "name:uk": "Врбовець",
        "name:zh-Hans": "弗尔博韦茨",
        "name:zh-Hant": "弗爾博韋茨",
        "place": "town",
        "population": "4551",
        "population:date": "2021-08-31",
        "source:population": "DZS 2021",
        "website": "https://vrbovec.hr/",
        "wikidata": "Q754781",
        "wikipedia": "hr:Vrbovec"
      },
      "geometry": {
        "type": "Point",
        "coordinates": [
          16.4181159,
          45.8856479
        ]
      },
      "id": "node/1568096743"
    },
    {
      "type": "Feature",
      "properties": {
        "@id": "node/1569820706",
        "alt_name:la": "Humacum",
        "name": "Umag",
        "name:ar": "أوماغ",
        "name:be": "Умаг",
        "name:ckb": "ئوماگ",
        "name:de": "Umag",
        "name:el": "Ούμαγκ",
        "name:fa": "اوماگ",
        "name:hr": "Umag",
        "name:hy": "Ումագ",
        "name:it": "Umago",
        "name:ja": "ウマグ",
        "name:la": "Humagum",
        "name:mk": "Умаг",
        "name:os": "Умаг",
        "name:pt": "Umago",
        "name:ru": "Умаг",
        "name:sr": "Умаг",
        "name:uk": "Умаг",
        "name:vec": "Umago",
        "name:zh-Hans": "乌马格",
        "name:zh-Hant": "烏馬格",
        "official_name": "Umag - Umago",
        "old_name:de": "Humag",
        "place": "town",
        "population": "6751",
        "population:date": "2021-08-31",
        "source:population": "DZS 2021",
        "website": "https://umag.hr/",
        "wikidata": "Q221184",
        "wikipedia": "hr:Umag"
      },
      "geometry": {
        "type": "Point",
        "coordinates": [
          13.5224098,
          45.4323587
        ]
      },
      "id": "node/1569820706"
    },
    {
      "type": "Feature",
      "properties": {
        "@id": "node/1572197773",
        "addr:postcode": "52215",
        "alt_name:la": "Praedium Athenianum;Vicus Attinianum;Dignanum",
        "name": "Vodnjan",
        "name:ar": "فودنيان",
        "name:ckb": "ڤۆدنیان",
        "name:fa": "ودنیان",
        "name:hr": "Vodnjan",
        "name:hy": "Վոդնյան",
        "name:it": "Dignano",
        "name:la": "Adinianum",
        "name:ru": "Воднян",
        "name:sr": "Водњан",
        "name:uk": "Воднян",
        "name:vec": "Dignano",
        "name:zh": "沃德年",
        "official_name": "Vodnjan - Dignano",
        "old_name:it": "Dignano d'Istria",
        "old_name:la": "Praedium Athenianum",
        "place": "town",
        "population": "3133",
        "population:date": "2021-08-31",
        "source:population": "DZS 2021",
        "website": "https://www.vodnjan.hr/",
        "wikidata": "Q396683",
        "wikipedia": "hr:Vodnjan"
      },
      "geometry": {
        "type": "Point",
        "coordinates": [
          13.8497802,
          44.9603387
        ]
      },
      "id": "node/1572197773"
    },
    {
      "type": "Feature",
      "properties": {
        "@id": "node/1575626358",
        "name": "Kastav",
        "name:ar": "كاستاف",
        "name:ckb": "کاستاڤ",
        "name:fa": "کاستاو",
        "name:hy": "Կաստավ",
        "name:it": "Castua",
        "name:ja": "カスタヴ",
        "name:la": "Castra",
        "name:ps": "کاستاو",
        "name:ru": "Кастав",
        "name:sr": "Кастав",
        "name:uk": "Кастав",
        "name:vec": "Castua",
        "name:zh": "卡斯塔夫",
        "old_name:de": "Chästau",
        "place": "town",
        "population": "10202",
        "population:date": "2021-08-31",
        "source:population": "DZS 2021",
        "website": "https://kastav.hr/",
        "wikidata": "Q399425",
        "wikipedia": "hr:Kastav"
      },
      "geometry": {
        "type": "Point",
        "coordinates": [
          14.3487225,
          45.3731673
        ]
      },
      "id": "node/1575626358"
    },
    {
      "type": "Feature",
      "properties": {
        "@id": "node/1582702134",
        "name": "Slunj",
        "name:ar": "سلوني",
        "name:ckb": "سلونی",
        "name:fa": "سلونی",
        "name:he": "סלוני",
        "name:hu": "Szluin",
        "name:hy": "Սլուն",
        "name:ko": "슬룬",
        "name:la": "Slovin",
        "name:ru": "Слунь",
        "name:sr": "Слуњ",
        "name:sr-Latn": "Slunj",
        "name:uk": "Слунь",
        "name:zh-Hans": "斯卢尼",
        "name:zh-Hant": "斯盧尼",
        "old_name:de": "Sluin",
        "place": "town",
        "population": "1576",
        "population:date": "2021-08-31",
        "source:population": "DZS 2021",
        "website": "https://www.slunj.hr/",
        "wikidata": "Q397733",
        "wikipedia": "hr:Slunj"
      },
      "geometry": {
        "type": "Point",
        "coordinates": [
          15.584898,
          45.114468
        ]
      },
      "id": "node/1582702134"
    },
    {
      "type": "Feature",
      "properties": {
        "@id": "node/1583747666",
        "alt_name:hy": "Ռագուզա",
        "alt_name:it": "Ragusa di Dalmazia",
        "alt_name:ka": "რაგუზა",
        "alt_name:la": "Ragusa",
        "alt_name:sq": "Rush",
        "name": "Dubrovnik",
        "name:ar": "دوبروفنيك",
        "name:be": "Дуброўнік",
        "name:bg": "Дубровник",
        "name:ce": "Дубровник",
        "name:ckb": "دوبرۆڤنیک",
        "name:cs": "Dubrovník",
        "name:cv": "Дубровник",
        "name:el": "Ντούμπροβνικ",
        "name:en": "Dubrovnik",
        "name:fa": "دوبروونیک",
        "name:ga": "Dubrovnic",
        "name:he": "דוברובניק",
        "name:hu": "Raguza",
        "name:hy": "Դուբրովնիկ",
        "name:it": "Ragusa",
        "name:ja": "ドゥブロヴニク",
        "name:ka": "დუბროვნიკი",
        "name:ko": "두브로브니크",
        "name:ky": "Дубровник",
        "name:la": "Ragusium",
        "name:lmo": "Ragüsa",
        "name:lt": "Dubrovnikas",
        "name:lv": "Dubrovnika",
        "name:mk": "Дубровник",
        "name:mr": "दुब्रोव्हनिक",
        "name:my": "ဒူဗရော့ဗ်နစ်ခ်မြို့",
        "name:os": "Дубровник",
        "name:pl": "Dubrownik",
        "name:ps": "دوبرونیک",
        "name:ru": "Дубровник",
        "name:sah": "Дубровник",
        "name:sk": "Dubrovník",
        "name:sq": "Dubrovniku",
        "name:sr": "Дубровник",
        "name:sr-Latn": "Dubrovnik",
        "name:th": "ดูบรอฟนีก",
        "name:tt": "Дубровник",
        "name:uk": "Дубровник",
        "name:ur": "دوبروونیک",
        "name:vec": "Raguxa",
        "name:wuu": "杜布罗夫尼克",
        "name:xmf": "დუბროვნიკი",
        "name:yi": "ראגוזא",
        "name:yue": "杜布羅夫尼克",
        "name:zh-Hans": "杜布罗夫尼克",
        "name:zh-Hant": "杜布羅夫尼克",
        "old_name": "Ragusa",
        "place": "city",
        "population": "26922",
        "population:date": "2021-08-31",
        "source:population": "DZS 2021",
        "website": "https://www.dubrovnik.hr/",
        "wikidata": "Q1722",
        "wikipedia": "hr:Dubrovnik"
      },
      "geometry": {
        "type": "Point",
        "coordinates": [
          18.0939501,
          42.6491029
        ]
      },
      "id": "node/1583747666"
    },
    {
      "type": "Feature",
      "properties": {
        "@id": "node/1587453814",
        "admin_level": "7",
        "alt_name:la": "Oeneum;Oenaeum;Almo;Alminium;Almissum",
        "capital": "7",
        "license_plate_code": "ST",
        "name": "Omiš",
        "name:ar": "أوميش",
        "name:az": "Оmiş",
        "name:ba": "Омиш",
        "name:be": "Оміш",
        "name:bg": "Омиш",
        "name:ckb": "ئۆمیش",
        "name:fa": "امیش",
        "name:it": "Almissa",
        "name:la": "Dalmasium",
        "name:lt": "Omišas",
        "name:mk": "Омиш",
        "name:ru": "Омиш",
        "name:sk": "Omiš",
        "name:sq": "Omish",
        "name:sr": "Омиш",
        "name:uk": "Омиш",
        "name:ur": "اومیش",
        "name:vec": "Almissa",
        "name:zh-Hans": "奥米什",
        "name:zh-Hant": "奧米什",
        "place": "town",
        "population": "5985",
        "population:date": "2021-08-31",
        "postal_code": "21310",
        "source:population": "DZS 2021",
        "website": "http://www.omis.hr/Default.aspx",
        "wikidata": "Q397600",
        "wikipedia": "hr:Omiš"
      },
      "geometry": {
        "type": "Point",
        "coordinates": [
          16.6922771,
          43.4434966
        ]
      },
      "id": "node/1587453814"
    },
    {
      "type": "Feature",
      "properties": {
        "@id": "node/1588135994",
        "alt_name:la": "Salonae",
        "name": "Solin",
        "name:be": "Солін",
        "name:bg": "Солин",
        "name:ckb": "سۆلین",
        "name:fa": "سولین",
        "name:he": "סולין",
        "name:hu": "Salona",
        "name:hy": "Սոլին",
        "name:it": "Salona",
        "name:ja": "ソリン",
        "name:ko": "솔린",
        "name:la": "Salona",
        "name:lt": "Solinas",
        "name:ru": "Солин",
        "name:sr": "Солин",
        "name:uk": "Солін",
        "name:ur": "سولین",
        "name:vec": "Salona",
        "name:zh": "索林",
        "place": "town",
        "population": "20996",
        "population:date": "2021-08-31",
        "source:population": "DZS 2021",
        "website": "https://www.solin.hr/",
        "wikidata": "Q642828",
        "wikipedia": "hr:Solin"
      },
      "geometry": {
        "type": "Point",
        "coordinates": [
          16.4853016,
          43.5442913
        ]
      },
      "id": "node/1588135994"
    },
    {
      "type": "Feature",
      "properties": {
        "@id": "node/1588158639",
        "alt_name:de": "Vergoraz;Wergoratz",
        "alt_name:la": "Vergovazzum;Vergorazza;Bigeste",
        "name": "Vrgorac",
        "name:ckb": "ڤرگۆراتس",
        "name:fa": "ورگراتس",
        "name:hr": "Vrgorac",
        "name:it": "Vergoraz",
        "name:la": "Vergoratium",
        "name:lt": "Vrgoracas",
        "name:ru": "Вргорац",
        "name:sr": "Вргорац",
        "name:uk": "Вргораць",
        "name:vec": "Vergoraz",
        "name:zh-Hans": "弗尔戈拉茨",
        "name:zh-Hant": "弗爾戈拉茨",
        "place": "town",
        "population": "2132",
        "population:date": "2021-08-31",
        "source:population": "DZS 2021",
        "website": "https://www.vrgorac.hr/",
        "wikidata": "Q398436",
        "wikipedia": "hr:Vrgorac"
      },
      "geometry": {
        "type": "Point",
        "coordinates": [
          17.3723608,
          43.2050358
        ]
      },
      "id": "node/1588158639"
    },
    {
      "type": "Feature",
      "properties": {
        "@id": "node/1588846913",
        "alt_name:la": "Posega;Inicerum;Possega",
        "capital": "6",
        "name": "Požega",
        "name:ar": "بوزيغا",
        "name:az": "Pоjeqа",
        "name:ba": "Пожега",
        "name:be": "Пожага",
        "name:bg": "Пожега",
        "name:ce": "Пожега",
        "name:ckb": "پۆژێگا",
        "name:fa": "پژگا",
        "name:he": "פוז'גה",
        "name:hu": "Pozsega",
        "name:hy": "Պոժեգա",
        "name:ja": "ポジェガ",
        "name:ka": "პოჟეგა",
        "name:ko": "포제가",
        "name:la": "Incerum",
        "name:mk": "Пожега",
        "name:ru": "Пожега",
        "name:sq": "Pozhega",
        "name:sr": "Пожега",
        "name:tr": "Pojega",
        "name:uk": "Пожега",
        "name:ur": "پوژیگا",
        "name:zh-Hans": "波热加",
        "name:zh-Hant": "波熱加",
        "old_name": "Slavonska Požega",
        "old_name:ba": "Славонск-Пожега",
        "old_name:be": "Славонска-Пожага",
        "old_name:bg": "Славонска Пожега",
        "old_name:de": "Poschegg",
        "old_name:he": "סלאבונסקה פוז'גה",
        "old_name:hy": "Սլավոնսկա-Պոժեգա",
        "old_name:mk": "Славонска Пожега",
        "old_name:sr": "Славонска Пожега",
        "place": "town",
        "population": "16867",
        "population:date": "2021-08-31",
        "source:population": "DZS 2021",
        "website": "https://www.pozega.hr/",
        "wikidata": "Q273114",
        "wikipedia": "hr:Požega"
      },
      "geometry": {
        "type": "Point",
        "coordinates": [
          17.6765332,
          45.3310723
        ]
      },
      "id": "node/1588846913"
    },
    {
      "type": "Feature",
      "properties": {
        "@id": "node/1588859221",
        "alt_name:la": "Civitas Bosnensis;Civitas Boznensis;Certis;Certisia;Cirtisa",
        "name": "Đakovo",
        "name:az": "Dyakоvо",
        "name:bg": "Джаково",
        "name:ckb": "داکۆڤۆ",
        "name:fa": "جاکوو",
        "name:he": "ג'קובו",
        "name:hr": "Đakovo",
        "name:hu": "Diakovár",
        "name:it": "Daccovo",
        "name:ja": "ジャコヴォ",
        "name:ko": "자코보",
        "name:la": "Diacovium",
        "name:lt": "Džakovas",
        "name:mk": "Ѓаково",
        "name:ps": "جاکوو",
        "name:ru": "Джяково",
        "name:sq": "Gjakova",
        "name:sr": "Ђаково",
        "name:tr": "Diyakova",
        "name:uk": "Джаково",
        "name:zh-Hans": "贾科沃",
        "name:zh-Hant": "賈科沃",
        "old_name:de": "Diakowar",
        "place": "town",
        "population": "16875",
        "population:date": "2021-08-31",
        "source:population": "DZS 2021",
        "website": "https://www.djakovo.hr/",
        "wikidata": "Q318961",
        "wikipedia": "hr:Đakovo"
      },
      "geometry": {
        "type": "Point",
        "coordinates": [
          18.4116376,
          45.3080745
        ]
      },
      "id": "node/1588859221"
    },
    {
      "type": "Feature",
      "properties": {
        "@id": "node/1588925812",
        "alt_name:hu": "Szlavónbród",
        "alt_name:la": "Marsunnia;Brodium",
        "capital": "6",
        "name": "Slavonski Brod",
        "name:ar": "سلافونسكي برود",
        "name:ba": "Славонски-Брод",
        "name:be": "Славанскі-Брод",
        "name:bg": "Славонски брод",
        "name:ce": "Славонски-Брод",
        "name:ckb": "سلاڤۆنسکی برۆد",
        "name:de": "Slavonski Brod",
        "name:el": "Σλαβόνσκι Μπροντ",
        "name:en": "Slavonski Brod",
        "name:es": "Slavonski Brod",
        "name:fa": "اسلاونسکی برد",
        "name:fr": "Slavonski Brod",
        "name:he": "סלבונסקי ברוד",
        "name:hu": "Bród",
        "name:hy": "Սլավոնական Բրոդ",
        "name:ja": "スラヴォンスキ・ブロド",
        "name:ka": "სლავონსკი-ბროდი",
        "name:ko": "슬라본스키브로드",
        "name:la": "Marsonia",
        "name:lt": "Slavonski Brodas",
        "name:lv": "Slavonski Broda",
        "name:mk": "Славонски Брод",
        "name:ru": "Славонски-Брод",
        "name:sq": "Sllavonski Brod",
        "name:sr": "Славонски Брод",
        "name:th": "สลาวอนสกีบรอด",
        "name:uk": "Славонський Брод",
        "name:ur": "سلاونسکی برود",
        "name:wuu": "斯拉沃尼亚布罗德",
        "name:zh-Hans": "斯拉沃尼亚布罗德",
        "name:zh-Hant": "斯拉沃尼亞布羅德",
        "place": "city",
        "population": "45005",
        "population:date": "2021-08-31",
        "source:population": "DZS 2021",
        "website": "https://www.slavonski-brod.hr/",
        "wikidata": "Q4686",
        "wikipedia": "hr:Slavonski Brod"
      },
      "geometry": {
        "type": "Point",
        "coordinates": [
          18.0121385,
          45.1665803
        ]
      },
      "id": "node/1588925812"
    },
    {
      "type": "Feature",
      "properties": {
        "@id": "node/1588972606",
        "alt_name:la": "Colonia Aurelia Cibalae;Cibalis;Ad Labores",
        "name": "Vinkovci",
        "name:ar": "فينكوفسي",
        "name:be": "Вінкаўцы",
        "name:bg": "Винковци",
        "name:ckb": "ڤینکۆڤتسی",
        "name:de": "Vinkovci",
        "name:en": "Vinkovci",
        "name:fa": "وینکوتسی",
        "name:he": "וינקובצי",
        "name:hu": "Vinkovce",
        "name:ja": "ヴィンコヴツィ",
        "name:ko": "빈코브치",
        "name:la": "Cibalae",
        "name:lt": "Vinkovcai",
        "name:mk": "Винковци",
        "name:ru": "Винковци",
        "name:rue": "Винковци",
        "name:sr": "Винковци",
        "name:uk": "Вінковці",
        "name:ur": "وینکووتسی",
        "name:zh-Hans": "温科夫齐",
        "name:zh-Hant": "溫科夫齊",
        "old_name": "Vinkovce",
        "old_name:de": "Winkowitz",
        "old_name:hu": "Szentillye",
        "place": "city",
        "population": "28111",
        "population:date": "2021-08-31",
        "source:population": "DZS 2021",
        "website": "https://www.grad-vinkovci.hr/hr",
        "wikidata": "Q221495",
        "wikipedia": "hr:Vinkovci"
      },
      "geometry": {
        "type": "Point",
        "coordinates": [
          18.8045248,
          45.2883771
        ]
      },
      "id": "node/1588972606"
    },
    {
      "type": "Feature",
      "properties": {
        "@id": "node/1593993648",
        "alt_name:la": "Sardona",
        "name": "Skradin",
        "name:be": "Скрадзін",
        "name:bg": "Скрадин",
        "name:ckb": "سکرادین",
        "name:fa": "سکرادین",
        "name:hy": "Սկրադին",
        "name:it": "Scardona",
        "name:ko": "스크라딘",
        "name:la": "Scardona",
        "name:ru": "Скрадин",
        "name:sr": "Скрадин",
        "name:uk": "Скрадин",
        "name:vec": "Scardona",
        "name:zh": "斯克拉丁",
        "place": "town",
        "population": "508",
        "population:date": "2021-08-31",
        "source:population": "DZS 2021",
        "wikidata": "Q400036",
        "wikipedia": "hr:Skradin"
      },
      "geometry": {
        "type": "Point",
        "coordinates": [
          15.923319,
          43.8178464
        ]
      },
      "id": "node/1593993648"
    },
    {
      "type": "Feature",
      "properties": {
        "@id": "node/1598928451",
        "alt_name:la": "Pagum;Curicum",
        "name": "Pag",
        "name:bg": "Паг",
        "name:ckb": "پاگ",
        "name:el": "Παγκ",
        "name:fa": "پاگ",
        "name:he": "פאג",
        "name:hy": "Պագ",
        "name:it": "Pago",
        "name:ja": "パグ",
        "name:ko": "파그",
        "name:la": "Pagus",
        "name:lt": "Pagas",
        "name:lv": "Paga",
        "name:mk": "Паг",
        "name:ru": "Паг",
        "name:sr": "Паг",
        "name:uk": "Паг",
        "name:vec": "Pago",
        "name:zh": "帕格",
        "old_name:de": "Baag",
        "place": "town",
        "population": "2322",
        "population:date": "2021-08-31",
        "source:population": "DZS 2021",
        "website": "https://www.pag.hr/",
        "wikidata": "Q837468",
        "wikipedia": "hr:Pag (grad)"
      },
      "geometry": {
        "type": "Point",
        "coordinates": [
          15.0545217,
          44.4437608
        ]
      },
      "id": "node/1598928451"
    },
    {
      "type": "Feature",
      "properties": {
        "@id": "node/1605177300",
        "addr:postcode": "10290",
        "name": "Zaprešić",
        "name:ar": "زابرشيتش",
        "name:ckb": "زاپرێشیچ",
        "name:fa": "زاپرشیچ",
        "name:ja": "ザプレシチ",
        "name:ko": "자프레시치",
        "name:lt": "Zaprešičius",
        "name:ru": "Запрешич",
        "name:sr": "Запрешић",
        "name:uk": "Запрешич",
        "name:ur": "زاپریشیچ",
        "name:zh": "扎普雷希奇",
        "place": "town",
        "population": "18768",
        "population:date": "2021-08-31",
        "source:population": "DZS 2021",
        "website": "https://zapresic.hr/",
        "wikidata": "Q5408",
        "wikipedia": "hr:Zaprešić"
      },
      "geometry": {
        "type": "Point",
        "coordinates": [
          15.8050436,
          45.8572728
        ]
      },
      "id": "node/1605177300"
    },
    {
      "type": "Feature",
      "properties": {
        "@id": "node/1769407236",
        "addr:postcode": "21450",
        "alt_name:la": "Pharina;Pharia;Lesena;Lesina",
        "name": "Hvar",
        "name:ar": "هفار",
        "name:be": "Хвар",
        "name:bg": "Хвар",
        "name:ckb": "خڤار",
        "name:el": "Χβαρ",
        "name:fa": "خوار",
        "name:hy": "Խվար",
        "name:it": "Lesina",
        "name:ja": "フヴァル",
        "name:kk": "Хвар",
        "name:ko": "흐바르",
        "name:la": "Pharus",
        "name:lt": "Hvaras",
        "name:mk": "Хвар",
        "name:ru": "Хвар",
        "name:sr": "Хвар",
        "name:uk": "Хвар",
        "name:ur": "خوار",
        "name:vec": "Lesina",
        "name:zh-Hans": "赫瓦尔",
        "name:zh-Hant": "赫瓦爾",
        "place": "town",
        "population": "3519",
        "population:date": "2021-08-31",
        "source:population": "DZS 2021",
        "website": "https://www.hvar.hr/portal/",
        "wikidata": "Q6031",
        "wikipedia": "hr:Hvar (grad)"
      },
      "geometry": {
        "type": "Point",
        "coordinates": [
          16.4418127,
          43.1723573
        ]
      },
      "id": "node/1769407236"
    },
    {
      "type": "Feature",
      "properties": {
        "@id": "node/1830216906",
        "addr:postcode": "52100",
        "alt_name:la": "Pola;Polensis Civitas",
        "name": "Pula",
        "name:ar": "بولا",
        "name:ba": "Пула",
        "name:be": "Пула",
        "name:bg": "Пула",
        "name:ckb": "پولا",
        "name:de": "Pula",
        "name:el": "Πούλα",
        "name:es": "Pola",
        "name:fa": "پولا",
        "name:he": "פולה",
        "name:hr": "Pula",
        "name:hu": "Póla",
        "name:hy": "Պուլա",
        "name:it": "Pola",
        "name:ja": "プーラ",
        "name:ka": "პულა",
        "name:ko": "풀라",
        "name:la": "Pietas Iulia",
        "name:lmo": "Pola",
        "name:lt": "Pola",
        "name:mk": "Пула",
        "name:os": "Пулæ",
        "name:pl": "Pula",
        "name:ro": "Pola",
        "name:ru": "Пула",
        "name:sl": "Pulj",
        "name:sr": "Пула",
        "name:sr-Latn": "Pula",
        "name:tg": "Пула",
        "name:tt": "Пула",
        "name:uk": "Пула",
        "name:ur": "پولا",
        "name:vec": "Poła",
        "name:vep": "Pul",
        "name:xmf": "პულა",
        "name:yi": "פולא",
        "name:zh": "普拉",
        "official_name": "Pula - Pola",
        "old_name:de": "Polei",
        "place": "city",
        "population": "52220",
        "population:date": "2021-08-31",
        "source:population": "DZS 2021",
        "website": "https://www.pula.hr/hr/",
        "wikidata": "Q4656",
        "wikipedia": "hr:Pula"
      },
      "geometry": {
        "type": "Point",
        "coordinates": [
          13.8455311,
          44.8702281
        ]
      },
      "id": "node/1830216906"
    },
    {
      "type": "Feature",
      "properties": {
        "@id": "node/1832917478",
        "admin_level": "6",
        "alt_name:hy": "Զարա",
        "alt_name:la": "Iadera",
        "capital": "6",
        "is_in:country": "Croatia",
        "name": "Zadar",
        "name:am": "ዛዳር",
        "name:an": "Chadra",
        "name:ar": "زادار",
        "name:be": "Задар",
        "name:bg": "Задар",
        "name:ce": "Задар",
        "name:ckb": "زادار",
        "name:cu": "Ꙁадъръ",
        "name:el": "Ζάνταρ",
        "name:fa": "زادار",
        "name:he": "זאדאר",
        "name:hu": "Zára",
        "name:hy": "Զադար",
        "name:it": "Zara",
        "name:ja": "ザダル",
        "name:ka": "ზადარი",
        "name:ko": "자다르",
        "name:la": "Iader",
        "name:lt": "Zadaras",
        "name:lv": "Zadara",
        "name:mk": "Задар",
        "name:os": "Задар",
        "name:ru": "Задар",
        "name:scn": "Zara",
        "name:sq": "Zara",
        "name:sr": "Задар",
        "name:th": "ซาดาร์",
        "name:tt": "Задар",
        "name:uk": "Задар",
        "name:ur": "زدار",
        "name:vec": "Zara",
        "name:wuu": "扎达尔",
        "name:xmf": "ზადარი",
        "name:yue": "扎達爾",
        "name:zh-Hans": "扎达尔",
        "name:zh-Hant": "扎達爾",
        "old_name": "Iader",
        "old_name:el": "Ζάρα",
        "place": "city",
        "population": "67309",
        "population:date": "2021-08-31",
        "source:population": "DZS 2021",
        "website": "https://www.grad-zadar.hr/",
        "wikidata": "Q3370",
        "wikipedia": "hr:Zadar"
      },
      "geometry": {
        "type": "Point",
        "coordinates": [
          15.2353257,
          44.1168594
        ]
      },
      "id": "node/1832917478"
    },
    {
      "type": "Feature",
      "properties": {
        "@id": "node/1837883660",
        "alt_name:de": "Mitterburg",
        "alt_name:la": "Castrum Pisinum;Castrum Pisinium",
        "alt_name:zh-Hans": "皮西诺",
        "alt_name:zh-Hant": "皮西諾",
        "capital": "6",
        "is_in": "Croatia, Europe",
        "name": "Pazin",
        "name:ar": "بازين",
        "name:be": "Пазін",
        "name:ce": "Пазин",
        "name:ckb": "پازین",
        "name:de": "Pazin",
        "name:fa": "پازین",
        "name:he": "פאזין",
        "name:hr": "Pazin",
        "name:hy": "Պազին",
        "name:it": "Pisino",
        "name:ja": "パジン",
        "name:ka": "პაზინი",
        "name:ko": "파진",
        "name:la": "Pisinum",
        "name:lt": "Pazinas",
        "name:os": "Пазин",
        "name:ru": "Пазин",
        "name:sr": "Пазин",
        "name:uk": "Пазин",
        "name:ur": "پازین",
        "name:vec": "Pixin",
        "name:zh": "帕津",
        "place": "town",
        "population": "3981",
        "population:date": "2021-08-31",
        "source:population": "DZS 2021",
        "website": "https://www.pazin.hr/",
        "wikidata": "Q211968",
        "wikipedia": "hr:Pazin"
      },
      "geometry": {
        "type": "Point",
        "coordinates": [
          13.9363313,
          45.2391995
        ]
      },
      "id": "node/1837883660"
    },
    {
      "type": "Feature",
      "properties": {
        "@id": "node/1879717722",
        "alt_name:it": "Cerquenizza",
        "name": "Crikvenica",
        "name:ar": "كريكفينيسا",
        "name:ckb": "تسریکڤێنیتسا",
        "name:fa": "تسریکونیتسا",
        "name:hu": "Cirkvenica",
        "name:it": "Cirquenizza",
        "name:ko": "치리크베니차",
        "name:ru": "Цриквеница",
        "name:sr": "Цриквеница",
        "name:uk": "Цриквениця",
        "name:vec": "Cirquenizza",
        "name:zh-Hans": "茨里克韦尼察",
        "name:zh-Hant": "茨里克韋尼察",
        "old_name:de": "Kirchlein",
        "place": "town",
        "population": "6239",
        "population:date": "2021-08-31",
        "source:population": "DZS 2021",
        "website": "https://www.crikvenica.hr/",
        "wikidata": "Q397626",
        "wikipedia": "hr:Crikvenica"
      },
      "geometry": {
        "type": "Point",
        "coordinates": [
          14.6927906,
          45.1737049
        ]
      },
      "id": "node/1879717722"
    },
    {
      "type": "Feature",
      "properties": {
        "@id": "node/1946775557",
        "name": "Zabok",
        "name:ckb": "زابۆک",
        "name:fa": "زابک",
        "name:ko": "자보크",
        "name:ru": "Забок",
        "name:sr": "Забок",
        "name:uk": "Забок",
        "name:ur": "زبوک",
        "name:zh": "扎博克",
        "place": "town",
        "population": "3408",
        "population:date": "2021-08-31",
        "source:population": "DZS 2021",
        "website": "https://www.zabok.hr/",
        "wikidata": "Q139018",
        "wikipedia": "hr:Zabok"
      },
      "geometry": {
        "type": "Point",
        "coordinates": [
          15.9036337,
          46.025686
        ]
      },
      "id": "node/1946775557"
    },
    {
      "type": "Feature",
      "properties": {
        "@id": "node/1946800676",
        "alt_name:it": "Novi di Vinodol",
        "name": "Novi Vinodolski",
        "name:ckb": "نۆڤی ڤینۆدۆلسکی",
        "name:fa": "نوی ویندولسکی",
        "name:it": "Novi",
        "name:ko": "노비비노돌스키",
        "name:lt": "Novi Vinodolskis",
        "name:ru": "Нови-Винодолски",
        "name:sr": "Нови Винодолски",
        "name:uk": "Новий Винодольський",
        "name:vec": "Novi",
        "name:zh-Hans": "新维诺多尔斯基",
        "name:zh-Hant": "新維諾多爾斯基",
        "place": "town",
        "population": "3336",
        "population:date": "2021-08-31",
        "source:population": "DZS 2021",
        "website": "https://novi-vinodolski.hr/",
        "wikidata": "Q397927",
        "wikipedia": "hr:Novi Vinodolski"
      },
      "geometry": {
        "type": "Point",
        "coordinates": [
          14.7888328,
          45.128264
        ]
      },
      "id": "node/1946800676"
    },
    {
      "type": "Feature",
      "properties": {
        "@id": "node/2027048676",
        "alt_name:la": "Romula Classica",
        "name": "Samobor",
        "name:ar": "ساموبور",
        "name:ba": "Самобор",
        "name:ckb": "سامۆبۆر",
        "name:fa": "ساموبور",
        "name:hr": "Samobor",
        "name:hu": "Szamobor",
        "name:hy": "Սամոբոր",
        "name:ja": "サモボル",
        "name:ko": "사모보르",
        "name:la": "Romula",
        "name:lt": "Samoboras",
        "name:mk": "Самобор",
        "name:ps": "ساموبور",
        "name:ru": "Самобор",
        "name:sr": "Самобор",
        "name:uk": "Самобор",
        "name:zh-Hans": "萨莫博尔",
        "name:zh-Hant": "薩莫博爾",
        "place": "town",
        "population": "16911",
        "population:date": "2021-08-31",
        "source:population": "DZS 2021",
        "website": "https://www.samobor.hr/",
        "wikidata": "Q390587",
        "wikipedia": "hr:Samobor"
      },
      "geometry": {
        "type": "Point",
        "coordinates": [
          15.7097105,
          45.8018625
        ]
      },
      "id": "node/2027048676"
    },
    {
      "type": "Feature",
      "properties": {
        "@id": "node/2228592112",
        "name": "Petrinja",
        "name:ar": "بترينجا",
        "name:ckb": "پێترینیا",
        "name:fa": "پترینیا",
        "name:he": "פטריניה",
        "name:hu": "Petrinya",
        "name:hy": "Պետրինյա",
        "name:it": "Petrinia",
        "name:ja": "ペトリニャ",
        "name:la": "Petrinia",
        "name:mk": "Петриња",
        "name:ru": "Петриня",
        "name:sr": "Петриња",
        "name:uk": "Петриня",
        "name:zh-Hans": "彼得里尼亚",
        "name:zh-Hant": "彼得里尼亞",
        "old_name:de": "Petrinia",
        "place": "town",
        "population": "12963",
        "population:date": "2021-08-31",
        "source:population": "DZS 2021",
        "website": "https://petrinja.hr/",
        "wikidata": "Q396512",
        "wikipedia": "hr:Petrinja"
      },
      "geometry": {
        "type": "Point",
        "coordinates": [
          16.278763,
          45.4415284
        ]
      },
      "id": "node/2228592112"
    },
    {
      "type": "Feature",
      "properties": {
        "@id": "node/2352460170",
        "alt_name:la": "Portus Tolerus",
        "loc_name": "Ploča",
        "name": "Ploče",
        "name:1950-1954": "Kardeljevo",
        "name:1980-1990": "Kardeljevo",
        "name:az": "Plоçe",
        "name:ckb": "پلۆچێ",
        "name:fa": "پلچه",
        "name:it": "Porto Tolero",
        "name:ja": "プロチェ",
        "name:ko": "플로체",
        "name:la": "Ploca",
        "name:lt": "Pločė",
        "name:ru": "Плоче",
        "name:sq": "Ploçe",
        "name:sr": "Плоче",
        "name:uk": "Плоче",
        "name:ur": "پلوچے",
        "name:vec": "Porto Tolero",
        "name:zh": "普洛切",
        "place": "town",
        "population": "4711",
        "population:date": "2021-08-31",
        "source:population": "DZS 2021",
        "website": "https://ploce.hr/",
        "wikidata": "Q115117",
        "wikipedia": "hr:Ploče"
      },
      "geometry": {
        "type": "Point",
        "coordinates": [
          17.4360676,
          43.0524293
        ]
      },
      "id": "node/2352460170"
    },
    {
      "type": "Feature",
      "properties": {
        "@id": "node/2389876354",
        "alt_name:it": "Buie d'Istria",
        "alt_name:la": "Bullea",
        "name": "Buje",
        "name:ckb": "بویێ",
        "name:fa": "بویه",
        "name:hr": "Buje",
        "name:hu": "Buje",
        "name:hy": "Բույե",
        "name:it": "Buie",
        "name:ja": "ブイェ",
        "name:la": "Bullae",
        "name:pt": "Buíe",
        "name:ru": "Буе",
        "name:sr": "Бује",
        "name:uk": "Бує",
        "name:zh": "布耶",
        "official_name": "Buje - Buie",
        "old_name:de": "Wege",
        "place": "town",
        "population": "2087",
        "population:date": "2021-08-31",
        "source:population": "DZS 2021",
        "website": "https://buje.hr/",
        "wikidata": "Q397724",
        "wikipedia": "hr:Buje"
      },
      "geometry": {
        "type": "Point",
        "coordinates": [
          13.6587529,
          45.4083871
        ]
      },
      "id": "node/2389876354"
    },
    {
      "type": "Feature",
      "properties": {
        "@id": "node/2808440038",
        "name": "Glina",
        "name:be": "Гліна",
        "name:ckb": "گلینا",
        "name:fa": "گلینا",
        "name:hu": "Glina",
        "name:hy": "Գլինա",
        "name:ru": "Глина",
        "name:sr": "Глина",
        "name:uk": "Глина",
        "name:zh-Hans": "格利纳",
        "name:zh-Hant": "格利納",
        "place": "town",
        "population": "4028",
        "population:date": "2021-08-31",
        "source:population": "DZS 2021",
        "website": "https://www.grad-glina.hr/",
        "wikidata": "Q396566",
        "wikipedia": "hr:Glina (grad)"
      },
      "geometry": {
        "type": "Point",
        "coordinates": [
          16.090752,
          45.3382654
        ]
      },
      "id": "node/2808440038"
    },
    {
      "type": "Feature",
      "properties": {
        "@id": "node/3016256309",
        "name": "Supetar",
        "name:ar": "سوبيتار",
        "name:ba": "Супетар",
        "name:ckb": "سوپێتار",
        "name:fa": "سوپتار",
        "name:hy": "Սուպետար",
        "name:it": "San Pietro di Brazza",
        "name:ja": "スペタル",
        "name:la": "Fanum Sancti Petri Brattiae",
        "name:ru": "Супетар",
        "name:sr": "Супетар",
        "name:uk": "Супетар",
        "name:vec": "San Pietro di Brazza",
        "name:wuu": "苏佩塔尔",
        "name:zh-Hans": "苏佩塔尔",
        "name:zh-Hant": "蘇佩塔爾",
        "place": "town",
        "population": "3415",
        "population:date": "2021-08-31",
        "postal_code": "21400",
        "source:population": "DZS 2021",
        "website": "https://www.gradsupetar.hr/",
        "wikidata": "Q768",
        "wikipedia": "hr:Supetar"
      },
      "geometry": {
        "type": "Point",
        "coordinates": [
          16.5532114,
          43.3825826
        ]
      },
      "id": "node/3016256309"
    },
    {
      "type": "Feature",
      "properties": {
        "@id": "node/4076800568",
        "name": "Benkovac",
        "name:bg": "Бенковац",
        "name:ckb": "بنکۆڤاتس",
        "name:fa": "بنکوواتس",
        "name:hy": "Բենկովաց",
        "name:it": "Bencovazzo",
        "name:ja": "ベンコヴァツ",
        "name:lv": "Benkovaca",
        "name:ru": "Бенковац",
        "name:sr": "Бенковац",
        "name:uk": "Бенковаць",
        "name:vec": "Bencovazzo",
        "name:zh": "本科瓦茨",
        "place": "town",
        "population": "2484",
        "population:date": "2021-08-31",
        "source:population": "DZS 2021",
        "website": "https://www.benkovac.hr/",
        "wikidata": "Q397443",
        "wikipedia": "hr:Benkovac"
      },
      "geometry": {
        "type": "Point",
        "coordinates": [
          15.6128513,
          44.0333553
        ]
      },
      "id": "node/4076800568"
    },
    {
      "type": "Feature",
      "properties": {
        "@id": "node/4386847850",
        "alt_name:la": "Imota",
        "name": "Imotski",
        "name:ar": "إيموتسكي",
        "name:ckb": "ئیمۆتسکی",
        "name:fa": "ایمتسکی",
        "name:hr": "Imotski",
        "name:it": "Imoschi",
        "name:ja": "イモツキ",
        "name:la": "Emotha",
        "name:ru": "Имотски",
        "name:sr": "Имотски",
        "name:uk": "Імотський",
        "name:ur": "اموتسکی",
        "name:vec": "Imoschi",
        "name:zh": "伊莫茨基",
        "old_name:de": "Eimot",
        "place": "town",
        "population": "4008",
        "population:date": "2021-08-31",
        "source:population": "DZS 2021",
        "website": "https://imotski.hr/",
        "wikidata": "Q397656",
        "wikipedia": "hr:Imotski"
      },
      "geometry": {
        "type": "Point",
        "coordinates": [
          17.2179703,
          43.4471115
        ]
      },
      "id": "node/4386847850"
    },
    {
      "type": "Feature",
      "properties": {
        "@id": "node/4749133276",
        "name": "Sesvete",
        "name:hu": "Szeszvete",
        "name:ru": "Сесвете",
        "name:sr": "Сесвете",
        "name:uk": "Сесвете",
        "place": "town",
        "population": "55313",
        "population:date": "2021-08-31",
        "postal_code": "10360",
        "source:population": "DZS 2021",
        "wikidata": "Q1017892",
        "wikipedia": "hr:Sesvete"
      },
      "geometry": {
        "type": "Point",
        "coordinates": [
          16.1100872,
          45.8272646
        ]
      },
      "id": "node/4749133276"
    },
    {
      "type": "Feature",
      "properties": {
        "@id": "node/5456488299",
        "capital": "6",
        "name": "Krapina",
        "name:ar": "كرابينا",
        "name:bg": "Крапина",
        "name:ce": "Крапина",
        "name:ckb": "کراپینا",
        "name:fa": "کراپینا",
        "name:hu": "Korpona",
        "name:hy": "Կրապինա",
        "name:ja": "クラピナ",
        "name:ka": "კრაპინა",
        "name:ko": "크라피나",
        "name:la": "Crapina",
        "name:lt": "Krapina",
        "name:ps": "کراپينا",
        "name:ru": "Крапина",
        "name:sr": "Крапина",
        "name:uk": "Крапина",
        "name:ur": "کراپینا",
        "name:zh-Hans": "克拉皮纳",
        "name:zh-Hant": "克拉皮納",
        "old_name:de": "Grabing",
        "place": "town",
        "population": "4201",
        "population:date": "2021-08-31",
        "source:population": "DZS 2021",
        "website": "https://www.krapina.hr/",
        "wikidata": "Q221189",
        "wikipedia": "hr:Krapina"
      },
      "geometry": {
        "type": "Point",
        "coordinates": [
          15.8711133,
          46.1628028
        ]
      },
      "id": "node/5456488299"
    },
    {
      "type": "Feature",
      "properties": {
        "@id": "node/5692544675",
        "name": "Zlatar",
        "name:be": "Златар",
        "name:ckb": "زلاتار",
        "name:fa": "زلاتار",
        "name:ru": "Златор",
        "name:sr": "Златар",
        "name:uk": "Златар",
        "name:zh-Hans": "兹拉塔尔",
        "name:zh-Hant": "茲拉塔爾",
        "place": "town",
        "population": "2825",
        "population:date": "2021-08-31",
        "source:population": "DZS 2021",
        "website": "https://zlatar.hr/",
        "wikidata": "Q396550",
        "wikipedia": "hr:Zlatar"
      },
      "geometry": {
        "type": "Point",
        "coordinates": [
          16.0773351,
          46.0927547
        ]
      },
      "id": "node/5692544675"
    }
  ]
}